{"type": "FeatureCollection", "coordinate_space": "map_area.png pixels, y down", "mm_per_px": 0.259, "features": [{"type": "Feature", "properties": {"class": "Forest", "class_index": 0, "area_px": 292.5}, "geometry": {"type": "Polygon", "coordinates": [[[661, 671], [657, 677], [657, 690], [655, 693], [659, 698], [661, 707], [665, 709], [667, 707], [667, 701], [665, 700], [667, 683], [665, 675], [661, 671]]]}}, {"type": "Feature", "properties": {"class": "Forest", "class_index": 0, "area_px": 2722.5}, "geometry": {"type": "Polygon", "coordinates": [[[139, 568], [146, 576], [165, 582], [177, 590], [205, 594], [212, 593], [218, 589], [228, 591], [242, 598], [249, 604], [261, 608], [267, 616], [279, 626], [289, 626], [307, 633], [312, 633], [317, 630], [306, 619], [304, 622], [300, 619], [300, 610], [284, 610], [276, 597], [268, 594], [265, 598], [263, 598], [257, 590], [254, 590], [247, 586], [239, 585], [232, 581], [230, 582], [223, 579], [220, 580], [215, 577], [212, 579], [203, 579], [200, 577], [198, 573], [186, 573], [177, 569], [171, 563], [167, 563], [160, 567], [141, 566], [139, 568]]]}}, {"type": "Feature", "properties": {"class": "Forest", "class_index": 0, "area_px": 263.0}, "geometry": {"type": "Polygon", "coordinates": [[[246, 456], [246, 464], [248, 471], [251, 473], [265, 473], [265, 470], [259, 462], [258, 455], [250, 454], [246, 456]]]}}, {"type": "Feature", "properties": {"class": "Forest", "class_index": 0, "area_px": 22.0}, "geometry": {"type": "Polygon", "coordinates": [[[495, 447], [494, 453], [498, 453], [499, 449], [495, 447]]]}}, {"type": "Feature", "properties": {"class": "Forest", "class_index": 0, "area_px": 187.5}, "geometry": {"type": "Polygon", "coordinates": [[[245, 444], [252, 448], [259, 449], [265, 453], [269, 448], [273, 446], [273, 444], [272, 445], [260, 442], [253, 438], [245, 444]]]}}, {"type": "Feature", "properties": {"class": "Forest", "class_index": 0, "area_px": 2020.5}, "geometry": {"type": "Polygon", "coordinates": [[[409, 427], [402, 424], [391, 426], [389, 424], [379, 422], [376, 425], [375, 434], [378, 446], [377, 453], [374, 458], [369, 475], [367, 500], [364, 505], [365, 515], [367, 515], [377, 506], [379, 501], [388, 494], [393, 482], [403, 473], [403, 471], [396, 464], [393, 445], [398, 441], [403, 442], [411, 436], [411, 430], [409, 427]]]}}, {"type": "Feature", "properties": {"class": "Forest", "class_index": 0, "area_px": 683.0}, "geometry": {"type": "Polygon", "coordinates": [[[200, 411], [199, 419], [202, 425], [201, 426], [203, 435], [208, 440], [233, 445], [235, 435], [229, 428], [226, 427], [224, 422], [222, 420], [213, 419], [200, 411]]]}}, {"type": "Feature", "properties": {"class": "Forest", "class_index": 0, "area_px": 322.5}, "geometry": {"type": "Polygon", "coordinates": [[[403, 383], [399, 383], [396, 386], [396, 391], [394, 395], [397, 399], [396, 413], [400, 416], [404, 414], [405, 404], [410, 396], [403, 383]]]}}, {"type": "Feature", "properties": {"class": "Forest", "class_index": 0, "area_px": 5135.5}, "geometry": {"type": "Polygon", "coordinates": [[[156, 377], [151, 378], [147, 383], [143, 402], [133, 432], [133, 443], [129, 453], [128, 462], [118, 494], [111, 510], [111, 513], [120, 520], [125, 517], [136, 506], [156, 509], [160, 511], [163, 510], [167, 512], [177, 511], [177, 509], [185, 500], [181, 495], [169, 493], [166, 495], [161, 493], [166, 485], [159, 480], [160, 475], [156, 469], [159, 466], [168, 473], [168, 476], [195, 493], [199, 498], [205, 496], [208, 490], [207, 483], [203, 476], [200, 474], [185, 471], [180, 466], [177, 456], [173, 452], [170, 452], [162, 442], [161, 424], [158, 420], [157, 410], [153, 400], [154, 394], [161, 389], [161, 384], [156, 377]]]}}, {"type": "Feature", "properties": {"class": "Forest", "class_index": 0, "area_px": 6444.5}, "geometry": {"type": "Polygon", "coordinates": [[[549, 360], [549, 362], [535, 377], [536, 387], [542, 401], [539, 411], [539, 421], [549, 429], [549, 431], [544, 436], [544, 442], [513, 443], [508, 449], [505, 449], [503, 451], [503, 454], [501, 456], [490, 457], [483, 453], [472, 462], [468, 463], [464, 468], [471, 471], [478, 479], [482, 479], [486, 473], [495, 472], [505, 495], [507, 504], [521, 505], [522, 510], [531, 519], [534, 526], [543, 530], [557, 528], [566, 534], [576, 532], [585, 537], [589, 532], [589, 529], [587, 527], [576, 527], [565, 522], [556, 514], [553, 507], [553, 497], [559, 486], [559, 479], [549, 465], [549, 458], [566, 445], [568, 435], [558, 413], [558, 407], [562, 400], [563, 392], [558, 380], [557, 365], [553, 360], [549, 360]]]}}, {"type": "Feature", "properties": {"class": "Forest", "class_index": 0, "area_px": 856.0}, "geometry": {"type": "Polygon", "coordinates": [[[431, 289], [425, 290], [421, 295], [419, 295], [415, 290], [412, 291], [413, 292], [411, 299], [416, 306], [412, 310], [408, 310], [405, 312], [398, 322], [399, 328], [406, 326], [413, 319], [418, 319], [426, 324], [431, 324], [433, 321], [432, 318], [434, 316], [443, 314], [444, 309], [440, 306], [435, 306], [433, 304], [431, 289]]]}}, {"type": "Feature", "properties": {"class": "Forest", "class_index": 0, "area_px": 204.0}, "geometry": {"type": "Polygon", "coordinates": [[[476, 223], [465, 224], [463, 227], [466, 231], [466, 237], [468, 242], [471, 242], [479, 237], [476, 223]]]}}, {"type": "Feature", "properties": {"class": "Forest", "class_index": 0, "area_px": 606.5}, "geometry": {"type": "Polygon", "coordinates": [[[589, 222], [576, 231], [575, 235], [571, 239], [572, 245], [555, 260], [557, 266], [556, 271], [558, 273], [566, 272], [566, 261], [568, 259], [577, 258], [589, 233], [589, 222]]]}}, {"type": "Feature", "properties": {"class": "Forest", "class_index": 0, "area_px": 708.0}, "geometry": {"type": "Polygon", "coordinates": [[[618, 177], [611, 173], [606, 174], [604, 176], [605, 181], [583, 197], [583, 203], [579, 207], [571, 211], [570, 216], [572, 221], [579, 220], [584, 217], [589, 219], [591, 209], [595, 204], [596, 199], [601, 195], [608, 194], [613, 191], [614, 183], [618, 177]]]}}, {"type": "Feature", "properties": {"class": "Grassland", "class_index": 1, "area_px": 3323.5}, "geometry": {"type": "Polygon", "coordinates": [[[675, 619], [674, 622], [668, 628], [658, 632], [659, 639], [653, 647], [643, 652], [638, 652], [636, 650], [633, 654], [632, 667], [636, 677], [636, 685], [639, 695], [645, 704], [652, 703], [656, 707], [656, 719], [660, 722], [665, 722], [667, 720], [675, 704], [676, 693], [686, 670], [685, 641], [681, 633], [681, 626], [675, 619]], [[661, 670], [666, 675], [668, 683], [666, 692], [666, 700], [668, 701], [668, 707], [665, 710], [663, 710], [660, 707], [658, 698], [654, 693], [656, 690], [656, 677], [661, 670]]]}}, {"type": "Feature", "properties": {"class": "Grassland", "class_index": 1, "area_px": 728.0}, "geometry": {"type": "Polygon", "coordinates": [[[419, 518], [413, 524], [412, 528], [417, 533], [419, 539], [428, 545], [428, 551], [426, 555], [423, 557], [425, 565], [432, 570], [449, 570], [448, 566], [439, 559], [435, 551], [435, 547], [437, 546], [437, 540], [433, 535], [434, 534], [430, 526], [425, 520], [419, 518]]]}}, {"type": "Feature", "properties": {"class": "Grassland", "class_index": 1, "area_px": 820.0}, "geometry": {"type": "Polygon", "coordinates": [[[180, 517], [177, 512], [167, 513], [163, 511], [160, 512], [156, 510], [136, 507], [125, 518], [120, 521], [111, 514], [109, 514], [96, 525], [95, 529], [96, 531], [99, 529], [119, 531], [126, 528], [137, 519], [142, 517], [150, 517], [163, 521], [175, 521], [179, 520], [180, 517]]]}}, {"type": "Feature", "properties": {"class": "Grassland", "class_index": 1, "area_px": 3496.0}, "geometry": {"type": "Polygon", "coordinates": [[[584, 537], [576, 533], [566, 535], [557, 529], [545, 531], [540, 530], [532, 525], [530, 519], [521, 510], [521, 506], [508, 506], [507, 515], [510, 523], [510, 535], [507, 538], [505, 548], [501, 552], [501, 554], [493, 561], [491, 569], [488, 572], [480, 572], [471, 584], [474, 587], [492, 596], [499, 595], [499, 592], [502, 588], [502, 577], [504, 573], [511, 568], [512, 565], [517, 564], [520, 567], [525, 567], [529, 569], [537, 568], [543, 565], [543, 558], [547, 553], [561, 552], [568, 557], [577, 556], [581, 552], [584, 537]]]}}, {"type": "Feature", "properties": {"class": "Grassland", "class_index": 1, "area_px": 1863.0}, "geometry": {"type": "Polygon", "coordinates": [[[462, 485], [459, 489], [455, 491], [455, 497], [453, 498], [453, 500], [455, 501], [455, 505], [466, 516], [466, 525], [462, 529], [463, 534], [469, 538], [496, 536], [503, 530], [503, 524], [497, 511], [499, 502], [480, 487], [471, 482], [462, 485]]]}}, {"type": "Feature", "properties": {"class": "Grassland", "class_index": 1, "area_px": 11345.0}, "geometry": {"type": "Polygon", "coordinates": [[[358, 399], [353, 395], [346, 395], [344, 398], [339, 398], [331, 411], [331, 415], [327, 415], [325, 418], [317, 424], [313, 425], [309, 429], [307, 427], [304, 431], [303, 430], [300, 434], [299, 433], [295, 438], [296, 440], [293, 441], [294, 443], [292, 445], [284, 446], [280, 444], [279, 446], [276, 446], [274, 444], [273, 437], [269, 433], [252, 437], [251, 439], [250, 438], [244, 442], [243, 445], [236, 445], [234, 441], [235, 439], [234, 447], [236, 450], [245, 455], [254, 453], [260, 456], [267, 456], [276, 452], [287, 453], [292, 451], [299, 451], [304, 458], [305, 457], [308, 459], [317, 457], [327, 459], [335, 457], [337, 459], [337, 464], [333, 468], [329, 469], [327, 467], [324, 467], [323, 470], [321, 469], [321, 467], [299, 471], [300, 473], [297, 475], [288, 473], [279, 473], [278, 475], [275, 475], [275, 472], [272, 475], [271, 473], [267, 475], [272, 480], [275, 479], [285, 481], [294, 481], [303, 478], [306, 479], [308, 477], [310, 478], [315, 476], [321, 476], [330, 479], [348, 490], [360, 491], [366, 488], [367, 489], [364, 495], [359, 495], [358, 497], [353, 499], [348, 506], [341, 512], [335, 511], [318, 517], [313, 517], [311, 520], [296, 519], [289, 524], [273, 524], [269, 521], [266, 509], [269, 506], [275, 506], [277, 504], [264, 500], [259, 503], [255, 503], [251, 508], [257, 520], [271, 531], [273, 538], [269, 540], [265, 537], [260, 537], [256, 547], [243, 559], [239, 559], [223, 566], [195, 567], [191, 563], [190, 558], [195, 551], [197, 551], [191, 541], [177, 550], [173, 550], [166, 544], [158, 543], [158, 546], [165, 554], [165, 557], [162, 560], [158, 559], [142, 544], [135, 541], [121, 541], [115, 544], [110, 544], [106, 549], [106, 553], [109, 555], [116, 556], [123, 561], [136, 567], [139, 567], [141, 565], [160, 566], [167, 562], [171, 562], [177, 568], [186, 572], [196, 571], [203, 578], [212, 578], [215, 576], [220, 579], [223, 578], [230, 581], [232, 580], [239, 584], [247, 585], [254, 589], [257, 589], [263, 597], [265, 597], [268, 593], [276, 596], [280, 600], [284, 609], [300, 609], [300, 617], [303, 621], [305, 619], [305, 610], [320, 609], [329, 601], [338, 602], [339, 583], [328, 580], [318, 579], [307, 586], [300, 586], [294, 582], [283, 593], [271, 588], [268, 583], [270, 581], [269, 565], [263, 550], [273, 541], [290, 542], [290, 533], [288, 531], [288, 528], [291, 526], [298, 526], [301, 524], [310, 524], [312, 522], [317, 523], [321, 521], [323, 522], [325, 520], [337, 519], [354, 513], [365, 503], [368, 475], [373, 458], [376, 453], [376, 448], [368, 450], [365, 449], [361, 443], [361, 428], [359, 425], [361, 415], [358, 399]], [[244, 444], [253, 437], [260, 441], [272, 444], [273, 443], [274, 446], [269, 449], [265, 454], [259, 450], [252, 449], [244, 444]]]}}, {"type": "Feature", "properties": {"class": "Grassland", "class_index": 1, "area_px": 101.5}, "geometry": {"type": "Polygon", "coordinates": [[[170, 371], [176, 377], [189, 379], [192, 377], [188, 372], [186, 374], [183, 374], [179, 369], [170, 371]]]}}, {"type": "Feature", "properties": {"class": "Grassland", "class_index": 1, "area_px": 59.5}, "geometry": {"type": "Polygon", "coordinates": [[[149, 364], [149, 368], [155, 374], [159, 375], [163, 373], [161, 374], [152, 364], [149, 364]]]}}, {"type": "Feature", "properties": {"class": "Grassland", "class_index": 1, "area_px": 19565.5}, "geometry": {"type": "Polygon", "coordinates": [[[366, 198], [355, 207], [355, 209], [357, 211], [360, 210], [362, 215], [368, 212], [367, 210], [369, 208], [377, 208], [385, 219], [385, 224], [381, 232], [376, 237], [338, 230], [320, 230], [306, 234], [303, 241], [315, 236], [323, 230], [332, 230], [334, 232], [331, 235], [324, 237], [318, 241], [319, 245], [317, 249], [305, 258], [300, 260], [298, 264], [308, 274], [308, 280], [328, 279], [330, 282], [330, 286], [335, 287], [339, 291], [355, 277], [360, 277], [362, 279], [361, 293], [366, 298], [368, 307], [353, 324], [353, 326], [356, 330], [375, 335], [380, 342], [380, 347], [375, 353], [375, 361], [378, 363], [376, 370], [378, 379], [383, 381], [387, 373], [386, 336], [388, 334], [391, 334], [394, 337], [393, 339], [396, 341], [396, 345], [398, 346], [397, 347], [399, 348], [399, 351], [402, 353], [402, 357], [404, 358], [404, 362], [406, 363], [405, 366], [407, 367], [401, 380], [398, 380], [394, 385], [393, 395], [390, 396], [391, 399], [389, 400], [389, 407], [386, 409], [383, 407], [379, 410], [380, 421], [389, 423], [391, 425], [402, 423], [409, 426], [412, 421], [416, 418], [429, 417], [432, 409], [435, 412], [439, 400], [439, 393], [444, 383], [444, 376], [448, 361], [452, 352], [459, 347], [461, 343], [460, 334], [456, 335], [451, 339], [446, 339], [444, 337], [444, 333], [449, 329], [452, 329], [457, 318], [455, 302], [457, 294], [461, 288], [459, 286], [459, 274], [454, 255], [467, 243], [465, 231], [462, 227], [464, 223], [462, 223], [452, 215], [446, 212], [448, 210], [443, 209], [442, 206], [427, 201], [425, 202], [422, 199], [420, 200], [418, 197], [404, 197], [401, 199], [399, 198], [388, 200], [386, 202], [385, 200], [383, 201], [382, 198], [378, 197], [366, 198]], [[399, 382], [404, 383], [411, 395], [409, 401], [406, 404], [406, 412], [401, 417], [395, 413], [396, 399], [393, 395], [395, 391], [395, 386], [399, 382]], [[413, 252], [428, 264], [417, 270], [417, 274], [420, 277], [418, 283], [420, 284], [417, 285], [418, 287], [416, 290], [419, 294], [421, 294], [425, 289], [431, 288], [433, 290], [434, 304], [442, 306], [445, 309], [445, 312], [443, 315], [434, 317], [434, 321], [431, 325], [426, 325], [418, 320], [413, 320], [406, 327], [399, 329], [397, 324], [398, 320], [406, 310], [412, 309], [415, 306], [410, 299], [412, 292], [411, 290], [404, 285], [404, 275], [408, 269], [405, 254], [407, 252], [413, 252]], [[394, 246], [397, 249], [398, 253], [396, 256], [399, 260], [398, 261], [400, 262], [400, 266], [385, 278], [383, 281], [384, 284], [381, 285], [375, 293], [372, 290], [371, 284], [372, 271], [375, 268], [375, 266], [383, 262], [389, 256], [391, 248], [394, 246]], [[397, 209], [414, 209], [423, 213], [428, 220], [429, 224], [432, 226], [431, 227], [443, 240], [442, 241], [445, 244], [448, 258], [450, 261], [449, 262], [452, 265], [453, 272], [451, 279], [447, 284], [443, 282], [439, 277], [439, 275], [442, 273], [441, 266], [439, 264], [431, 264], [429, 261], [430, 258], [425, 252], [413, 248], [402, 239], [399, 229], [399, 222], [395, 214], [395, 211], [397, 209]]]}}, {"type": "Feature", "properties": {"class": "Grassland", "class_index": 1, "area_px": 511.0}, "geometry": {"type": "Polygon", "coordinates": [[[629, 178], [619, 177], [615, 183], [614, 191], [607, 195], [607, 199], [611, 203], [615, 211], [629, 196], [634, 188], [634, 182], [629, 178]]]}}, {"type": "Feature", "properties": {"class": "Grassland", "class_index": 1, "area_px": 6003.0}, "geometry": {"type": "Polygon", "coordinates": [[[166, 82], [164, 87], [165, 99], [172, 118], [168, 140], [168, 148], [172, 158], [174, 158], [184, 168], [192, 171], [215, 170], [227, 167], [232, 164], [239, 166], [252, 176], [251, 189], [254, 194], [261, 193], [270, 185], [276, 174], [277, 160], [280, 157], [274, 142], [275, 125], [272, 119], [270, 119], [267, 115], [256, 114], [238, 123], [238, 126], [240, 127], [240, 142], [238, 146], [238, 151], [242, 157], [240, 161], [236, 161], [230, 156], [230, 151], [228, 147], [216, 146], [213, 142], [209, 111], [205, 108], [198, 107], [194, 104], [191, 97], [190, 84], [186, 82], [166, 82]]]}}, {"type": "Feature", "properties": {"class": "Grassland", "class_index": 1, "area_px": 23465.0}, "geometry": {"type": "Polygon", "coordinates": [[[443, 71], [439, 71], [429, 83], [426, 89], [421, 91], [421, 97], [405, 110], [404, 116], [399, 121], [388, 127], [383, 128], [377, 136], [360, 146], [356, 153], [363, 155], [365, 157], [366, 153], [370, 149], [379, 143], [387, 141], [404, 140], [408, 142], [419, 141], [424, 143], [434, 139], [443, 139], [444, 136], [441, 133], [430, 129], [423, 129], [418, 136], [413, 136], [406, 139], [394, 137], [391, 134], [391, 132], [394, 130], [409, 129], [412, 120], [411, 118], [417, 110], [421, 109], [430, 114], [439, 114], [447, 111], [451, 113], [455, 119], [458, 118], [461, 120], [465, 126], [475, 129], [480, 134], [483, 143], [491, 152], [489, 157], [490, 167], [493, 172], [493, 176], [497, 182], [496, 186], [491, 186], [488, 181], [486, 173], [482, 167], [476, 162], [471, 149], [468, 147], [466, 150], [466, 154], [470, 160], [469, 163], [476, 169], [475, 176], [483, 182], [477, 192], [471, 194], [460, 188], [451, 175], [442, 168], [436, 167], [435, 173], [443, 181], [446, 181], [451, 187], [451, 189], [459, 197], [469, 201], [475, 207], [476, 215], [478, 216], [477, 223], [480, 236], [484, 234], [483, 229], [485, 218], [493, 217], [501, 211], [503, 213], [499, 225], [496, 227], [497, 236], [486, 254], [487, 261], [493, 261], [495, 259], [498, 261], [498, 266], [495, 275], [496, 280], [493, 281], [493, 284], [495, 285], [499, 283], [504, 278], [518, 276], [520, 278], [521, 285], [525, 288], [521, 294], [517, 293], [516, 296], [512, 295], [508, 299], [501, 300], [495, 307], [493, 307], [492, 305], [490, 306], [494, 313], [492, 321], [497, 323], [499, 321], [507, 321], [510, 323], [510, 325], [506, 330], [502, 340], [486, 359], [482, 375], [479, 380], [479, 385], [474, 389], [475, 394], [480, 399], [480, 403], [475, 408], [470, 409], [466, 420], [462, 425], [461, 429], [456, 434], [455, 438], [450, 440], [447, 432], [448, 424], [444, 420], [442, 420], [436, 424], [427, 434], [419, 439], [419, 442], [422, 445], [419, 452], [415, 448], [410, 448], [410, 464], [408, 469], [404, 471], [404, 473], [394, 482], [389, 494], [383, 498], [378, 506], [369, 514], [372, 511], [374, 511], [377, 514], [374, 521], [375, 523], [373, 524], [374, 526], [371, 527], [362, 538], [362, 540], [354, 546], [344, 550], [342, 549], [334, 553], [323, 553], [314, 543], [297, 543], [299, 548], [303, 552], [326, 558], [329, 561], [326, 567], [330, 568], [340, 567], [344, 565], [353, 556], [361, 555], [364, 553], [366, 548], [371, 544], [377, 545], [380, 548], [380, 551], [386, 556], [391, 547], [391, 537], [395, 532], [397, 525], [402, 521], [406, 507], [424, 489], [429, 488], [424, 482], [424, 480], [426, 478], [425, 474], [430, 467], [432, 451], [442, 443], [450, 443], [451, 448], [454, 451], [465, 451], [475, 439], [475, 434], [482, 427], [485, 417], [492, 408], [498, 409], [498, 416], [500, 418], [497, 419], [496, 424], [491, 432], [491, 442], [494, 446], [500, 449], [500, 452], [498, 454], [490, 456], [501, 455], [502, 451], [505, 448], [508, 448], [513, 442], [543, 442], [543, 436], [548, 431], [548, 429], [538, 421], [538, 411], [541, 401], [535, 387], [534, 377], [548, 362], [548, 360], [545, 361], [542, 365], [543, 366], [535, 375], [529, 378], [529, 382], [526, 388], [527, 392], [524, 395], [522, 394], [520, 397], [514, 397], [505, 409], [501, 410], [498, 407], [499, 396], [504, 386], [504, 382], [508, 378], [512, 378], [518, 374], [522, 364], [524, 350], [536, 338], [543, 325], [550, 318], [556, 315], [569, 301], [575, 289], [586, 288], [589, 286], [588, 283], [580, 275], [571, 272], [558, 274], [555, 271], [556, 266], [554, 260], [571, 245], [570, 239], [574, 235], [575, 231], [588, 221], [588, 219], [584, 218], [579, 221], [572, 222], [569, 216], [570, 211], [582, 203], [582, 197], [605, 174], [603, 174], [583, 194], [582, 201], [575, 207], [573, 207], [567, 212], [562, 212], [561, 209], [558, 209], [554, 212], [550, 212], [546, 207], [543, 198], [538, 197], [535, 193], [535, 182], [539, 175], [538, 171], [540, 168], [540, 157], [538, 154], [541, 149], [538, 148], [538, 151], [535, 152], [533, 155], [531, 162], [532, 165], [529, 169], [530, 178], [528, 179], [528, 186], [530, 187], [528, 194], [530, 198], [529, 201], [533, 205], [535, 204], [539, 209], [538, 218], [540, 219], [540, 225], [535, 228], [531, 233], [530, 232], [527, 235], [526, 234], [525, 237], [523, 235], [521, 236], [517, 231], [518, 222], [514, 210], [512, 195], [510, 193], [512, 189], [511, 185], [509, 184], [508, 179], [505, 177], [503, 168], [505, 164], [503, 160], [508, 157], [508, 155], [505, 150], [500, 152], [498, 146], [501, 144], [510, 144], [512, 142], [511, 140], [513, 139], [513, 137], [499, 124], [487, 116], [483, 111], [481, 95], [478, 89], [475, 89], [464, 98], [455, 97], [451, 92], [450, 76], [443, 71]]]}}, {"type": "Feature", "properties": {"class": "Grassland", "class_index": 1, "area_px": 364.5}, "geometry": {"type": "Polygon", "coordinates": [[[327, 71], [329, 76], [341, 88], [353, 97], [363, 102], [378, 102], [381, 103], [385, 108], [388, 108], [385, 99], [384, 100], [383, 98], [365, 98], [356, 94], [353, 90], [351, 90], [341, 80], [333, 68], [330, 68], [327, 71]]]}}, {"type": "Feature", "properties": {"class": "Grassland and crops", "class_index": 2, "area_px": 8658.5}, "geometry": {"type": "Polygon", "coordinates": [[[359, 314], [351, 323], [354, 333], [344, 349], [341, 349], [337, 345], [337, 335], [333, 323], [334, 322], [327, 314], [324, 315], [323, 313], [320, 313], [315, 315], [295, 338], [294, 337], [288, 340], [267, 343], [250, 353], [246, 358], [246, 361], [244, 362], [241, 371], [240, 386], [243, 397], [253, 412], [261, 420], [274, 426], [281, 428], [294, 428], [298, 425], [299, 419], [311, 408], [314, 401], [301, 393], [294, 386], [298, 381], [303, 379], [322, 380], [324, 383], [324, 397], [345, 394], [352, 389], [360, 379], [364, 369], [369, 364], [376, 365], [377, 363], [374, 361], [374, 353], [379, 347], [379, 342], [375, 336], [356, 331], [353, 328], [352, 324], [360, 316], [359, 314]]]}}, {"type": "Feature", "properties": {"class": "Grassland and crops", "class_index": 2, "area_px": 1138.0}, "geometry": {"type": "Polygon", "coordinates": [[[228, 300], [228, 309], [230, 314], [235, 320], [242, 321], [251, 316], [251, 310], [255, 306], [260, 307], [265, 312], [269, 311], [272, 308], [272, 305], [274, 303], [274, 288], [271, 283], [267, 283], [257, 294], [255, 294], [249, 285], [249, 282], [245, 279], [239, 279], [239, 283], [244, 287], [246, 292], [236, 292], [229, 297], [228, 300]]]}}, {"type": "Feature", "properties": {"class": "Grassland and crops", "class_index": 2, "area_px": 23268.5}, "geometry": {"type": "Polygon", "coordinates": [[[14, 136], [12, 142], [8, 145], [8, 150], [14, 154], [14, 161], [18, 164], [18, 168], [14, 169], [14, 175], [19, 180], [20, 186], [22, 187], [21, 190], [23, 192], [39, 191], [43, 195], [47, 195], [57, 200], [62, 205], [68, 207], [72, 211], [74, 223], [87, 222], [99, 228], [104, 233], [104, 246], [106, 248], [112, 249], [116, 253], [115, 259], [120, 264], [120, 270], [115, 275], [115, 278], [124, 294], [128, 307], [133, 312], [138, 310], [159, 310], [177, 312], [182, 314], [191, 314], [196, 311], [200, 305], [201, 306], [201, 287], [199, 285], [198, 269], [189, 263], [186, 264], [173, 261], [154, 271], [147, 271], [143, 268], [143, 264], [153, 255], [169, 249], [189, 251], [194, 254], [203, 253], [207, 255], [211, 248], [220, 245], [246, 244], [252, 246], [253, 244], [256, 245], [258, 243], [258, 241], [241, 242], [231, 237], [233, 233], [243, 230], [249, 224], [250, 220], [249, 216], [244, 212], [244, 197], [240, 191], [250, 186], [251, 176], [239, 167], [232, 165], [227, 168], [215, 171], [192, 172], [181, 167], [174, 159], [164, 159], [158, 157], [152, 150], [149, 150], [150, 153], [147, 155], [138, 153], [130, 148], [125, 148], [120, 151], [113, 152], [104, 143], [101, 137], [101, 133], [91, 127], [75, 127], [69, 132], [61, 132], [58, 134], [53, 133], [49, 130], [40, 131], [35, 129], [28, 129], [23, 133], [14, 136]]]}}, {"type": "Feature", "properties": {"class": "Grassland and crops", "class_index": 2, "area_px": 1265.0}, "geometry": {"type": "Polygon", "coordinates": [[[385, 11], [382, 8], [375, 8], [365, 13], [351, 13], [340, 18], [336, 22], [333, 32], [335, 45], [345, 42], [354, 34], [371, 38], [379, 45], [379, 36], [385, 28], [385, 11]]]}}, {"type": "Feature", "properties": {"class": "Cropland (primarily wheat, sugar beets, corn)", "class_index": 3, "area_px": 1990.0}, "geometry": {"type": "Polygon", "coordinates": [[[195, 524], [185, 517], [182, 517], [179, 521], [175, 522], [163, 522], [150, 518], [142, 518], [137, 520], [126, 529], [119, 532], [99, 530], [93, 533], [96, 537], [103, 539], [109, 544], [121, 540], [139, 541], [158, 558], [162, 559], [164, 557], [164, 554], [157, 546], [157, 543], [163, 542], [173, 549], [177, 549], [191, 540], [193, 537], [195, 524]]]}}, {"type": "Feature", "properties": {"class": "Cropland (primarily wheat, sugar beets, corn)", "class_index": 3, "area_px": 17228.5}, "geometry": {"type": "Polygon", "coordinates": [[[407, 35], [393, 35], [385, 29], [385, 31], [380, 36], [379, 46], [371, 39], [354, 35], [345, 43], [337, 46], [334, 45], [333, 47], [333, 53], [330, 60], [330, 67], [333, 67], [342, 80], [356, 93], [365, 97], [383, 97], [384, 99], [385, 98], [388, 104], [388, 109], [385, 109], [381, 104], [378, 103], [363, 103], [361, 101], [358, 101], [341, 89], [326, 73], [324, 73], [317, 79], [307, 83], [275, 89], [262, 96], [255, 104], [254, 110], [257, 113], [271, 115], [288, 107], [304, 102], [309, 102], [314, 107], [313, 117], [308, 127], [308, 133], [315, 147], [314, 173], [323, 184], [324, 194], [323, 197], [317, 203], [293, 206], [293, 209], [298, 220], [306, 233], [320, 229], [338, 229], [376, 236], [380, 232], [384, 224], [384, 219], [377, 209], [369, 209], [369, 212], [362, 216], [360, 214], [360, 211], [357, 212], [354, 209], [354, 207], [366, 197], [384, 197], [392, 182], [398, 177], [397, 175], [405, 168], [416, 163], [417, 159], [423, 153], [423, 144], [419, 142], [408, 143], [404, 141], [387, 142], [379, 144], [370, 150], [365, 158], [355, 153], [355, 151], [360, 145], [377, 135], [383, 127], [388, 126], [399, 120], [403, 116], [404, 110], [420, 97], [420, 91], [425, 89], [428, 83], [439, 70], [434, 69], [425, 59], [414, 52], [411, 48], [407, 35]], [[349, 150], [354, 151], [355, 155], [351, 159], [343, 163], [345, 168], [343, 174], [350, 178], [354, 176], [357, 170], [360, 170], [364, 174], [364, 181], [362, 185], [356, 190], [355, 195], [352, 198], [345, 197], [343, 190], [336, 184], [336, 178], [334, 175], [333, 167], [329, 161], [332, 155], [337, 156], [349, 150]]]}}, {"type": "Feature", "properties": {"class": "Other crops (primarily cereals)", "class_index": 4, "area_px": 119.5}, "geometry": {"type": "Polygon", "coordinates": [[[646, 705], [646, 714], [649, 717], [656, 718], [655, 707], [652, 704], [646, 705]]]}}, {"type": "Feature", "properties": {"class": "Other crops (primarily cereals)", "class_index": 4, "area_px": 65.0}, "geometry": {"type": "Polygon", "coordinates": [[[677, 612], [675, 618], [680, 623], [683, 619], [683, 615], [680, 612], [677, 612]]]}}, {"type": "Feature", "properties": {"class": "Other crops (primarily cereals)", "class_index": 4, "area_px": 2432.0}, "geometry": {"type": "Polygon", "coordinates": [[[376, 514], [372, 512], [369, 515], [365, 516], [363, 514], [363, 506], [354, 514], [337, 520], [325, 521], [323, 523], [321, 522], [317, 524], [312, 523], [310, 525], [301, 525], [298, 527], [294, 526], [289, 528], [289, 531], [291, 533], [291, 542], [295, 544], [293, 549], [294, 554], [299, 561], [301, 570], [309, 567], [321, 568], [328, 563], [328, 561], [317, 556], [307, 555], [306, 553], [303, 553], [298, 548], [296, 543], [297, 542], [314, 542], [323, 552], [334, 552], [342, 548], [344, 549], [350, 547], [360, 541], [370, 527], [373, 526], [372, 524], [374, 523], [373, 521], [376, 514]]]}}, {"type": "Feature", "properties": {"class": "Other crops (primarily cereals)", "class_index": 4, "area_px": 647.0}, "geometry": {"type": "Polygon", "coordinates": [[[433, 494], [431, 494], [424, 502], [422, 502], [419, 505], [413, 505], [412, 503], [409, 504], [405, 511], [403, 519], [406, 529], [410, 529], [412, 524], [419, 517], [422, 517], [431, 526], [434, 533], [436, 528], [436, 522], [433, 517], [433, 509], [436, 500], [433, 494]]]}}, {"type": "Feature", "properties": {"class": "Other crops (primarily cereals)", "class_index": 4, "area_px": 3335.5}, "geometry": {"type": "Polygon", "coordinates": [[[157, 468], [161, 475], [160, 480], [167, 485], [162, 493], [166, 494], [169, 492], [181, 494], [186, 499], [198, 502], [206, 513], [223, 520], [230, 529], [230, 533], [227, 537], [219, 538], [208, 531], [201, 530], [196, 526], [192, 541], [198, 551], [195, 552], [191, 558], [192, 563], [195, 566], [214, 566], [227, 564], [239, 558], [243, 558], [255, 547], [258, 538], [261, 536], [257, 527], [244, 512], [235, 509], [226, 500], [210, 491], [208, 491], [205, 497], [199, 499], [195, 494], [168, 477], [167, 473], [160, 467], [157, 468]]]}}, {"type": "Feature", "properties": {"class": "Other crops (primarily cereals)", "class_index": 4, "area_px": 4324.0}, "geometry": {"type": "Polygon", "coordinates": [[[232, 487], [232, 489], [234, 490], [240, 489], [250, 493], [257, 493], [263, 499], [277, 503], [277, 506], [269, 507], [267, 509], [270, 521], [273, 523], [289, 523], [296, 518], [311, 519], [313, 516], [318, 516], [335, 510], [341, 511], [343, 508], [347, 506], [353, 498], [358, 496], [359, 494], [364, 494], [366, 491], [366, 489], [360, 492], [348, 491], [330, 480], [321, 477], [315, 477], [310, 479], [308, 478], [306, 480], [303, 479], [294, 482], [275, 480], [272, 481], [267, 477], [266, 474], [270, 472], [272, 474], [274, 472], [275, 474], [278, 474], [279, 472], [297, 474], [299, 473], [299, 470], [321, 466], [323, 469], [324, 466], [327, 466], [329, 468], [333, 467], [336, 464], [335, 458], [323, 460], [320, 458], [308, 460], [305, 458], [304, 459], [299, 452], [292, 452], [287, 454], [276, 453], [267, 457], [260, 457], [260, 462], [266, 470], [266, 476], [261, 480], [255, 480], [252, 482], [239, 484], [232, 487]]]}}, {"type": "Feature", "properties": {"class": "Other crops (primarily cereals)", "class_index": 4, "area_px": 1416.0}, "geometry": {"type": "Polygon", "coordinates": [[[468, 411], [458, 409], [454, 401], [451, 401], [441, 412], [434, 413], [432, 410], [431, 416], [429, 418], [419, 418], [414, 420], [410, 426], [412, 430], [412, 436], [403, 443], [398, 442], [394, 445], [394, 449], [396, 452], [396, 461], [398, 466], [402, 470], [407, 469], [409, 464], [409, 448], [411, 446], [413, 448], [415, 447], [419, 451], [421, 445], [418, 442], [418, 439], [427, 433], [436, 423], [442, 419], [444, 419], [449, 424], [448, 432], [450, 439], [454, 438], [455, 434], [460, 429], [461, 425], [465, 420], [468, 411]]]}}, {"type": "Feature", "properties": {"class": "Other crops (primarily cereals)", "class_index": 4, "area_px": 3507.5}, "geometry": {"type": "Polygon", "coordinates": [[[544, 360], [533, 360], [529, 364], [527, 371], [524, 375], [518, 375], [512, 379], [508, 379], [505, 382], [505, 386], [500, 396], [499, 407], [497, 409], [492, 409], [486, 417], [483, 427], [476, 434], [476, 439], [465, 452], [454, 452], [450, 448], [450, 444], [442, 444], [433, 451], [431, 467], [426, 474], [427, 478], [425, 482], [430, 488], [433, 489], [438, 485], [442, 485], [444, 487], [445, 491], [442, 501], [445, 504], [454, 504], [454, 501], [452, 500], [452, 498], [454, 497], [454, 491], [457, 488], [459, 488], [462, 484], [470, 481], [480, 486], [500, 502], [506, 503], [495, 473], [486, 474], [482, 480], [478, 480], [471, 472], [465, 470], [463, 467], [483, 452], [489, 455], [493, 454], [494, 447], [490, 442], [490, 432], [495, 424], [496, 419], [499, 418], [497, 416], [497, 409], [499, 407], [501, 409], [505, 408], [514, 396], [520, 396], [522, 393], [524, 394], [526, 392], [525, 388], [528, 382], [528, 378], [539, 370], [544, 360]]]}}, {"type": "Feature", "properties": {"class": "Other crops (primarily cereals)", "class_index": 4, "area_px": 882.0}, "geometry": {"type": "Polygon", "coordinates": [[[509, 323], [499, 322], [497, 324], [491, 322], [481, 328], [477, 337], [476, 344], [477, 366], [475, 372], [475, 388], [478, 385], [478, 380], [481, 375], [485, 359], [501, 340], [509, 323]]]}}, {"type": "Feature", "properties": {"class": "Other crops (primarily cereals)", "class_index": 4, "area_px": 18842.0}, "geometry": {"type": "Polygon", "coordinates": [[[136, 312], [138, 312], [145, 320], [150, 322], [154, 327], [157, 348], [150, 362], [161, 373], [164, 373], [158, 376], [160, 381], [165, 385], [175, 386], [181, 389], [184, 389], [186, 387], [194, 387], [198, 390], [206, 390], [211, 395], [211, 400], [216, 406], [224, 407], [228, 411], [228, 416], [224, 421], [227, 427], [229, 427], [236, 435], [236, 444], [243, 444], [243, 442], [250, 437], [251, 438], [252, 436], [269, 432], [274, 437], [276, 445], [279, 445], [280, 443], [284, 445], [292, 444], [292, 441], [295, 440], [294, 438], [299, 432], [300, 433], [307, 426], [309, 428], [313, 424], [317, 423], [327, 414], [330, 415], [330, 411], [339, 397], [344, 397], [346, 394], [353, 394], [360, 401], [359, 403], [362, 415], [360, 422], [362, 428], [362, 443], [365, 448], [375, 448], [377, 446], [374, 428], [379, 421], [378, 410], [383, 406], [385, 408], [388, 407], [388, 400], [390, 399], [389, 396], [392, 395], [393, 385], [398, 379], [400, 380], [404, 370], [406, 369], [406, 367], [404, 366], [405, 363], [403, 362], [404, 360], [401, 357], [402, 355], [398, 351], [399, 350], [395, 345], [395, 341], [392, 339], [393, 337], [391, 335], [388, 335], [388, 373], [386, 379], [383, 382], [377, 379], [375, 374], [376, 366], [369, 365], [365, 369], [361, 379], [355, 387], [345, 395], [324, 398], [322, 381], [300, 381], [295, 386], [301, 392], [314, 400], [314, 404], [312, 408], [300, 419], [300, 423], [296, 428], [281, 429], [261, 421], [252, 412], [244, 401], [239, 386], [239, 375], [245, 358], [250, 352], [267, 342], [288, 339], [294, 336], [295, 337], [303, 329], [308, 321], [315, 314], [320, 312], [323, 312], [324, 314], [327, 313], [333, 319], [337, 329], [338, 345], [341, 348], [344, 348], [353, 333], [353, 330], [350, 326], [351, 321], [359, 313], [361, 315], [367, 307], [365, 298], [360, 293], [360, 278], [355, 278], [339, 292], [335, 288], [331, 288], [329, 286], [328, 280], [308, 281], [307, 274], [296, 263], [289, 268], [277, 271], [275, 274], [276, 275], [272, 279], [248, 280], [255, 293], [257, 293], [267, 282], [271, 282], [275, 288], [275, 303], [273, 305], [273, 308], [269, 312], [265, 313], [260, 308], [255, 307], [253, 308], [252, 316], [249, 319], [242, 322], [237, 322], [231, 317], [228, 312], [227, 300], [228, 297], [236, 291], [245, 292], [243, 287], [238, 283], [237, 280], [224, 280], [217, 276], [207, 267], [201, 266], [199, 268], [200, 285], [202, 287], [202, 302], [196, 312], [191, 315], [182, 315], [177, 313], [159, 311], [136, 312]], [[169, 371], [179, 368], [183, 373], [186, 373], [188, 371], [193, 377], [190, 380], [176, 378], [169, 371]]]}}, {"type": "Feature", "properties": {"class": "Other crops (primarily cereals)", "class_index": 4, "area_px": 428.5}, "geometry": {"type": "Polygon", "coordinates": [[[567, 261], [567, 271], [580, 274], [590, 285], [597, 280], [599, 276], [599, 267], [584, 266], [577, 259], [567, 261]]]}}, {"type": "Feature", "properties": {"class": "Other crops (primarily cereals)", "class_index": 4, "area_px": 425.5}, "geometry": {"type": "Polygon", "coordinates": [[[407, 253], [406, 258], [409, 265], [409, 269], [405, 275], [405, 285], [412, 290], [417, 287], [417, 284], [419, 284], [417, 283], [419, 277], [416, 274], [416, 270], [421, 266], [427, 264], [415, 254], [407, 253]]]}}, {"type": "Feature", "properties": {"class": "Other crops (primarily cereals)", "class_index": 4, "area_px": 495.0}, "geometry": {"type": "Polygon", "coordinates": [[[394, 247], [392, 248], [390, 256], [383, 263], [375, 267], [376, 268], [373, 271], [372, 284], [373, 290], [375, 292], [380, 285], [383, 284], [382, 281], [384, 278], [399, 266], [399, 262], [397, 261], [398, 260], [395, 256], [397, 253], [396, 249], [394, 247]]]}}, {"type": "Feature", "properties": {"class": "Other crops (primarily cereals)", "class_index": 4, "area_px": 2551.5}, "geometry": {"type": "Polygon", "coordinates": [[[501, 212], [493, 218], [486, 218], [484, 229], [485, 234], [475, 241], [468, 243], [455, 255], [460, 274], [460, 286], [462, 288], [457, 297], [456, 308], [462, 301], [465, 301], [466, 298], [471, 297], [476, 292], [494, 292], [497, 299], [493, 304], [493, 306], [495, 306], [501, 299], [508, 298], [512, 294], [516, 295], [517, 292], [521, 293], [524, 288], [520, 285], [518, 277], [504, 279], [495, 286], [492, 284], [492, 281], [495, 280], [494, 275], [497, 266], [497, 261], [495, 260], [493, 262], [487, 262], [485, 260], [485, 254], [496, 236], [495, 227], [498, 225], [501, 218], [501, 212]]]}}, {"type": "Feature", "properties": {"class": "Other crops (primarily cereals)", "class_index": 4, "area_px": 1628.0}, "geometry": {"type": "Polygon", "coordinates": [[[397, 210], [396, 214], [400, 222], [400, 229], [403, 239], [413, 247], [425, 251], [430, 256], [431, 263], [439, 263], [443, 269], [443, 273], [440, 275], [440, 277], [443, 281], [447, 283], [450, 279], [452, 272], [451, 265], [448, 262], [449, 261], [447, 258], [444, 244], [441, 241], [442, 240], [430, 227], [431, 226], [428, 224], [423, 214], [414, 210], [397, 210]]]}}, {"type": "Feature", "properties": {"class": "Other crops (primarily cereals)", "class_index": 4, "area_px": 36.0}, "geometry": {"type": "Polygon", "coordinates": [[[604, 178], [603, 177], [587, 193], [604, 181], [604, 178]]]}}, {"type": "Feature", "properties": {"class": "Other crops (primarily cereals)", "class_index": 4, "area_px": 4702.5}, "geometry": {"type": "Polygon", "coordinates": [[[607, 173], [602, 169], [585, 168], [572, 164], [550, 142], [532, 138], [526, 135], [515, 135], [513, 136], [514, 139], [512, 140], [513, 142], [510, 145], [499, 146], [500, 151], [505, 149], [509, 155], [509, 157], [504, 160], [506, 164], [504, 168], [506, 177], [509, 179], [513, 189], [511, 193], [513, 195], [515, 210], [518, 216], [518, 231], [521, 235], [523, 234], [524, 236], [526, 233], [527, 234], [528, 232], [531, 232], [535, 227], [539, 225], [539, 219], [537, 218], [538, 209], [535, 205], [533, 206], [528, 201], [529, 198], [527, 194], [529, 187], [527, 186], [527, 179], [529, 178], [528, 169], [531, 165], [530, 162], [532, 155], [535, 151], [538, 152], [536, 150], [538, 147], [540, 147], [542, 150], [539, 154], [541, 157], [541, 168], [539, 171], [540, 175], [536, 182], [536, 193], [538, 196], [544, 198], [545, 203], [550, 211], [554, 211], [558, 208], [561, 208], [562, 211], [567, 211], [573, 206], [575, 206], [581, 201], [582, 194], [603, 173], [607, 173]]]}}, {"type": "Feature", "properties": {"class": "Other crops (primarily cereals)", "class_index": 4, "area_px": 853.0}, "geometry": {"type": "Polygon", "coordinates": [[[210, 112], [214, 142], [216, 145], [228, 146], [231, 151], [231, 156], [236, 160], [240, 160], [241, 157], [237, 151], [237, 146], [239, 142], [239, 127], [237, 126], [237, 122], [226, 115], [210, 112]]]}}, {"type": "Feature", "properties": {"class": "Other crops (primarily cereals)", "class_index": 4, "area_px": 5754.5}, "geometry": {"type": "Polygon", "coordinates": [[[417, 111], [412, 118], [412, 125], [409, 130], [394, 131], [392, 132], [392, 134], [394, 136], [406, 138], [409, 136], [418, 135], [423, 128], [430, 128], [438, 130], [445, 137], [443, 140], [434, 140], [424, 144], [425, 151], [418, 159], [417, 163], [405, 169], [398, 175], [399, 177], [393, 182], [383, 200], [385, 199], [386, 201], [388, 199], [399, 197], [401, 198], [404, 196], [418, 196], [420, 199], [422, 198], [425, 201], [427, 200], [442, 205], [443, 208], [447, 208], [449, 210], [447, 212], [449, 212], [462, 222], [476, 222], [477, 216], [475, 215], [474, 207], [469, 202], [459, 198], [450, 189], [446, 182], [443, 182], [434, 172], [436, 166], [442, 167], [452, 175], [460, 187], [471, 193], [477, 191], [482, 182], [474, 176], [475, 169], [468, 163], [469, 160], [465, 154], [466, 147], [468, 146], [472, 149], [477, 162], [483, 167], [487, 173], [489, 181], [492, 186], [493, 184], [495, 186], [496, 182], [492, 176], [492, 172], [489, 167], [488, 157], [490, 152], [482, 143], [479, 134], [475, 130], [465, 127], [461, 121], [458, 119], [455, 120], [451, 114], [447, 112], [439, 115], [430, 115], [421, 110], [417, 111]]]}}, {"type": "Feature", "properties": {"class": "Other crops (primarily cereals)", "class_index": 4, "area_px": 8081.5}, "geometry": {"type": "Polygon", "coordinates": [[[309, 103], [300, 104], [269, 116], [274, 120], [274, 123], [276, 125], [275, 142], [278, 151], [281, 155], [281, 157], [278, 160], [277, 174], [271, 185], [259, 195], [254, 195], [251, 192], [250, 187], [248, 187], [242, 192], [241, 191], [245, 197], [245, 212], [250, 216], [251, 220], [250, 224], [243, 231], [232, 235], [232, 237], [237, 238], [241, 241], [258, 240], [259, 243], [256, 246], [253, 245], [252, 247], [246, 245], [220, 246], [211, 249], [208, 254], [230, 268], [241, 269], [254, 265], [261, 265], [263, 263], [283, 262], [293, 255], [304, 250], [314, 241], [317, 241], [322, 237], [327, 236], [333, 232], [323, 231], [315, 237], [304, 241], [303, 239], [305, 233], [300, 226], [292, 209], [292, 206], [295, 204], [309, 204], [317, 202], [323, 194], [322, 184], [313, 173], [314, 147], [307, 133], [307, 127], [312, 117], [313, 107], [309, 103]]]}}, {"type": "Feature", "properties": {"class": "Olives (often with vines and wheat)", "class_index": 5, "area_px": 92.0}, "geometry": {"type": "Polygon", "coordinates": [[[418, 556], [414, 553], [407, 554], [403, 558], [409, 562], [412, 562], [416, 560], [418, 556]]]}}, {"type": "Feature", "properties": {"class": "Olives (often with vines and wheat)", "class_index": 5, "area_px": 70.5}, "geometry": {"type": "Polygon", "coordinates": [[[174, 424], [172, 425], [173, 430], [170, 433], [170, 435], [175, 437], [175, 435], [180, 429], [174, 424]]]}}, {"type": "Feature", "properties": {"class": "Olives (often with vines and wheat)", "class_index": 5, "area_px": 216.0}, "geometry": {"type": "Polygon", "coordinates": [[[489, 306], [485, 306], [475, 313], [475, 315], [480, 318], [484, 325], [492, 320], [493, 313], [489, 306]]]}}, {"type": "Feature", "properties": {"class": "Olives (often with vines and wheat)", "class_index": 5, "area_px": 14.0}, "geometry": {"type": "Polygon", "coordinates": [[[602, 239], [601, 242], [605, 244], [605, 240], [602, 239]]]}}, {"type": "Feature", "properties": {"class": "Olives (often with vines and wheat)", "class_index": 5, "area_px": 337.0}, "geometry": {"type": "Polygon", "coordinates": [[[601, 196], [596, 201], [601, 210], [601, 220], [604, 223], [611, 226], [615, 218], [615, 212], [611, 207], [610, 203], [607, 201], [606, 195], [601, 196]]]}}, {"type": "Feature", "properties": {"class": "Market gardening (fruits, vegetables, flowers)", "class_index": 6, "area_px": 241.5}, "geometry": {"type": "Polygon", "coordinates": [[[657, 632], [640, 639], [635, 649], [638, 651], [643, 651], [653, 646], [658, 639], [657, 632]]]}}, {"type": "Feature", "properties": {"class": "Market gardening (fruits, vegetables, flowers)", "class_index": 6, "area_px": 725.5}, "geometry": {"type": "Polygon", "coordinates": [[[305, 611], [306, 618], [308, 621], [318, 629], [334, 629], [340, 631], [343, 628], [339, 618], [339, 608], [341, 605], [340, 602], [329, 602], [320, 610], [305, 611]]]}}, {"type": "Feature", "properties": {"class": "Market gardening (fruits, vegetables, flowers)", "class_index": 6, "area_px": 1227.5}, "geometry": {"type": "Polygon", "coordinates": [[[273, 542], [264, 550], [270, 565], [271, 581], [269, 583], [271, 587], [283, 592], [294, 581], [295, 582], [300, 572], [298, 561], [293, 554], [292, 549], [294, 544], [273, 542]]]}}, {"type": "Feature", "properties": {"class": "Market gardening (fruits, vegetables, flowers)", "class_index": 6, "area_px": 3506.5}, "geometry": {"type": "Polygon", "coordinates": [[[426, 489], [417, 498], [413, 500], [413, 504], [419, 504], [422, 501], [424, 501], [431, 493], [433, 493], [436, 496], [437, 500], [434, 509], [434, 517], [437, 522], [437, 528], [434, 535], [438, 540], [438, 546], [436, 547], [436, 551], [440, 559], [449, 566], [451, 574], [463, 578], [466, 581], [466, 583], [469, 584], [480, 571], [488, 571], [490, 569], [492, 561], [500, 554], [500, 552], [504, 548], [506, 538], [509, 535], [509, 523], [506, 515], [507, 505], [500, 503], [498, 508], [498, 511], [500, 513], [499, 515], [504, 524], [504, 530], [494, 538], [485, 537], [481, 539], [469, 539], [466, 538], [461, 531], [462, 527], [465, 525], [465, 516], [454, 505], [445, 505], [441, 501], [444, 491], [443, 487], [438, 486], [434, 490], [426, 489]]]}}, {"type": "Feature", "properties": {"class": "Market gardening (fruits, vegetables, flowers)", "class_index": 6, "area_px": 359.5}, "geometry": {"type": "Polygon", "coordinates": [[[224, 459], [224, 464], [232, 472], [244, 473], [247, 471], [245, 464], [245, 456], [237, 451], [224, 459]]]}}, {"type": "Feature", "properties": {"class": "Market gardening (fruits, vegetables, flowers)", "class_index": 6, "area_px": 450.0}, "geometry": {"type": "Polygon", "coordinates": [[[199, 391], [196, 401], [197, 407], [201, 411], [205, 412], [213, 418], [223, 420], [227, 416], [227, 411], [224, 408], [216, 407], [211, 402], [210, 395], [206, 391], [199, 391]]]}}, {"type": "Feature", "properties": {"class": "Market gardening (fruits, vegetables, flowers)", "class_index": 6, "area_px": 1517.0}, "geometry": {"type": "Polygon", "coordinates": [[[476, 316], [473, 316], [468, 320], [461, 332], [461, 357], [459, 360], [459, 367], [454, 379], [454, 382], [460, 390], [460, 394], [455, 401], [458, 408], [465, 410], [469, 410], [470, 408], [475, 407], [479, 403], [479, 399], [473, 392], [475, 386], [474, 372], [476, 366], [475, 344], [478, 332], [483, 325], [479, 318], [476, 316]]]}}, {"type": "Feature", "properties": {"class": "Market gardening (fruits, vegetables, flowers)", "class_index": 6, "area_px": 669.0}, "geometry": {"type": "Polygon", "coordinates": [[[349, 151], [337, 157], [332, 156], [330, 161], [334, 167], [335, 175], [337, 178], [337, 184], [344, 190], [345, 196], [352, 197], [354, 195], [355, 190], [361, 185], [363, 181], [363, 174], [360, 171], [357, 171], [355, 176], [351, 179], [342, 174], [344, 168], [342, 163], [354, 155], [354, 152], [349, 151]]]}}, {"type": "Feature", "properties": {"class": "Vineyards", "class_index": 7, "area_px": 1235.0}, "geometry": {"type": "Polygon", "coordinates": [[[569, 558], [561, 553], [547, 554], [544, 558], [544, 565], [537, 569], [529, 570], [525, 568], [520, 568], [517, 565], [512, 566], [512, 568], [508, 572], [506, 572], [503, 577], [503, 588], [500, 592], [500, 596], [503, 598], [509, 598], [513, 595], [520, 595], [524, 592], [532, 592], [535, 588], [535, 582], [540, 576], [545, 575], [553, 568], [560, 568], [563, 561], [569, 558]]]}}, {"type": "Feature", "properties": {"class": "Vineyards", "class_index": 7, "area_px": 1238.5}, "geometry": {"type": "Polygon", "coordinates": [[[385, 556], [379, 551], [379, 548], [377, 546], [371, 545], [367, 548], [364, 554], [361, 556], [353, 557], [344, 566], [340, 568], [330, 569], [324, 567], [321, 569], [305, 569], [301, 571], [296, 582], [300, 585], [307, 585], [318, 578], [343, 582], [349, 578], [353, 573], [364, 571], [370, 568], [373, 564], [379, 563], [385, 558], [385, 556]]]}}, {"type": "Feature", "properties": {"class": "Vineyards", "class_index": 7, "area_px": 789.0}, "geometry": {"type": "Polygon", "coordinates": [[[401, 522], [398, 525], [396, 532], [392, 537], [392, 547], [388, 556], [395, 555], [403, 557], [407, 553], [411, 552], [424, 556], [427, 551], [427, 545], [418, 539], [413, 529], [406, 530], [404, 528], [403, 523], [401, 522]]]}}, {"type": "Feature", "properties": {"class": "Vineyards", "class_index": 7, "area_px": 833.5}, "geometry": {"type": "Polygon", "coordinates": [[[178, 509], [178, 513], [181, 517], [185, 516], [192, 520], [196, 524], [195, 525], [201, 529], [208, 530], [219, 537], [225, 537], [229, 533], [229, 529], [223, 521], [206, 514], [198, 503], [186, 500], [178, 509]]]}}, {"type": "Feature", "properties": {"class": "Vineyards", "class_index": 7, "area_px": 5157.0}, "geometry": {"type": "Polygon", "coordinates": [[[158, 391], [154, 396], [154, 400], [158, 410], [158, 417], [162, 424], [162, 437], [165, 446], [178, 456], [179, 462], [185, 470], [200, 473], [203, 475], [208, 483], [209, 490], [226, 499], [235, 508], [244, 511], [258, 527], [261, 535], [271, 539], [272, 535], [270, 531], [256, 520], [250, 509], [253, 503], [261, 501], [262, 498], [254, 493], [250, 494], [244, 491], [234, 491], [231, 489], [231, 487], [235, 484], [244, 483], [255, 479], [261, 479], [265, 475], [251, 474], [249, 472], [244, 474], [232, 473], [223, 464], [223, 459], [227, 455], [235, 451], [235, 449], [233, 446], [208, 441], [199, 432], [200, 430], [198, 428], [201, 425], [198, 419], [198, 415], [200, 410], [196, 407], [195, 402], [198, 393], [197, 390], [194, 388], [186, 388], [184, 390], [181, 390], [175, 387], [171, 387], [167, 392], [164, 392], [163, 390], [158, 391]], [[174, 423], [181, 429], [175, 438], [169, 435], [169, 433], [172, 430], [171, 425], [174, 423]]]}}, {"type": "Feature", "properties": {"class": "Vineyards", "class_index": 7, "area_px": 644.0}, "geometry": {"type": "Polygon", "coordinates": [[[459, 348], [453, 352], [449, 361], [445, 376], [445, 383], [440, 393], [440, 400], [436, 411], [441, 411], [449, 401], [455, 400], [459, 394], [459, 390], [453, 382], [455, 372], [458, 367], [458, 360], [460, 357], [459, 348]]]}}, {"type": "Feature", "properties": {"class": "Vineyards", "class_index": 7, "area_px": 757.0}, "geometry": {"type": "Polygon", "coordinates": [[[494, 293], [476, 293], [471, 298], [466, 299], [465, 302], [462, 302], [457, 309], [458, 318], [456, 320], [456, 324], [451, 331], [449, 330], [445, 333], [445, 337], [451, 338], [456, 334], [460, 333], [463, 325], [468, 319], [474, 315], [474, 313], [478, 309], [485, 305], [490, 305], [496, 299], [494, 293]]]}}, {"type": "Feature", "properties": {"class": "Vineyards", "class_index": 7, "area_px": 1805.0}, "geometry": {"type": "Polygon", "coordinates": [[[318, 242], [314, 242], [304, 251], [293, 256], [283, 263], [263, 264], [261, 266], [254, 266], [241, 270], [230, 269], [208, 255], [194, 255], [189, 252], [181, 252], [177, 250], [169, 250], [153, 256], [144, 264], [144, 268], [147, 270], [154, 270], [156, 268], [161, 267], [169, 261], [174, 260], [186, 263], [189, 262], [198, 268], [201, 265], [205, 265], [217, 275], [228, 280], [245, 278], [247, 280], [251, 278], [272, 278], [277, 270], [281, 270], [293, 265], [294, 263], [314, 251], [318, 245], [318, 242]]]}}, {"type": "Feature", "properties": {"class": "Vineyards", "class_index": 7, "area_px": 1034.0}, "geometry": {"type": "Polygon", "coordinates": [[[596, 204], [592, 209], [591, 218], [589, 220], [591, 230], [578, 259], [584, 265], [593, 265], [600, 267], [606, 254], [606, 245], [602, 244], [600, 241], [602, 238], [606, 240], [607, 236], [610, 233], [611, 227], [604, 224], [600, 220], [600, 210], [596, 204]]]}}]}