{"type": "FeatureCollection", "coordinate_space": "map_area.png pixels, y down", "mm_per_px": 0.259, "features": [{"type": "Feature", "properties": {"class": "Forest", "class_index": 0, "area_px": 238.5}, "geometry": {"type": "Polygon", "coordinates": [[[660, 677], [657, 680], [657, 690], [655, 693], [659, 698], [661, 706], [666, 706], [667, 701], [665, 700], [665, 692], [667, 683], [666, 679], [660, 677]]]}}, {"type": "Feature", "properties": {"class": "Forest", "class_index": 0, "area_px": 2618.5}, "geometry": {"type": "Polygon", "coordinates": [[[139, 568], [143, 569], [149, 576], [179, 590], [196, 593], [207, 593], [216, 590], [229, 591], [258, 607], [274, 622], [280, 625], [301, 630], [311, 630], [314, 628], [317, 629], [311, 625], [306, 619], [303, 620], [299, 617], [300, 610], [284, 610], [276, 597], [268, 594], [265, 598], [263, 598], [257, 590], [254, 590], [247, 586], [239, 585], [232, 581], [230, 582], [223, 579], [220, 580], [215, 577], [212, 579], [203, 579], [200, 577], [198, 573], [186, 573], [177, 569], [171, 563], [167, 563], [160, 567], [141, 566], [139, 568]]]}}, {"type": "Feature", "properties": {"class": "Forest", "class_index": 0, "area_px": 278.0}, "geometry": {"type": "Polygon", "coordinates": [[[246, 456], [246, 464], [248, 470], [251, 473], [262, 474], [264, 471], [261, 465], [263, 457], [254, 454], [246, 456]]]}}, {"type": "Feature", "properties": {"class": "Forest", "class_index": 0, "area_px": 338.0}, "geometry": {"type": "Polygon", "coordinates": [[[274, 439], [270, 434], [266, 433], [254, 437], [245, 444], [265, 453], [269, 448], [273, 446], [274, 439]]]}}, {"type": "Feature", "properties": {"class": "Forest", "class_index": 0, "area_px": 2106.0}, "geometry": {"type": "Polygon", "coordinates": [[[409, 427], [402, 424], [391, 426], [389, 424], [379, 422], [376, 425], [376, 437], [373, 448], [377, 448], [377, 453], [371, 467], [367, 488], [367, 500], [364, 505], [365, 511], [368, 513], [377, 506], [379, 501], [388, 494], [393, 482], [403, 473], [396, 458], [396, 450], [397, 447], [410, 436], [411, 430], [409, 427]]]}}, {"type": "Feature", "properties": {"class": "Forest", "class_index": 0, "area_px": 661.0}, "geometry": {"type": "Polygon", "coordinates": [[[201, 418], [200, 421], [203, 426], [203, 435], [205, 438], [211, 441], [233, 445], [235, 435], [223, 420], [212, 418], [206, 414], [201, 418]]]}}, {"type": "Feature", "properties": {"class": "Forest", "class_index": 0, "area_px": 322.5}, "geometry": {"type": "Polygon", "coordinates": [[[403, 383], [399, 383], [396, 386], [396, 391], [394, 395], [397, 399], [396, 413], [400, 416], [404, 414], [405, 404], [410, 396], [403, 383]]]}}, {"type": "Feature", "properties": {"class": "Forest", "class_index": 0, "area_px": 5230.0}, "geometry": {"type": "Polygon", "coordinates": [[[159, 379], [155, 379], [150, 383], [145, 394], [136, 423], [127, 465], [114, 504], [113, 511], [111, 513], [115, 516], [119, 515], [123, 509], [135, 506], [156, 509], [160, 511], [163, 510], [167, 512], [177, 511], [177, 509], [183, 502], [184, 498], [181, 495], [174, 494], [167, 488], [166, 482], [168, 480], [176, 482], [186, 490], [198, 496], [199, 498], [205, 496], [208, 490], [206, 488], [207, 483], [204, 477], [195, 472], [190, 473], [186, 471], [179, 464], [177, 455], [174, 452], [170, 452], [162, 440], [161, 424], [157, 417], [157, 410], [154, 402], [156, 392], [162, 389], [162, 385], [159, 379]]]}}, {"type": "Feature", "properties": {"class": "Forest", "class_index": 0, "area_px": 6086.5}, "geometry": {"type": "Polygon", "coordinates": [[[547, 362], [544, 365], [543, 363], [544, 365], [541, 366], [541, 369], [538, 371], [539, 374], [535, 377], [536, 387], [542, 401], [539, 411], [539, 421], [544, 424], [548, 430], [544, 436], [544, 440], [540, 443], [513, 443], [508, 449], [505, 449], [499, 455], [493, 454], [498, 453], [499, 451], [496, 451], [488, 455], [483, 453], [469, 464], [469, 470], [478, 479], [482, 479], [487, 474], [493, 473], [500, 475], [517, 494], [520, 501], [520, 505], [522, 506], [522, 510], [531, 519], [534, 526], [543, 530], [557, 528], [566, 534], [576, 532], [582, 536], [582, 531], [578, 528], [569, 525], [562, 520], [557, 514], [554, 507], [554, 497], [558, 482], [551, 466], [551, 459], [565, 444], [566, 431], [559, 413], [562, 392], [557, 370], [552, 363], [547, 362]]]}}, {"type": "Feature", "properties": {"class": "Forest", "class_index": 0, "area_px": 800.5}, "geometry": {"type": "Polygon", "coordinates": [[[431, 291], [427, 289], [421, 295], [419, 295], [415, 290], [412, 291], [413, 292], [411, 299], [415, 306], [412, 310], [406, 311], [402, 316], [401, 321], [403, 324], [407, 325], [413, 319], [418, 319], [426, 324], [432, 323], [432, 318], [434, 316], [440, 315], [442, 313], [442, 308], [440, 306], [435, 306], [433, 304], [431, 291]]]}}, {"type": "Feature", "properties": {"class": "Forest", "class_index": 0, "area_px": 195.0}, "geometry": {"type": "Polygon", "coordinates": [[[476, 223], [465, 224], [463, 227], [466, 231], [466, 237], [468, 242], [474, 240], [479, 235], [476, 223]]]}}, {"type": "Feature", "properties": {"class": "Forest", "class_index": 0, "area_px": 783.0}, "geometry": {"type": "Polygon", "coordinates": [[[589, 222], [578, 229], [575, 235], [569, 241], [563, 242], [559, 245], [560, 249], [559, 252], [556, 253], [555, 261], [557, 266], [556, 268], [560, 272], [566, 272], [566, 269], [569, 265], [577, 259], [586, 241], [587, 235], [590, 231], [589, 222]]]}}, {"type": "Feature", "properties": {"class": "Forest", "class_index": 0, "area_px": 814.0}, "geometry": {"type": "Polygon", "coordinates": [[[618, 178], [609, 174], [606, 174], [600, 178], [583, 197], [578, 207], [571, 211], [570, 216], [572, 221], [579, 220], [581, 218], [589, 219], [591, 212], [597, 206], [595, 201], [600, 196], [608, 194], [613, 191], [614, 183], [618, 178]]]}}, {"type": "Feature", "properties": {"class": "Grassland", "class_index": 1, "area_px": 3164.5}, "geometry": {"type": "Polygon", "coordinates": [[[675, 625], [668, 627], [658, 633], [658, 642], [653, 647], [640, 653], [637, 651], [633, 660], [633, 668], [639, 693], [646, 705], [652, 703], [656, 707], [658, 718], [664, 718], [669, 713], [677, 690], [685, 673], [685, 644], [680, 629], [675, 625]], [[660, 676], [666, 678], [668, 683], [666, 692], [666, 700], [668, 701], [668, 705], [666, 707], [660, 706], [658, 698], [654, 693], [656, 690], [656, 680], [660, 676]]]}}, {"type": "Feature", "properties": {"class": "Grassland", "class_index": 1, "area_px": 4710.0}, "geometry": {"type": "Polygon", "coordinates": [[[338, 597], [339, 584], [328, 580], [317, 580], [312, 582], [307, 587], [300, 587], [298, 584], [294, 582], [284, 593], [271, 588], [268, 584], [270, 581], [269, 565], [263, 552], [263, 549], [271, 542], [265, 537], [260, 537], [256, 547], [243, 559], [239, 559], [227, 565], [214, 567], [195, 567], [191, 563], [190, 558], [196, 550], [194, 545], [189, 542], [177, 550], [173, 550], [166, 544], [158, 545], [165, 554], [165, 557], [162, 560], [158, 559], [139, 542], [121, 541], [115, 544], [108, 544], [109, 550], [112, 554], [136, 567], [139, 567], [141, 565], [160, 566], [167, 562], [171, 562], [177, 568], [186, 572], [196, 571], [203, 578], [212, 578], [215, 576], [220, 579], [223, 578], [230, 581], [232, 580], [239, 584], [247, 585], [254, 589], [257, 589], [263, 597], [265, 597], [269, 593], [276, 596], [280, 600], [284, 609], [300, 609], [300, 617], [303, 619], [305, 619], [303, 611], [304, 609], [321, 609], [329, 601], [336, 602], [338, 597]]]}}, {"type": "Feature", "properties": {"class": "Grassland", "class_index": 1, "area_px": 671.0}, "geometry": {"type": "Polygon", "coordinates": [[[419, 518], [413, 524], [412, 527], [416, 530], [417, 534], [424, 542], [426, 541], [429, 543], [429, 551], [424, 557], [422, 557], [424, 561], [432, 568], [446, 568], [449, 570], [448, 565], [443, 563], [439, 559], [435, 551], [435, 547], [437, 546], [438, 541], [433, 535], [434, 534], [430, 526], [425, 520], [419, 518]]]}}, {"type": "Feature", "properties": {"class": "Grassland", "class_index": 1, "area_px": 875.5}, "geometry": {"type": "Polygon", "coordinates": [[[100, 529], [119, 531], [126, 528], [137, 519], [142, 517], [150, 517], [163, 521], [175, 521], [179, 520], [180, 517], [176, 514], [177, 512], [167, 513], [163, 511], [160, 512], [156, 510], [135, 507], [123, 510], [119, 516], [115, 517], [111, 514], [108, 515], [101, 522], [100, 529]]]}}, {"type": "Feature", "properties": {"class": "Grassland", "class_index": 1, "area_px": 3381.5}, "geometry": {"type": "Polygon", "coordinates": [[[582, 537], [576, 533], [566, 535], [557, 529], [545, 531], [540, 530], [532, 525], [530, 519], [521, 510], [521, 506], [508, 506], [507, 515], [510, 525], [510, 535], [507, 538], [505, 548], [501, 552], [501, 554], [493, 561], [490, 571], [479, 572], [472, 582], [479, 589], [487, 593], [499, 594], [502, 585], [502, 573], [504, 571], [508, 571], [511, 569], [511, 565], [513, 563], [517, 563], [518, 566], [522, 567], [536, 567], [543, 562], [543, 558], [547, 553], [561, 552], [568, 557], [577, 554], [581, 549], [582, 537]]]}}, {"type": "Feature", "properties": {"class": "Grassland", "class_index": 1, "area_px": 648.5}, "geometry": {"type": "Polygon", "coordinates": [[[258, 503], [253, 511], [257, 520], [273, 532], [276, 542], [290, 542], [290, 533], [288, 531], [288, 528], [294, 525], [298, 526], [300, 523], [293, 521], [289, 524], [273, 524], [269, 521], [269, 518], [266, 513], [266, 509], [269, 506], [272, 506], [269, 501], [264, 500], [261, 503], [258, 503]]]}}, {"type": "Feature", "properties": {"class": "Grassland", "class_index": 1, "area_px": 1865.0}, "geometry": {"type": "Polygon", "coordinates": [[[462, 485], [459, 489], [455, 491], [455, 497], [453, 498], [453, 500], [455, 501], [455, 505], [466, 516], [466, 525], [462, 528], [463, 534], [469, 538], [481, 538], [485, 536], [495, 537], [503, 530], [503, 524], [497, 511], [499, 502], [480, 487], [471, 482], [462, 485]]]}}, {"type": "Feature", "properties": {"class": "Grassland", "class_index": 1, "area_px": 5284.0}, "geometry": {"type": "Polygon", "coordinates": [[[353, 395], [346, 395], [344, 398], [339, 398], [331, 411], [331, 415], [327, 415], [325, 418], [317, 424], [313, 425], [309, 429], [307, 427], [304, 431], [303, 430], [300, 434], [299, 433], [295, 438], [296, 440], [293, 441], [294, 443], [292, 445], [284, 446], [280, 444], [279, 446], [276, 446], [274, 444], [274, 446], [269, 449], [265, 454], [255, 449], [252, 449], [244, 444], [252, 438], [244, 442], [243, 445], [238, 445], [246, 455], [254, 453], [260, 456], [267, 456], [276, 452], [287, 453], [292, 451], [299, 451], [304, 458], [305, 457], [308, 459], [317, 457], [323, 459], [335, 457], [337, 459], [337, 464], [333, 468], [329, 469], [327, 467], [324, 467], [323, 470], [321, 469], [321, 467], [299, 471], [300, 473], [297, 475], [288, 473], [279, 473], [278, 475], [274, 474], [272, 476], [278, 480], [294, 481], [303, 478], [306, 479], [308, 477], [310, 478], [315, 476], [321, 476], [330, 479], [348, 490], [360, 491], [366, 488], [367, 489], [364, 495], [359, 495], [358, 497], [353, 499], [348, 506], [341, 512], [335, 511], [321, 515], [315, 519], [316, 521], [323, 522], [325, 520], [337, 519], [354, 513], [365, 503], [368, 475], [373, 458], [376, 453], [376, 448], [368, 450], [365, 449], [361, 443], [361, 428], [359, 425], [361, 415], [358, 403], [359, 401], [353, 395]]]}}, {"type": "Feature", "properties": {"class": "Grassland", "class_index": 1, "area_px": 532.0}, "geometry": {"type": "Polygon", "coordinates": [[[154, 354], [150, 361], [150, 368], [157, 377], [159, 378], [158, 376], [162, 374], [166, 368], [169, 368], [171, 370], [171, 373], [174, 374], [176, 377], [184, 377], [184, 374], [179, 370], [177, 364], [166, 351], [158, 350], [154, 354]]]}}, {"type": "Feature", "properties": {"class": "Grassland", "class_index": 1, "area_px": 1124.0}, "geometry": {"type": "Polygon", "coordinates": [[[228, 300], [228, 309], [230, 314], [235, 320], [242, 321], [251, 316], [251, 310], [255, 306], [260, 307], [265, 312], [269, 311], [272, 308], [272, 305], [274, 303], [274, 288], [271, 283], [267, 283], [257, 294], [255, 294], [249, 285], [249, 282], [238, 280], [239, 283], [244, 287], [246, 292], [236, 292], [229, 297], [228, 300]]]}}, {"type": "Feature", "properties": {"class": "Grassland", "class_index": 1, "area_px": 19360.0}, "geometry": {"type": "Polygon", "coordinates": [[[366, 198], [356, 206], [357, 211], [360, 210], [361, 214], [364, 214], [368, 212], [368, 209], [372, 209], [376, 211], [382, 218], [382, 227], [379, 233], [372, 240], [366, 243], [356, 243], [346, 238], [344, 231], [335, 232], [327, 237], [322, 238], [320, 240], [320, 244], [317, 250], [305, 258], [299, 260], [298, 264], [308, 274], [308, 279], [328, 279], [330, 282], [330, 286], [335, 287], [338, 290], [340, 290], [355, 277], [360, 277], [362, 279], [361, 293], [366, 298], [368, 307], [353, 324], [353, 326], [356, 330], [367, 333], [372, 336], [378, 344], [378, 349], [374, 353], [373, 357], [375, 360], [374, 365], [377, 366], [377, 377], [386, 377], [386, 336], [388, 334], [391, 334], [394, 337], [393, 339], [396, 341], [396, 345], [398, 346], [397, 347], [399, 348], [399, 351], [402, 353], [402, 357], [404, 358], [404, 362], [406, 363], [405, 366], [407, 367], [401, 380], [398, 380], [394, 385], [393, 395], [390, 396], [391, 399], [389, 400], [389, 407], [386, 409], [383, 407], [379, 410], [380, 421], [389, 423], [391, 425], [402, 423], [409, 426], [412, 421], [416, 418], [429, 417], [432, 409], [435, 412], [439, 400], [439, 391], [444, 383], [444, 376], [448, 361], [453, 349], [460, 345], [460, 339], [458, 334], [452, 339], [447, 340], [445, 337], [445, 332], [449, 329], [451, 330], [455, 324], [455, 320], [458, 317], [459, 318], [459, 315], [455, 313], [455, 302], [457, 294], [461, 288], [459, 286], [459, 274], [454, 255], [467, 243], [465, 231], [462, 227], [464, 223], [462, 223], [452, 215], [446, 212], [448, 210], [443, 209], [442, 206], [427, 201], [425, 202], [422, 199], [420, 200], [418, 197], [404, 197], [401, 199], [399, 198], [388, 200], [386, 202], [385, 200], [383, 201], [382, 198], [378, 197], [366, 198]], [[399, 382], [404, 383], [411, 395], [409, 401], [406, 404], [406, 412], [401, 417], [395, 413], [396, 399], [393, 395], [395, 391], [395, 386], [399, 382]], [[407, 252], [415, 253], [428, 264], [417, 270], [417, 274], [420, 277], [418, 283], [420, 284], [417, 285], [418, 287], [416, 290], [419, 294], [421, 294], [427, 288], [433, 292], [434, 304], [440, 305], [443, 308], [443, 313], [440, 316], [434, 317], [434, 321], [430, 325], [426, 325], [418, 320], [413, 320], [407, 326], [405, 326], [400, 321], [400, 318], [404, 312], [408, 309], [412, 309], [414, 306], [410, 299], [412, 292], [404, 285], [404, 275], [408, 269], [408, 265], [405, 258], [405, 254], [407, 252]], [[394, 246], [397, 249], [398, 253], [396, 256], [399, 260], [398, 261], [400, 262], [400, 266], [385, 278], [383, 281], [384, 284], [381, 285], [375, 293], [372, 290], [371, 284], [372, 271], [375, 268], [375, 266], [383, 262], [389, 256], [391, 248], [394, 246]], [[397, 209], [414, 209], [423, 213], [428, 220], [429, 224], [432, 226], [431, 227], [443, 240], [442, 241], [445, 244], [448, 258], [450, 261], [449, 262], [452, 265], [453, 272], [451, 279], [447, 284], [443, 282], [439, 277], [439, 275], [442, 273], [441, 266], [439, 264], [431, 264], [429, 261], [430, 258], [425, 252], [413, 248], [402, 239], [399, 229], [399, 222], [395, 214], [395, 211], [397, 209]]]}}, {"type": "Feature", "properties": {"class": "Grassland", "class_index": 1, "area_px": 448.0}, "geometry": {"type": "Polygon", "coordinates": [[[627, 179], [619, 178], [615, 183], [614, 191], [606, 197], [615, 209], [626, 199], [631, 191], [632, 185], [630, 181], [627, 179]]]}}, {"type": "Feature", "properties": {"class": "Grassland", "class_index": 1, "area_px": 19.5}, "geometry": {"type": "Polygon", "coordinates": [[[605, 174], [603, 174], [592, 184], [583, 196], [596, 181], [605, 174]]]}}, {"type": "Feature", "properties": {"class": "Grassland", "class_index": 1, "area_px": 211.0}, "geometry": {"type": "Polygon", "coordinates": [[[329, 68], [327, 73], [341, 88], [350, 94], [361, 97], [351, 90], [341, 80], [333, 68], [329, 68]]]}}, {"type": "Feature", "properties": {"class": "Grassland", "class_index": 1, "area_px": 23435.0}, "geometry": {"type": "Polygon", "coordinates": [[[427, 66], [423, 70], [425, 76], [424, 85], [422, 86], [421, 93], [416, 101], [405, 110], [404, 115], [396, 123], [383, 128], [377, 136], [360, 146], [356, 153], [365, 156], [366, 153], [377, 144], [387, 141], [404, 140], [408, 142], [418, 141], [424, 143], [430, 140], [438, 139], [438, 131], [430, 129], [423, 129], [418, 136], [413, 136], [406, 139], [394, 137], [391, 134], [391, 132], [394, 130], [409, 129], [412, 120], [411, 118], [417, 110], [421, 109], [430, 114], [439, 114], [447, 111], [451, 113], [455, 119], [458, 118], [461, 120], [465, 126], [475, 129], [480, 134], [483, 143], [491, 152], [489, 157], [490, 169], [497, 183], [492, 186], [489, 183], [486, 173], [482, 167], [476, 162], [473, 155], [470, 157], [470, 164], [476, 169], [475, 176], [483, 182], [477, 192], [471, 194], [460, 188], [451, 175], [444, 170], [439, 173], [439, 176], [443, 181], [447, 182], [451, 189], [459, 197], [469, 201], [475, 207], [476, 215], [478, 216], [477, 223], [480, 236], [484, 234], [483, 229], [485, 218], [493, 217], [498, 212], [503, 213], [499, 225], [496, 227], [497, 236], [487, 251], [486, 259], [487, 261], [493, 261], [495, 259], [498, 261], [498, 266], [495, 275], [496, 280], [494, 281], [494, 285], [499, 283], [504, 278], [518, 276], [520, 278], [521, 285], [525, 288], [521, 294], [517, 293], [516, 296], [512, 295], [508, 299], [501, 300], [495, 307], [493, 307], [490, 304], [496, 299], [495, 290], [491, 290], [491, 293], [489, 295], [480, 291], [473, 295], [473, 298], [475, 300], [483, 301], [486, 305], [490, 306], [494, 312], [492, 320], [493, 322], [497, 323], [499, 321], [507, 321], [510, 323], [502, 340], [486, 359], [482, 375], [479, 380], [479, 385], [473, 391], [480, 399], [480, 404], [475, 408], [470, 409], [466, 420], [454, 439], [449, 439], [447, 432], [448, 424], [444, 420], [442, 420], [436, 424], [427, 434], [419, 439], [419, 442], [422, 445], [419, 452], [415, 448], [410, 448], [410, 464], [408, 469], [404, 471], [404, 473], [394, 482], [389, 494], [383, 498], [378, 506], [369, 514], [372, 511], [374, 511], [377, 514], [374, 521], [375, 523], [373, 524], [374, 526], [371, 527], [360, 542], [350, 548], [344, 550], [342, 549], [334, 553], [323, 553], [314, 543], [297, 543], [299, 548], [303, 552], [326, 558], [329, 561], [327, 566], [338, 566], [345, 563], [352, 556], [357, 555], [365, 550], [366, 546], [369, 543], [379, 544], [380, 549], [382, 550], [387, 549], [390, 544], [390, 538], [395, 532], [397, 523], [403, 518], [404, 511], [408, 504], [412, 502], [412, 500], [415, 497], [417, 497], [424, 489], [429, 488], [424, 482], [424, 480], [426, 478], [425, 474], [430, 467], [432, 451], [442, 443], [450, 443], [451, 448], [454, 451], [465, 451], [475, 439], [475, 434], [482, 427], [485, 417], [492, 408], [498, 409], [498, 416], [500, 417], [499, 419], [497, 419], [496, 424], [491, 432], [491, 442], [494, 446], [500, 449], [500, 452], [498, 454], [494, 454], [501, 453], [505, 448], [508, 448], [513, 442], [540, 442], [543, 440], [543, 436], [547, 430], [546, 427], [538, 421], [538, 411], [541, 401], [535, 387], [534, 378], [539, 371], [529, 378], [529, 382], [526, 388], [527, 392], [524, 395], [522, 394], [520, 397], [517, 396], [517, 399], [514, 398], [505, 409], [501, 410], [498, 407], [499, 396], [504, 386], [504, 382], [508, 378], [512, 378], [523, 371], [525, 352], [543, 326], [566, 304], [578, 289], [588, 283], [580, 275], [571, 272], [567, 272], [564, 274], [560, 273], [556, 270], [554, 261], [555, 253], [558, 252], [559, 249], [558, 245], [563, 241], [569, 240], [578, 228], [589, 221], [588, 219], [581, 219], [579, 221], [573, 222], [571, 221], [569, 213], [572, 209], [576, 208], [578, 204], [567, 212], [562, 212], [561, 209], [558, 209], [554, 212], [549, 211], [544, 203], [543, 198], [538, 197], [535, 193], [535, 182], [539, 175], [538, 171], [540, 168], [540, 158], [538, 156], [534, 156], [531, 162], [532, 165], [529, 169], [530, 178], [528, 179], [528, 186], [530, 187], [528, 194], [530, 198], [529, 201], [533, 205], [535, 204], [539, 209], [538, 218], [540, 219], [540, 225], [535, 228], [531, 233], [530, 232], [527, 235], [526, 234], [525, 237], [523, 235], [521, 236], [517, 231], [518, 222], [514, 210], [512, 195], [510, 193], [512, 189], [511, 185], [509, 184], [508, 179], [505, 177], [503, 168], [505, 164], [503, 160], [508, 157], [508, 155], [505, 150], [500, 152], [498, 146], [501, 144], [510, 144], [512, 142], [511, 140], [513, 139], [513, 137], [485, 112], [478, 95], [457, 95], [453, 91], [450, 80], [445, 73], [427, 66]]]}}, {"type": "Feature", "properties": {"class": "Grassland and crops", "class_index": 2, "area_px": 7638.5}, "geometry": {"type": "Polygon", "coordinates": [[[359, 314], [351, 323], [354, 333], [344, 349], [341, 349], [337, 345], [337, 335], [333, 323], [334, 322], [327, 314], [324, 315], [323, 313], [320, 313], [315, 315], [295, 338], [294, 337], [288, 340], [267, 343], [250, 353], [246, 358], [246, 361], [244, 362], [241, 372], [257, 398], [248, 405], [253, 412], [261, 420], [274, 426], [281, 428], [294, 428], [299, 423], [296, 402], [293, 395], [294, 385], [298, 381], [303, 379], [331, 380], [347, 385], [355, 383], [364, 369], [369, 364], [373, 365], [374, 360], [372, 357], [373, 353], [377, 349], [377, 344], [372, 337], [367, 334], [358, 332], [353, 328], [352, 324], [360, 315], [359, 314]]]}}, {"type": "Feature", "properties": {"class": "Grassland and crops", "class_index": 2, "area_px": 29722.0}, "geometry": {"type": "Polygon", "coordinates": [[[15, 139], [12, 148], [13, 152], [17, 154], [15, 157], [17, 163], [20, 165], [20, 168], [18, 169], [18, 177], [21, 184], [28, 190], [40, 190], [44, 192], [43, 194], [48, 195], [56, 200], [60, 200], [62, 204], [71, 208], [74, 212], [73, 215], [77, 219], [83, 222], [90, 222], [95, 227], [100, 228], [104, 232], [104, 238], [111, 249], [114, 249], [117, 252], [115, 254], [118, 261], [121, 264], [121, 271], [118, 274], [121, 289], [125, 295], [128, 304], [136, 311], [159, 310], [177, 312], [182, 314], [191, 314], [196, 311], [200, 305], [201, 306], [201, 287], [199, 285], [198, 269], [189, 263], [186, 264], [173, 261], [169, 262], [161, 268], [150, 270], [146, 266], [146, 262], [153, 255], [169, 249], [177, 249], [181, 251], [187, 250], [194, 254], [207, 254], [211, 248], [220, 245], [246, 244], [252, 246], [253, 244], [256, 245], [258, 243], [258, 241], [241, 242], [237, 239], [232, 238], [231, 235], [235, 232], [243, 230], [249, 224], [250, 220], [249, 216], [244, 212], [244, 197], [240, 191], [250, 186], [254, 194], [259, 194], [270, 185], [276, 174], [277, 160], [280, 157], [280, 155], [277, 151], [274, 142], [275, 125], [273, 123], [273, 120], [266, 115], [254, 115], [243, 122], [237, 122], [236, 120], [226, 116], [217, 114], [215, 115], [210, 113], [210, 111], [202, 107], [198, 108], [192, 102], [190, 96], [191, 91], [187, 85], [183, 83], [171, 83], [167, 86], [165, 95], [169, 112], [173, 117], [173, 121], [171, 123], [171, 134], [168, 141], [167, 149], [169, 153], [164, 158], [158, 158], [155, 155], [148, 155], [146, 157], [140, 153], [136, 153], [130, 150], [121, 150], [118, 152], [110, 151], [101, 139], [99, 134], [94, 130], [88, 128], [79, 128], [69, 133], [63, 132], [60, 135], [53, 135], [52, 132], [40, 132], [37, 130], [25, 132], [22, 136], [21, 134], [15, 139]], [[238, 130], [240, 142], [238, 146], [238, 151], [242, 157], [240, 161], [236, 161], [230, 156], [230, 151], [228, 148], [238, 130]]]}}, {"type": "Feature", "properties": {"class": "Grassland and crops", "class_index": 2, "area_px": 1084.5}, "geometry": {"type": "Polygon", "coordinates": [[[382, 15], [377, 11], [370, 11], [363, 14], [352, 14], [349, 17], [346, 16], [338, 23], [336, 27], [336, 41], [340, 42], [346, 40], [352, 35], [362, 35], [369, 38], [378, 37], [381, 35], [382, 32], [386, 31], [384, 28], [384, 19], [382, 15]]]}}, {"type": "Feature", "properties": {"class": "Cropland (primarily wheat, sugar beets, corn)", "class_index": 3, "area_px": 17390.0}, "geometry": {"type": "Polygon", "coordinates": [[[405, 38], [399, 35], [386, 32], [382, 33], [381, 36], [375, 39], [369, 39], [362, 36], [352, 36], [346, 41], [337, 43], [332, 55], [330, 67], [333, 67], [342, 80], [351, 89], [361, 96], [361, 98], [355, 97], [345, 92], [325, 73], [312, 81], [272, 91], [260, 100], [257, 111], [270, 116], [283, 109], [305, 102], [316, 102], [320, 104], [327, 113], [326, 119], [312, 130], [312, 139], [315, 148], [315, 169], [323, 187], [322, 195], [314, 203], [303, 205], [296, 208], [291, 216], [292, 230], [294, 234], [300, 239], [308, 241], [315, 240], [325, 234], [342, 230], [346, 232], [346, 237], [356, 242], [366, 242], [372, 239], [378, 233], [381, 227], [380, 216], [372, 210], [368, 210], [368, 213], [361, 215], [360, 211], [356, 211], [355, 206], [366, 197], [385, 196], [396, 177], [403, 170], [412, 164], [419, 156], [422, 147], [421, 144], [418, 142], [408, 143], [404, 141], [387, 142], [379, 144], [370, 150], [365, 157], [355, 153], [355, 151], [360, 145], [377, 135], [383, 127], [396, 122], [403, 115], [404, 110], [415, 101], [420, 93], [420, 89], [424, 81], [422, 70], [427, 65], [415, 52], [405, 38]], [[346, 151], [350, 152], [353, 155], [353, 157], [343, 163], [345, 168], [343, 174], [353, 177], [355, 174], [355, 170], [357, 169], [362, 173], [364, 178], [362, 185], [356, 190], [355, 195], [352, 199], [345, 197], [343, 190], [336, 184], [336, 178], [334, 175], [333, 167], [329, 161], [333, 155], [337, 156], [346, 151]]]}}, {"type": "Feature", "properties": {"class": "Other crops (primarily cereals)", "class_index": 4, "area_px": 57.0}, "geometry": {"type": "Polygon", "coordinates": [[[647, 705], [650, 712], [656, 716], [655, 707], [652, 704], [647, 705]]]}}, {"type": "Feature", "properties": {"class": "Other crops (primarily cereals)", "class_index": 4, "area_px": 653.5}, "geometry": {"type": "Polygon", "coordinates": [[[434, 491], [424, 502], [422, 502], [418, 506], [414, 506], [412, 503], [409, 504], [405, 511], [403, 519], [405, 523], [405, 533], [411, 528], [412, 524], [419, 517], [422, 517], [431, 526], [434, 533], [433, 531], [435, 526], [435, 520], [433, 517], [433, 509], [436, 500], [434, 491]]]}}, {"type": "Feature", "properties": {"class": "Other crops (primarily cereals)", "class_index": 4, "area_px": 4898.5}, "geometry": {"type": "Polygon", "coordinates": [[[261, 536], [257, 527], [244, 512], [233, 508], [226, 500], [221, 497], [218, 498], [216, 494], [209, 490], [207, 495], [202, 499], [199, 499], [196, 496], [195, 501], [196, 498], [201, 504], [205, 513], [222, 519], [228, 525], [229, 531], [224, 537], [219, 538], [208, 531], [201, 530], [192, 521], [185, 517], [182, 517], [179, 521], [175, 522], [163, 522], [150, 518], [142, 518], [137, 520], [126, 529], [119, 532], [100, 530], [101, 535], [109, 544], [121, 540], [139, 541], [146, 546], [153, 554], [161, 559], [164, 557], [164, 554], [157, 546], [158, 544], [166, 543], [173, 549], [177, 549], [189, 541], [195, 545], [197, 550], [191, 558], [192, 563], [195, 566], [223, 565], [239, 558], [243, 558], [255, 547], [258, 538], [261, 536]]]}}, {"type": "Feature", "properties": {"class": "Other crops (primarily cereals)", "class_index": 4, "area_px": 6995.5}, "geometry": {"type": "Polygon", "coordinates": [[[264, 457], [262, 465], [265, 471], [260, 480], [255, 480], [244, 484], [236, 484], [234, 487], [231, 484], [227, 487], [233, 493], [236, 489], [240, 489], [250, 493], [258, 493], [263, 500], [269, 500], [273, 506], [267, 509], [267, 513], [270, 518], [270, 521], [273, 523], [289, 523], [293, 520], [299, 521], [301, 523], [298, 527], [294, 526], [289, 528], [289, 531], [291, 533], [291, 542], [295, 543], [293, 552], [295, 557], [299, 561], [300, 571], [309, 567], [317, 566], [321, 568], [328, 563], [328, 561], [317, 556], [307, 555], [306, 553], [303, 553], [298, 548], [296, 543], [297, 542], [314, 542], [320, 548], [321, 551], [334, 552], [342, 548], [344, 549], [354, 545], [360, 541], [370, 527], [373, 526], [372, 524], [374, 523], [373, 521], [376, 514], [372, 512], [369, 515], [364, 511], [364, 506], [354, 514], [337, 520], [325, 521], [323, 523], [316, 522], [314, 520], [321, 514], [335, 510], [341, 511], [343, 508], [347, 506], [353, 498], [358, 496], [359, 494], [364, 494], [366, 489], [360, 492], [348, 491], [330, 480], [321, 477], [315, 477], [310, 479], [308, 478], [306, 480], [303, 479], [294, 482], [278, 481], [271, 476], [274, 473], [278, 474], [279, 472], [297, 474], [299, 473], [299, 470], [321, 466], [322, 469], [324, 466], [327, 466], [329, 468], [333, 467], [336, 464], [335, 458], [323, 460], [320, 458], [308, 460], [305, 458], [304, 459], [299, 452], [292, 452], [287, 454], [276, 453], [264, 457]]]}}, {"type": "Feature", "properties": {"class": "Other crops (primarily cereals)", "class_index": 4, "area_px": 1313.5}, "geometry": {"type": "Polygon", "coordinates": [[[469, 410], [460, 410], [457, 408], [455, 404], [447, 404], [445, 410], [440, 415], [437, 415], [432, 410], [431, 416], [429, 418], [419, 418], [414, 420], [410, 426], [412, 430], [411, 436], [402, 443], [397, 450], [397, 458], [402, 467], [402, 470], [406, 470], [409, 464], [409, 448], [411, 446], [413, 448], [415, 447], [419, 451], [421, 445], [418, 442], [418, 439], [421, 436], [427, 433], [436, 423], [444, 419], [449, 424], [448, 432], [450, 439], [454, 438], [455, 434], [460, 429], [461, 425], [465, 420], [469, 410]]]}}, {"type": "Feature", "properties": {"class": "Other crops (primarily cereals)", "class_index": 4, "area_px": 3830.5}, "geometry": {"type": "Polygon", "coordinates": [[[541, 362], [534, 362], [530, 364], [520, 375], [512, 379], [508, 379], [505, 382], [505, 386], [500, 396], [499, 407], [497, 409], [492, 409], [486, 417], [483, 427], [476, 434], [476, 439], [465, 452], [454, 452], [450, 448], [450, 444], [442, 444], [433, 451], [431, 467], [426, 474], [427, 478], [425, 482], [430, 488], [434, 489], [438, 485], [445, 490], [442, 504], [454, 504], [454, 501], [452, 500], [452, 498], [454, 497], [454, 491], [457, 488], [459, 488], [462, 484], [471, 481], [480, 486], [500, 502], [506, 503], [508, 505], [519, 505], [519, 501], [516, 494], [500, 476], [493, 474], [487, 475], [482, 480], [478, 480], [468, 470], [468, 464], [483, 452], [488, 454], [496, 450], [499, 450], [496, 447], [494, 447], [490, 442], [490, 432], [495, 424], [496, 419], [499, 418], [497, 416], [497, 409], [499, 407], [501, 409], [505, 408], [514, 397], [517, 398], [517, 395], [520, 396], [522, 393], [524, 394], [526, 392], [525, 388], [528, 382], [528, 378], [537, 372], [542, 364], [541, 362]]]}}, {"type": "Feature", "properties": {"class": "Other crops (primarily cereals)", "class_index": 4, "area_px": 865.0}, "geometry": {"type": "Polygon", "coordinates": [[[507, 322], [499, 322], [497, 324], [491, 322], [482, 327], [477, 336], [476, 387], [478, 385], [478, 380], [481, 375], [484, 361], [492, 352], [494, 347], [501, 340], [505, 330], [509, 325], [509, 323], [507, 322]]]}}, {"type": "Feature", "properties": {"class": "Other crops (primarily cereals)", "class_index": 4, "area_px": 19328.5}, "geometry": {"type": "Polygon", "coordinates": [[[138, 311], [152, 326], [155, 333], [158, 349], [166, 350], [178, 364], [180, 370], [185, 374], [185, 377], [183, 379], [176, 378], [174, 375], [170, 373], [169, 369], [166, 369], [166, 371], [159, 376], [162, 384], [165, 386], [174, 384], [181, 390], [185, 389], [187, 386], [193, 386], [198, 390], [205, 390], [211, 395], [212, 404], [215, 406], [222, 407], [226, 413], [226, 418], [224, 420], [236, 435], [236, 444], [243, 444], [243, 442], [250, 437], [251, 438], [266, 432], [270, 433], [274, 437], [276, 445], [279, 445], [280, 443], [284, 445], [292, 444], [292, 441], [295, 440], [294, 438], [299, 432], [300, 433], [307, 426], [309, 428], [313, 424], [317, 423], [327, 414], [330, 415], [330, 411], [339, 397], [344, 397], [346, 394], [353, 394], [360, 401], [359, 403], [362, 415], [360, 422], [362, 428], [362, 443], [365, 448], [370, 449], [372, 448], [374, 443], [374, 428], [379, 421], [378, 410], [383, 406], [385, 408], [388, 407], [388, 400], [390, 399], [389, 396], [392, 395], [393, 385], [398, 379], [400, 380], [404, 370], [406, 369], [406, 367], [404, 366], [405, 363], [403, 362], [404, 360], [401, 357], [402, 355], [398, 351], [399, 350], [395, 345], [395, 341], [392, 339], [393, 337], [391, 335], [388, 335], [388, 373], [385, 379], [377, 378], [375, 374], [376, 366], [369, 365], [365, 369], [359, 380], [355, 384], [350, 386], [331, 381], [300, 381], [295, 385], [294, 395], [297, 402], [300, 423], [294, 429], [281, 429], [261, 421], [247, 405], [256, 398], [240, 372], [243, 362], [245, 361], [245, 358], [250, 352], [267, 342], [288, 339], [294, 336], [295, 337], [303, 329], [308, 321], [315, 314], [320, 312], [323, 312], [324, 314], [327, 313], [333, 319], [337, 329], [338, 345], [341, 348], [344, 348], [353, 333], [353, 330], [350, 326], [351, 321], [359, 313], [361, 315], [367, 307], [365, 298], [360, 293], [360, 278], [355, 278], [340, 291], [338, 291], [335, 288], [331, 288], [329, 286], [328, 280], [308, 280], [307, 274], [303, 269], [300, 268], [297, 263], [293, 265], [287, 265], [281, 270], [275, 271], [274, 274], [276, 276], [273, 279], [247, 280], [250, 282], [250, 285], [255, 293], [257, 293], [267, 282], [271, 282], [275, 288], [275, 303], [273, 305], [273, 308], [269, 312], [265, 313], [260, 308], [255, 307], [253, 308], [252, 316], [249, 319], [242, 322], [237, 322], [231, 317], [228, 312], [227, 300], [228, 297], [236, 291], [245, 292], [243, 287], [238, 283], [237, 280], [227, 281], [222, 279], [206, 267], [204, 264], [202, 264], [199, 268], [200, 285], [202, 287], [202, 302], [196, 312], [191, 315], [182, 315], [170, 312], [138, 311]]]}}, {"type": "Feature", "properties": {"class": "Other crops (primarily cereals)", "class_index": 4, "area_px": 341.5}, "geometry": {"type": "Polygon", "coordinates": [[[567, 269], [567, 271], [580, 274], [589, 283], [596, 278], [598, 272], [598, 267], [582, 266], [578, 260], [573, 262], [567, 269]]]}}, {"type": "Feature", "properties": {"class": "Other crops (primarily cereals)", "class_index": 4, "area_px": 425.5}, "geometry": {"type": "Polygon", "coordinates": [[[407, 253], [406, 258], [409, 265], [409, 269], [405, 275], [405, 285], [412, 290], [417, 287], [417, 284], [419, 284], [417, 283], [419, 277], [416, 274], [416, 270], [421, 266], [427, 264], [415, 254], [407, 253]]]}}, {"type": "Feature", "properties": {"class": "Other crops (primarily cereals)", "class_index": 4, "area_px": 495.0}, "geometry": {"type": "Polygon", "coordinates": [[[394, 247], [392, 248], [390, 256], [383, 263], [375, 267], [376, 268], [373, 271], [372, 284], [373, 290], [375, 292], [380, 285], [383, 284], [382, 281], [384, 278], [399, 266], [399, 262], [397, 261], [398, 260], [395, 256], [397, 253], [396, 249], [394, 247]]]}}, {"type": "Feature", "properties": {"class": "Other crops (primarily cereals)", "class_index": 4, "area_px": 2543.0}, "geometry": {"type": "Polygon", "coordinates": [[[502, 213], [498, 213], [493, 218], [486, 218], [484, 229], [485, 234], [480, 237], [479, 236], [474, 241], [468, 243], [455, 255], [460, 274], [460, 286], [462, 288], [457, 297], [456, 308], [460, 305], [462, 301], [465, 301], [466, 298], [471, 297], [474, 293], [480, 290], [487, 294], [489, 294], [490, 290], [493, 288], [497, 291], [497, 299], [491, 304], [495, 306], [501, 299], [508, 298], [512, 294], [516, 295], [517, 292], [521, 293], [524, 288], [520, 285], [518, 277], [504, 279], [499, 284], [494, 286], [493, 281], [495, 280], [494, 275], [497, 266], [497, 261], [495, 260], [493, 262], [487, 262], [485, 259], [486, 251], [496, 236], [495, 227], [498, 225], [502, 213]]]}}, {"type": "Feature", "properties": {"class": "Other crops (primarily cereals)", "class_index": 4, "area_px": 1628.0}, "geometry": {"type": "Polygon", "coordinates": [[[397, 210], [396, 214], [400, 222], [400, 229], [403, 239], [413, 247], [425, 251], [430, 256], [431, 263], [439, 263], [443, 269], [443, 273], [440, 275], [440, 277], [443, 281], [447, 283], [450, 279], [452, 272], [451, 265], [448, 262], [449, 261], [447, 258], [444, 244], [441, 241], [442, 240], [430, 227], [431, 226], [428, 224], [423, 214], [414, 210], [397, 210]]]}}, {"type": "Feature", "properties": {"class": "Other crops (primarily cereals)", "class_index": 4, "area_px": 4715.0}, "geometry": {"type": "Polygon", "coordinates": [[[519, 135], [513, 136], [514, 139], [512, 140], [513, 142], [510, 145], [501, 145], [499, 146], [500, 151], [505, 149], [509, 155], [509, 157], [504, 160], [506, 164], [504, 168], [506, 177], [509, 179], [513, 189], [511, 193], [513, 195], [515, 210], [518, 216], [518, 231], [521, 235], [523, 234], [525, 236], [526, 233], [527, 234], [528, 232], [531, 232], [535, 227], [539, 225], [539, 219], [537, 218], [538, 209], [535, 205], [533, 206], [528, 201], [529, 198], [527, 194], [529, 187], [527, 186], [527, 179], [529, 178], [528, 169], [531, 165], [531, 158], [534, 155], [538, 155], [541, 158], [541, 168], [539, 171], [540, 175], [536, 182], [536, 193], [538, 196], [544, 198], [545, 203], [550, 211], [554, 211], [558, 208], [561, 208], [562, 211], [567, 211], [573, 206], [575, 206], [579, 203], [588, 187], [602, 173], [595, 169], [579, 166], [572, 163], [553, 145], [548, 142], [528, 136], [519, 135]]]}}, {"type": "Feature", "properties": {"class": "Other crops (primarily cereals)", "class_index": 4, "area_px": 157.5}, "geometry": {"type": "Polygon", "coordinates": [[[238, 131], [229, 148], [231, 151], [231, 156], [236, 160], [240, 160], [241, 157], [237, 151], [237, 146], [239, 142], [238, 131]]]}}, {"type": "Feature", "properties": {"class": "Other crops (primarily cereals)", "class_index": 4, "area_px": 5932.0}, "geometry": {"type": "Polygon", "coordinates": [[[417, 111], [412, 118], [412, 125], [409, 130], [394, 131], [392, 132], [392, 134], [394, 136], [406, 138], [409, 136], [418, 135], [423, 128], [430, 128], [438, 130], [440, 133], [440, 138], [438, 140], [422, 144], [422, 152], [418, 159], [397, 177], [390, 188], [388, 194], [385, 197], [383, 197], [383, 200], [385, 199], [386, 201], [388, 199], [399, 197], [401, 198], [404, 196], [418, 196], [420, 199], [422, 198], [425, 201], [427, 200], [442, 205], [443, 208], [447, 208], [449, 210], [447, 212], [449, 212], [462, 222], [476, 222], [477, 216], [475, 215], [474, 207], [469, 202], [459, 198], [450, 189], [446, 182], [442, 181], [438, 176], [438, 173], [444, 169], [452, 175], [460, 187], [471, 193], [477, 191], [482, 182], [474, 176], [475, 169], [469, 164], [469, 157], [473, 154], [477, 162], [483, 167], [487, 173], [490, 183], [492, 185], [495, 184], [496, 182], [489, 169], [488, 157], [490, 152], [482, 143], [479, 134], [475, 130], [465, 127], [461, 121], [458, 119], [455, 120], [451, 114], [447, 112], [439, 115], [430, 115], [421, 110], [417, 111]]]}}, {"type": "Feature", "properties": {"class": "Other crops (primarily cereals)", "class_index": 4, "area_px": 8089.5}, "geometry": {"type": "Polygon", "coordinates": [[[320, 105], [316, 103], [305, 103], [283, 110], [271, 117], [269, 116], [274, 120], [274, 123], [276, 125], [275, 142], [278, 151], [281, 155], [281, 157], [278, 160], [277, 174], [271, 185], [259, 195], [254, 195], [251, 192], [250, 187], [248, 187], [242, 192], [241, 191], [245, 197], [245, 212], [250, 216], [251, 220], [250, 224], [243, 231], [232, 235], [232, 237], [237, 238], [241, 241], [258, 240], [259, 243], [256, 246], [253, 245], [252, 247], [246, 245], [225, 245], [211, 249], [208, 254], [209, 256], [217, 259], [226, 266], [233, 269], [247, 268], [254, 265], [261, 265], [263, 263], [286, 263], [293, 256], [304, 250], [314, 241], [331, 234], [325, 235], [315, 241], [308, 242], [297, 238], [293, 234], [290, 227], [290, 216], [292, 211], [300, 205], [314, 202], [320, 197], [322, 192], [321, 184], [314, 169], [314, 148], [311, 139], [311, 130], [316, 125], [321, 123], [326, 117], [326, 113], [320, 105]]]}}, {"type": "Feature", "properties": {"class": "Olives (often with vines and wheat)", "class_index": 5, "area_px": 71.0}, "geometry": {"type": "Polygon", "coordinates": [[[404, 557], [409, 560], [415, 560], [418, 558], [418, 556], [414, 553], [407, 554], [404, 557]]]}}, {"type": "Feature", "properties": {"class": "Olives (often with vines and wheat)", "class_index": 5, "area_px": 15.5}, "geometry": {"type": "Polygon", "coordinates": [[[201, 426], [199, 429], [202, 433], [203, 431], [201, 426]]]}}, {"type": "Feature", "properties": {"class": "Olives (often with vines and wheat)", "class_index": 5, "area_px": 347.0}, "geometry": {"type": "Polygon", "coordinates": [[[475, 301], [469, 309], [468, 313], [471, 316], [478, 316], [482, 323], [485, 325], [491, 321], [493, 312], [489, 306], [486, 306], [483, 302], [475, 301]]]}}, {"type": "Feature", "properties": {"class": "Olives (often with vines and wheat)", "class_index": 5, "area_px": 15.5}, "geometry": {"type": "Polygon", "coordinates": [[[602, 239], [602, 243], [606, 244], [606, 241], [602, 239]]]}}, {"type": "Feature", "properties": {"class": "Olives (often with vines and wheat)", "class_index": 5, "area_px": 350.5}, "geometry": {"type": "Polygon", "coordinates": [[[604, 195], [596, 201], [598, 205], [597, 208], [601, 214], [601, 220], [604, 223], [611, 226], [616, 216], [614, 213], [615, 210], [611, 206], [611, 204], [606, 200], [606, 195], [604, 195]]]}}, {"type": "Feature", "properties": {"class": "Market gardening (fruits, vegetables, flowers)", "class_index": 6, "area_px": 242.5}, "geometry": {"type": "Polygon", "coordinates": [[[657, 632], [640, 639], [635, 649], [640, 652], [653, 646], [658, 639], [657, 632]]]}}, {"type": "Feature", "properties": {"class": "Market gardening (fruits, vegetables, flowers)", "class_index": 6, "area_px": 723.0}, "geometry": {"type": "Polygon", "coordinates": [[[304, 610], [308, 621], [318, 629], [334, 629], [339, 631], [343, 626], [338, 614], [341, 602], [329, 602], [321, 610], [304, 610]]]}}, {"type": "Feature", "properties": {"class": "Market gardening (fruits, vegetables, flowers)", "class_index": 6, "area_px": 1225.0}, "geometry": {"type": "Polygon", "coordinates": [[[273, 542], [264, 549], [265, 555], [270, 565], [271, 581], [269, 584], [271, 587], [284, 592], [294, 581], [295, 582], [300, 572], [299, 564], [292, 552], [294, 543], [273, 542]]]}}, {"type": "Feature", "properties": {"class": "Market gardening (fruits, vegetables, flowers)", "class_index": 6, "area_px": 3476.5}, "geometry": {"type": "Polygon", "coordinates": [[[426, 489], [417, 498], [413, 500], [413, 504], [418, 505], [422, 501], [424, 501], [434, 490], [437, 500], [434, 509], [434, 517], [436, 520], [434, 535], [439, 541], [439, 544], [436, 547], [436, 551], [440, 559], [449, 565], [451, 574], [454, 576], [463, 577], [466, 581], [466, 584], [468, 585], [475, 578], [479, 571], [489, 571], [492, 561], [500, 554], [500, 552], [504, 548], [506, 538], [509, 535], [509, 525], [506, 515], [507, 505], [500, 503], [498, 508], [498, 511], [500, 513], [499, 515], [504, 524], [504, 530], [495, 538], [485, 537], [481, 539], [469, 539], [466, 538], [461, 531], [461, 528], [465, 525], [465, 516], [454, 505], [441, 504], [444, 490], [438, 486], [434, 490], [426, 489]]]}}, {"type": "Feature", "properties": {"class": "Market gardening (fruits, vegetables, flowers)", "class_index": 6, "area_px": 2711.0}, "geometry": {"type": "Polygon", "coordinates": [[[472, 297], [466, 299], [466, 301], [462, 302], [461, 305], [456, 309], [456, 313], [460, 315], [460, 318], [456, 320], [456, 324], [453, 327], [453, 329], [451, 331], [449, 330], [446, 332], [447, 339], [452, 338], [458, 333], [461, 339], [461, 345], [454, 349], [449, 361], [445, 376], [445, 383], [440, 391], [440, 400], [436, 410], [437, 414], [440, 414], [444, 410], [447, 403], [455, 403], [458, 408], [465, 410], [473, 408], [479, 404], [479, 399], [472, 391], [475, 388], [476, 383], [476, 336], [483, 325], [478, 317], [471, 317], [467, 313], [468, 309], [474, 301], [472, 297]]]}}, {"type": "Feature", "properties": {"class": "Market gardening (fruits, vegetables, flowers)", "class_index": 6, "area_px": 650.0}, "geometry": {"type": "Polygon", "coordinates": [[[346, 152], [337, 157], [333, 156], [330, 161], [334, 167], [335, 175], [337, 178], [337, 184], [344, 190], [345, 196], [352, 198], [355, 190], [361, 185], [363, 178], [361, 173], [357, 170], [353, 178], [344, 176], [342, 174], [344, 168], [342, 163], [352, 157], [350, 153], [346, 152]]]}}, {"type": "Feature", "properties": {"class": "Vineyards", "class_index": 7, "area_px": 1230.5}, "geometry": {"type": "Polygon", "coordinates": [[[567, 557], [561, 553], [547, 554], [544, 558], [544, 562], [536, 568], [522, 568], [518, 567], [517, 564], [513, 564], [511, 570], [503, 573], [503, 585], [500, 594], [505, 596], [513, 596], [529, 591], [533, 588], [543, 575], [557, 567], [567, 557]]]}}, {"type": "Feature", "properties": {"class": "Vineyards", "class_index": 7, "area_px": 2176.0}, "geometry": {"type": "Polygon", "coordinates": [[[428, 543], [424, 543], [418, 537], [415, 530], [412, 528], [405, 534], [403, 532], [404, 523], [402, 520], [398, 523], [396, 532], [391, 538], [391, 544], [387, 550], [382, 551], [379, 549], [379, 545], [369, 544], [365, 551], [357, 556], [352, 557], [348, 562], [341, 566], [326, 566], [321, 569], [317, 567], [305, 569], [299, 574], [296, 582], [300, 586], [307, 586], [312, 581], [317, 579], [328, 579], [340, 583], [350, 576], [372, 566], [384, 557], [389, 555], [403, 557], [407, 553], [414, 552], [419, 557], [423, 555], [424, 556], [428, 551], [428, 543]]]}}, {"type": "Feature", "properties": {"class": "Vineyards", "class_index": 7, "area_px": 1066.5}, "geometry": {"type": "Polygon", "coordinates": [[[167, 482], [167, 486], [171, 491], [176, 494], [181, 494], [185, 498], [184, 502], [178, 509], [178, 515], [181, 517], [185, 516], [192, 520], [201, 529], [208, 530], [216, 536], [221, 537], [227, 533], [227, 525], [222, 520], [205, 514], [194, 495], [172, 481], [167, 482]]]}}, {"type": "Feature", "properties": {"class": "Vineyards", "class_index": 7, "area_px": 6082.5}, "geometry": {"type": "Polygon", "coordinates": [[[163, 386], [163, 389], [157, 392], [155, 402], [158, 410], [158, 417], [162, 424], [163, 440], [170, 451], [174, 451], [178, 455], [180, 464], [186, 470], [190, 472], [195, 471], [197, 473], [202, 474], [208, 483], [208, 489], [216, 493], [218, 497], [221, 496], [226, 499], [233, 507], [244, 511], [258, 527], [261, 535], [267, 537], [272, 542], [274, 541], [272, 532], [257, 521], [252, 513], [254, 506], [258, 502], [262, 501], [261, 497], [258, 494], [250, 494], [240, 490], [236, 490], [233, 494], [226, 487], [231, 483], [234, 486], [236, 483], [244, 483], [255, 479], [260, 479], [262, 475], [251, 474], [247, 470], [245, 464], [245, 455], [237, 445], [234, 444], [233, 446], [228, 446], [221, 443], [208, 441], [199, 432], [200, 430], [198, 428], [201, 425], [199, 420], [206, 413], [212, 417], [224, 419], [225, 413], [223, 409], [213, 406], [210, 401], [210, 395], [205, 391], [198, 391], [193, 387], [187, 387], [185, 390], [181, 391], [174, 385], [171, 385], [169, 387], [163, 386]]]}}, {"type": "Feature", "properties": {"class": "Vineyards", "class_index": 7, "area_px": 1730.5}, "geometry": {"type": "Polygon", "coordinates": [[[319, 241], [316, 241], [311, 244], [304, 251], [297, 254], [286, 264], [263, 264], [261, 266], [254, 266], [247, 269], [233, 270], [207, 255], [194, 255], [187, 251], [181, 252], [177, 250], [169, 250], [153, 256], [147, 262], [147, 266], [150, 269], [155, 269], [161, 267], [169, 261], [174, 260], [186, 263], [189, 262], [197, 268], [202, 263], [204, 263], [217, 275], [227, 280], [246, 280], [249, 278], [273, 278], [275, 276], [273, 274], [275, 270], [279, 270], [287, 264], [293, 264], [297, 262], [299, 259], [305, 257], [316, 250], [319, 241]]]}}, {"type": "Feature", "properties": {"class": "Vineyards", "class_index": 7, "area_px": 968.5}, "geometry": {"type": "Polygon", "coordinates": [[[596, 208], [591, 214], [591, 231], [578, 257], [580, 263], [585, 266], [599, 266], [605, 253], [606, 245], [601, 243], [601, 239], [607, 239], [609, 226], [604, 224], [600, 220], [600, 214], [596, 208]]]}}]}