{"type": "FeatureCollection", "coordinate_space": "map_area.png pixels, y down", "mm_per_px": 0.259, "features": [{"type": "Feature", "properties": {"class": "Forest", "class_index": 0, "area_px": 250.0}, "geometry": {"type": "Polygon", "coordinates": [[[660, 675], [657, 678], [657, 690], [655, 693], [658, 696], [661, 705], [663, 706], [667, 703], [667, 701], [665, 700], [667, 683], [666, 678], [663, 675], [660, 675]]]}}, {"type": "Feature", "properties": {"class": "Forest", "class_index": 0, "area_px": 2708.0}, "geometry": {"type": "Polygon", "coordinates": [[[139, 568], [147, 576], [162, 581], [178, 590], [194, 593], [211, 593], [220, 589], [228, 591], [240, 597], [248, 603], [262, 609], [267, 616], [278, 625], [292, 627], [305, 632], [312, 632], [317, 629], [311, 625], [306, 619], [303, 620], [300, 618], [298, 610], [285, 610], [276, 597], [269, 594], [265, 598], [262, 597], [257, 590], [254, 590], [247, 586], [239, 585], [232, 581], [230, 582], [223, 579], [220, 580], [215, 577], [212, 579], [203, 579], [200, 577], [198, 573], [186, 573], [177, 569], [171, 563], [167, 563], [160, 567], [141, 566], [139, 568]]]}}, {"type": "Feature", "properties": {"class": "Forest", "class_index": 0, "area_px": 270.5}, "geometry": {"type": "Polygon", "coordinates": [[[246, 456], [246, 464], [248, 469], [252, 473], [263, 474], [264, 469], [261, 464], [262, 457], [254, 454], [246, 456]]]}}, {"type": "Feature", "properties": {"class": "Forest", "class_index": 0, "area_px": 334.0}, "geometry": {"type": "Polygon", "coordinates": [[[274, 439], [271, 435], [266, 433], [254, 437], [245, 444], [265, 453], [269, 448], [273, 446], [274, 439]]]}}, {"type": "Feature", "properties": {"class": "Forest", "class_index": 0, "area_px": 2062.0}, "geometry": {"type": "Polygon", "coordinates": [[[402, 424], [391, 426], [389, 424], [379, 422], [375, 428], [376, 444], [374, 448], [377, 448], [377, 453], [374, 458], [369, 475], [367, 500], [364, 505], [366, 512], [372, 512], [371, 511], [377, 506], [379, 501], [388, 494], [393, 482], [403, 473], [395, 458], [395, 448], [400, 442], [403, 442], [410, 436], [411, 430], [409, 427], [402, 424]]]}}, {"type": "Feature", "properties": {"class": "Forest", "class_index": 0, "area_px": 682.0}, "geometry": {"type": "Polygon", "coordinates": [[[200, 412], [200, 421], [204, 436], [211, 441], [233, 445], [235, 436], [224, 421], [213, 419], [205, 413], [200, 412]]]}}, {"type": "Feature", "properties": {"class": "Forest", "class_index": 0, "area_px": 307.5}, "geometry": {"type": "Polygon", "coordinates": [[[399, 383], [396, 386], [396, 391], [394, 395], [397, 399], [396, 411], [399, 414], [402, 414], [405, 411], [405, 404], [408, 401], [410, 395], [403, 383], [399, 383]]]}}, {"type": "Feature", "properties": {"class": "Forest", "class_index": 0, "area_px": 5198.0}, "geometry": {"type": "Polygon", "coordinates": [[[157, 377], [151, 379], [146, 387], [143, 402], [133, 434], [133, 442], [128, 462], [117, 497], [112, 508], [111, 513], [113, 515], [118, 515], [123, 509], [135, 506], [156, 509], [160, 511], [163, 510], [167, 512], [177, 511], [182, 503], [182, 498], [180, 495], [172, 494], [165, 489], [166, 485], [163, 482], [164, 476], [167, 476], [176, 481], [199, 498], [205, 496], [208, 491], [205, 479], [195, 472], [192, 473], [185, 470], [178, 462], [176, 455], [173, 452], [171, 452], [163, 443], [161, 424], [157, 416], [157, 410], [154, 402], [155, 394], [162, 389], [161, 383], [157, 377]]]}}, {"type": "Feature", "properties": {"class": "Forest", "class_index": 0, "area_px": 6100.0}, "geometry": {"type": "Polygon", "coordinates": [[[548, 361], [542, 367], [539, 374], [535, 377], [536, 387], [542, 401], [539, 411], [539, 421], [548, 428], [548, 432], [544, 436], [544, 440], [541, 443], [513, 443], [508, 449], [505, 449], [501, 455], [494, 456], [493, 454], [482, 454], [469, 463], [468, 469], [477, 478], [482, 478], [490, 473], [500, 474], [521, 498], [522, 510], [531, 519], [534, 526], [543, 530], [557, 528], [566, 534], [576, 532], [582, 536], [585, 536], [587, 533], [586, 528], [576, 527], [562, 520], [557, 515], [553, 505], [554, 495], [558, 488], [559, 482], [557, 476], [550, 466], [549, 461], [550, 458], [562, 449], [566, 444], [567, 432], [558, 412], [559, 405], [562, 399], [562, 389], [558, 379], [557, 367], [554, 362], [548, 361]]]}}, {"type": "Feature", "properties": {"class": "Forest", "class_index": 0, "area_px": 813.0}, "geometry": {"type": "Polygon", "coordinates": [[[413, 290], [411, 299], [415, 304], [412, 310], [408, 310], [405, 312], [400, 319], [400, 324], [405, 326], [413, 319], [418, 319], [426, 324], [431, 323], [433, 321], [432, 318], [434, 316], [441, 314], [441, 307], [435, 306], [433, 304], [432, 293], [429, 290], [425, 290], [420, 295], [415, 290], [413, 290]]]}}, {"type": "Feature", "properties": {"class": "Forest", "class_index": 0, "area_px": 201.5}, "geometry": {"type": "Polygon", "coordinates": [[[476, 223], [465, 224], [463, 227], [466, 231], [466, 237], [468, 242], [475, 240], [479, 236], [476, 223]]]}}, {"type": "Feature", "properties": {"class": "Forest", "class_index": 0, "area_px": 766.0}, "geometry": {"type": "Polygon", "coordinates": [[[589, 222], [578, 229], [575, 235], [569, 241], [563, 242], [559, 246], [559, 252], [556, 253], [555, 256], [557, 266], [556, 269], [559, 272], [566, 272], [568, 264], [572, 260], [577, 259], [589, 233], [589, 222]]]}}, {"type": "Feature", "properties": {"class": "Forest", "class_index": 0, "area_px": 813.5}, "geometry": {"type": "Polygon", "coordinates": [[[618, 177], [610, 173], [605, 173], [586, 193], [577, 207], [571, 211], [571, 218], [573, 220], [579, 220], [581, 218], [589, 219], [591, 211], [596, 205], [596, 198], [602, 194], [608, 194], [613, 191], [614, 183], [618, 177]]]}}, {"type": "Feature", "properties": {"class": "Grassland", "class_index": 1, "area_px": 3272.0}, "geometry": {"type": "Polygon", "coordinates": [[[677, 622], [675, 622], [658, 633], [658, 642], [653, 647], [640, 653], [636, 651], [633, 656], [633, 670], [639, 694], [646, 705], [652, 703], [656, 707], [657, 719], [660, 721], [664, 721], [667, 719], [675, 702], [677, 690], [685, 674], [685, 642], [680, 629], [680, 625], [677, 622]], [[660, 674], [663, 674], [667, 678], [668, 683], [666, 692], [666, 700], [668, 701], [668, 703], [663, 707], [660, 705], [658, 698], [654, 693], [656, 690], [656, 678], [660, 674]]]}}, {"type": "Feature", "properties": {"class": "Grassland", "class_index": 1, "area_px": 729.5}, "geometry": {"type": "Polygon", "coordinates": [[[418, 519], [413, 524], [412, 528], [415, 530], [418, 537], [425, 542], [428, 547], [426, 554], [423, 556], [425, 564], [429, 568], [434, 570], [449, 570], [447, 564], [443, 563], [439, 559], [435, 551], [435, 547], [437, 546], [438, 541], [433, 535], [434, 534], [430, 526], [425, 520], [418, 519]]]}}, {"type": "Feature", "properties": {"class": "Grassland", "class_index": 1, "area_px": 908.0}, "geometry": {"type": "Polygon", "coordinates": [[[97, 530], [109, 529], [119, 531], [126, 528], [137, 519], [142, 517], [150, 517], [163, 521], [175, 521], [179, 520], [180, 517], [177, 512], [167, 513], [163, 511], [160, 512], [156, 510], [135, 507], [123, 510], [118, 516], [113, 516], [109, 514], [97, 525], [97, 530]]]}}, {"type": "Feature", "properties": {"class": "Grassland", "class_index": 1, "area_px": 3509.0}, "geometry": {"type": "Polygon", "coordinates": [[[584, 537], [576, 533], [566, 535], [557, 529], [545, 531], [540, 530], [532, 525], [530, 519], [521, 510], [521, 506], [508, 506], [507, 515], [510, 523], [510, 535], [507, 538], [505, 548], [501, 552], [501, 554], [493, 561], [491, 569], [488, 572], [479, 572], [476, 578], [471, 583], [478, 589], [488, 594], [499, 595], [499, 592], [502, 587], [502, 578], [504, 574], [512, 566], [517, 565], [526, 568], [536, 568], [540, 566], [545, 557], [551, 553], [560, 553], [566, 557], [573, 557], [581, 551], [584, 537]]]}}, {"type": "Feature", "properties": {"class": "Grassland", "class_index": 1, "area_px": 5495.0}, "geometry": {"type": "Polygon", "coordinates": [[[339, 583], [328, 580], [316, 580], [309, 585], [305, 586], [299, 585], [294, 582], [284, 593], [269, 586], [269, 565], [264, 555], [263, 549], [273, 541], [290, 542], [290, 533], [288, 531], [288, 528], [306, 522], [294, 521], [289, 524], [271, 523], [266, 513], [266, 509], [269, 506], [271, 506], [271, 503], [269, 501], [264, 500], [256, 503], [253, 506], [252, 511], [256, 519], [269, 530], [271, 534], [270, 537], [260, 537], [256, 547], [243, 559], [239, 559], [227, 565], [214, 567], [195, 567], [191, 563], [190, 559], [195, 551], [195, 547], [191, 543], [185, 544], [177, 550], [173, 550], [166, 544], [162, 545], [160, 548], [165, 554], [165, 557], [162, 560], [158, 559], [142, 544], [135, 541], [121, 541], [115, 544], [108, 544], [107, 551], [111, 555], [136, 567], [139, 567], [141, 565], [160, 566], [167, 562], [171, 562], [177, 568], [186, 572], [196, 571], [203, 578], [212, 578], [215, 576], [220, 579], [223, 578], [230, 581], [232, 580], [239, 584], [247, 585], [254, 589], [257, 589], [262, 596], [265, 597], [268, 593], [276, 596], [280, 600], [285, 609], [298, 609], [300, 611], [300, 617], [303, 619], [305, 619], [305, 610], [321, 609], [329, 601], [337, 602], [339, 583]]]}}, {"type": "Feature", "properties": {"class": "Grassland", "class_index": 1, "area_px": 1866.0}, "geometry": {"type": "Polygon", "coordinates": [[[462, 485], [459, 489], [455, 491], [455, 497], [453, 498], [453, 500], [455, 501], [455, 505], [466, 516], [466, 525], [462, 528], [463, 534], [469, 538], [481, 538], [485, 536], [495, 537], [503, 530], [503, 524], [497, 511], [499, 502], [480, 487], [471, 482], [462, 485]]]}}, {"type": "Feature", "properties": {"class": "Grassland", "class_index": 1, "area_px": 5345.0}, "geometry": {"type": "Polygon", "coordinates": [[[353, 395], [346, 395], [344, 398], [339, 398], [331, 411], [331, 415], [327, 415], [325, 418], [317, 424], [313, 425], [309, 429], [307, 427], [304, 431], [303, 430], [300, 434], [299, 433], [295, 438], [296, 440], [293, 441], [294, 443], [292, 445], [284, 446], [280, 444], [279, 446], [276, 446], [274, 444], [274, 446], [269, 449], [265, 454], [246, 446], [244, 444], [249, 440], [244, 442], [243, 445], [236, 445], [234, 441], [235, 440], [234, 444], [237, 449], [245, 455], [254, 453], [260, 456], [267, 456], [276, 452], [287, 453], [292, 451], [299, 451], [304, 458], [305, 457], [308, 459], [317, 457], [323, 459], [335, 457], [337, 459], [337, 464], [333, 468], [329, 469], [327, 467], [324, 467], [324, 469], [322, 470], [321, 467], [299, 471], [300, 473], [297, 475], [279, 473], [278, 475], [273, 474], [270, 476], [276, 480], [294, 481], [303, 478], [306, 479], [308, 477], [310, 478], [315, 476], [321, 476], [330, 479], [348, 490], [360, 491], [366, 488], [367, 489], [364, 495], [359, 495], [358, 497], [353, 499], [348, 506], [341, 512], [335, 511], [324, 514], [309, 521], [311, 522], [323, 522], [325, 520], [337, 519], [349, 515], [357, 511], [365, 503], [368, 475], [373, 458], [376, 453], [376, 448], [368, 450], [365, 449], [361, 443], [361, 428], [359, 425], [361, 415], [358, 403], [359, 401], [353, 395]]]}}, {"type": "Feature", "properties": {"class": "Grassland", "class_index": 1, "area_px": 556.0}, "geometry": {"type": "Polygon", "coordinates": [[[148, 363], [148, 366], [152, 373], [158, 377], [165, 371], [166, 368], [169, 368], [171, 370], [171, 373], [174, 374], [176, 377], [182, 378], [185, 376], [185, 374], [183, 374], [179, 370], [177, 364], [166, 351], [158, 350], [151, 357], [148, 363]]]}}, {"type": "Feature", "properties": {"class": "Grassland", "class_index": 1, "area_px": 1120.5}, "geometry": {"type": "Polygon", "coordinates": [[[271, 283], [267, 283], [257, 294], [255, 294], [249, 285], [249, 282], [245, 280], [238, 281], [244, 287], [246, 292], [236, 292], [229, 297], [228, 309], [232, 317], [237, 321], [242, 321], [249, 318], [251, 316], [251, 310], [255, 306], [260, 307], [264, 311], [270, 310], [274, 303], [274, 288], [271, 283]]]}}, {"type": "Feature", "properties": {"class": "Grassland", "class_index": 1, "area_px": 19267.5}, "geometry": {"type": "Polygon", "coordinates": [[[366, 198], [357, 205], [358, 211], [360, 210], [361, 213], [368, 212], [368, 209], [375, 209], [382, 215], [384, 219], [383, 228], [375, 238], [373, 238], [374, 239], [367, 244], [355, 244], [350, 242], [345, 237], [344, 232], [335, 232], [318, 241], [318, 245], [315, 250], [300, 260], [298, 264], [308, 274], [309, 279], [328, 279], [330, 282], [330, 286], [335, 287], [337, 289], [341, 289], [355, 277], [360, 277], [362, 279], [361, 293], [366, 298], [368, 307], [363, 314], [356, 320], [353, 326], [360, 331], [372, 335], [378, 341], [378, 348], [375, 355], [374, 365], [377, 366], [377, 376], [379, 378], [386, 377], [386, 336], [388, 334], [391, 334], [394, 337], [393, 339], [396, 341], [396, 345], [398, 346], [397, 347], [399, 348], [399, 351], [402, 353], [402, 357], [404, 358], [404, 362], [406, 363], [405, 366], [407, 367], [401, 380], [398, 380], [395, 385], [393, 395], [390, 397], [391, 399], [389, 400], [389, 407], [386, 409], [383, 407], [379, 411], [380, 421], [389, 423], [391, 425], [402, 423], [409, 426], [414, 419], [419, 417], [427, 418], [430, 416], [430, 412], [432, 409], [434, 412], [436, 411], [439, 400], [439, 393], [444, 383], [444, 376], [448, 361], [452, 353], [460, 346], [461, 339], [459, 336], [456, 335], [452, 339], [447, 340], [444, 338], [443, 334], [445, 331], [452, 329], [452, 327], [455, 324], [455, 320], [459, 316], [455, 313], [455, 302], [457, 294], [461, 288], [459, 286], [459, 274], [454, 255], [467, 243], [465, 231], [462, 227], [464, 223], [462, 223], [452, 215], [446, 212], [448, 210], [443, 209], [442, 206], [427, 201], [425, 202], [422, 199], [420, 200], [418, 197], [404, 197], [401, 199], [399, 198], [388, 200], [386, 202], [385, 200], [383, 201], [382, 198], [378, 197], [366, 198]], [[399, 382], [404, 383], [411, 395], [409, 401], [406, 404], [406, 411], [402, 415], [399, 415], [395, 411], [396, 399], [393, 395], [395, 391], [395, 386], [399, 382]], [[407, 252], [415, 253], [428, 264], [417, 270], [417, 274], [420, 277], [418, 283], [420, 284], [417, 285], [418, 287], [416, 290], [420, 294], [425, 289], [429, 289], [433, 293], [434, 304], [440, 305], [443, 309], [442, 314], [440, 316], [434, 317], [434, 321], [428, 325], [418, 320], [411, 321], [405, 327], [399, 324], [399, 319], [406, 310], [412, 309], [414, 304], [410, 299], [412, 292], [411, 290], [404, 285], [404, 275], [408, 269], [408, 265], [405, 258], [405, 254], [407, 252]], [[394, 246], [397, 249], [398, 253], [396, 256], [399, 260], [398, 261], [400, 262], [400, 266], [385, 278], [383, 281], [384, 284], [381, 285], [375, 293], [372, 290], [371, 284], [372, 271], [375, 268], [375, 266], [383, 262], [389, 256], [391, 248], [394, 246]], [[397, 209], [414, 209], [423, 213], [428, 220], [429, 224], [432, 226], [431, 227], [443, 240], [442, 241], [445, 244], [448, 258], [450, 261], [449, 262], [452, 265], [453, 272], [451, 279], [447, 284], [443, 282], [439, 277], [439, 275], [442, 273], [441, 266], [439, 264], [431, 264], [429, 261], [430, 258], [426, 253], [413, 248], [402, 239], [399, 229], [399, 222], [395, 214], [395, 211], [397, 209]]]}}, {"type": "Feature", "properties": {"class": "Grassland", "class_index": 1, "area_px": 502.0}, "geometry": {"type": "Polygon", "coordinates": [[[628, 178], [619, 177], [615, 183], [614, 191], [606, 197], [607, 200], [612, 204], [612, 207], [615, 211], [629, 196], [633, 189], [633, 182], [628, 178]]]}}, {"type": "Feature", "properties": {"class": "Grassland", "class_index": 1, "area_px": 6636.0}, "geometry": {"type": "Polygon", "coordinates": [[[167, 83], [165, 86], [165, 98], [171, 115], [171, 126], [168, 140], [168, 147], [171, 157], [177, 163], [188, 170], [213, 175], [242, 189], [248, 189], [255, 192], [264, 192], [265, 189], [270, 185], [276, 174], [277, 160], [280, 157], [274, 142], [275, 125], [273, 123], [273, 120], [270, 119], [267, 115], [257, 113], [246, 120], [238, 123], [238, 126], [240, 127], [240, 142], [238, 146], [238, 151], [242, 157], [241, 160], [238, 161], [230, 156], [230, 151], [228, 147], [216, 146], [213, 142], [209, 111], [199, 107], [194, 103], [191, 95], [190, 86], [186, 83], [181, 82], [167, 83]]]}}, {"type": "Feature", "properties": {"class": "Grassland", "class_index": 1, "area_px": 207.5}, "geometry": {"type": "Polygon", "coordinates": [[[329, 69], [327, 73], [341, 88], [354, 96], [365, 99], [354, 93], [341, 80], [333, 68], [329, 69]]]}}, {"type": "Feature", "properties": {"class": "Grassland", "class_index": 1, "area_px": 23344.5}, "geometry": {"type": "Polygon", "coordinates": [[[428, 66], [423, 70], [423, 73], [426, 77], [425, 84], [422, 86], [421, 94], [418, 100], [405, 110], [404, 116], [399, 121], [388, 127], [383, 128], [377, 136], [360, 146], [357, 150], [357, 153], [365, 155], [370, 149], [377, 144], [387, 141], [404, 140], [408, 142], [419, 141], [424, 143], [430, 140], [439, 139], [440, 134], [438, 131], [430, 129], [423, 129], [418, 136], [413, 136], [406, 139], [394, 137], [391, 134], [391, 132], [394, 130], [409, 129], [414, 121], [414, 116], [418, 112], [423, 112], [426, 114], [439, 114], [447, 111], [451, 113], [455, 119], [458, 118], [461, 120], [465, 126], [475, 129], [480, 134], [483, 143], [491, 152], [489, 157], [490, 169], [497, 183], [494, 186], [492, 186], [489, 183], [486, 173], [482, 167], [476, 162], [473, 154], [471, 153], [468, 155], [470, 164], [476, 169], [475, 176], [483, 182], [477, 192], [471, 194], [460, 188], [451, 175], [443, 169], [440, 169], [437, 173], [438, 176], [443, 181], [446, 181], [451, 187], [451, 189], [459, 197], [469, 201], [475, 207], [476, 215], [478, 216], [477, 223], [480, 235], [483, 232], [484, 220], [486, 217], [493, 217], [498, 212], [503, 213], [499, 225], [496, 227], [497, 236], [487, 251], [486, 257], [489, 261], [493, 261], [495, 259], [498, 261], [498, 266], [495, 275], [497, 282], [500, 282], [504, 278], [518, 276], [520, 278], [521, 285], [525, 288], [521, 294], [517, 293], [516, 296], [512, 295], [508, 299], [501, 300], [495, 307], [491, 305], [491, 309], [494, 312], [492, 321], [497, 323], [499, 321], [507, 321], [510, 323], [510, 325], [506, 330], [502, 340], [486, 359], [482, 375], [479, 380], [479, 385], [474, 389], [474, 393], [480, 399], [480, 403], [475, 408], [470, 409], [466, 420], [462, 425], [461, 429], [456, 434], [455, 438], [450, 440], [447, 432], [448, 424], [442, 420], [436, 424], [427, 434], [419, 439], [419, 442], [422, 445], [419, 452], [415, 448], [412, 448], [409, 452], [410, 464], [408, 469], [404, 471], [404, 473], [394, 482], [389, 494], [383, 498], [378, 506], [370, 513], [374, 511], [377, 514], [374, 521], [375, 523], [373, 524], [374, 526], [371, 527], [360, 542], [350, 548], [344, 550], [342, 549], [334, 553], [323, 553], [314, 543], [301, 543], [298, 545], [299, 548], [307, 554], [317, 555], [326, 558], [329, 561], [329, 563], [326, 566], [328, 567], [338, 567], [345, 564], [353, 556], [363, 553], [366, 550], [366, 548], [371, 545], [379, 547], [380, 550], [386, 554], [388, 553], [390, 548], [391, 537], [395, 532], [397, 526], [402, 522], [406, 507], [424, 489], [429, 488], [424, 482], [424, 480], [426, 478], [425, 474], [430, 467], [432, 451], [442, 443], [450, 443], [451, 448], [454, 451], [465, 451], [475, 439], [475, 434], [482, 427], [485, 417], [492, 408], [498, 409], [498, 416], [500, 417], [499, 419], [497, 419], [496, 424], [491, 432], [491, 442], [494, 446], [500, 449], [500, 452], [494, 455], [501, 454], [502, 451], [505, 448], [508, 448], [513, 442], [541, 442], [543, 440], [543, 436], [547, 432], [547, 428], [538, 421], [538, 411], [541, 401], [535, 387], [534, 378], [539, 371], [529, 378], [529, 382], [526, 388], [527, 392], [524, 395], [522, 394], [520, 397], [517, 396], [517, 399], [514, 398], [505, 409], [501, 410], [498, 407], [499, 396], [504, 386], [504, 382], [508, 378], [512, 378], [519, 374], [522, 366], [524, 351], [538, 335], [544, 324], [559, 312], [577, 289], [583, 288], [588, 285], [588, 283], [580, 275], [571, 272], [567, 272], [564, 274], [559, 273], [555, 269], [556, 266], [554, 256], [555, 253], [558, 252], [558, 246], [563, 241], [569, 240], [574, 235], [575, 231], [589, 220], [581, 219], [579, 221], [573, 221], [570, 218], [570, 211], [577, 205], [567, 212], [562, 212], [561, 209], [558, 209], [554, 212], [550, 212], [546, 207], [543, 198], [540, 198], [536, 195], [535, 182], [539, 175], [538, 171], [540, 168], [540, 157], [536, 154], [532, 158], [532, 165], [529, 169], [530, 178], [528, 179], [528, 186], [530, 187], [528, 194], [530, 198], [529, 201], [533, 205], [535, 204], [539, 209], [538, 218], [540, 219], [540, 225], [535, 228], [531, 233], [530, 232], [527, 235], [526, 234], [525, 237], [523, 235], [521, 236], [517, 231], [518, 222], [514, 210], [512, 195], [510, 193], [512, 189], [511, 185], [509, 184], [508, 179], [505, 177], [503, 168], [505, 164], [503, 160], [507, 157], [507, 153], [505, 150], [500, 152], [498, 146], [501, 144], [510, 144], [512, 142], [511, 140], [513, 139], [513, 137], [485, 113], [482, 107], [479, 92], [474, 91], [465, 97], [457, 97], [452, 92], [451, 82], [448, 74], [428, 66]]]}}, {"type": "Feature", "properties": {"class": "Grassland and crops", "class_index": 2, "area_px": 8086.5}, "geometry": {"type": "Polygon", "coordinates": [[[359, 314], [351, 323], [351, 326], [354, 330], [338, 339], [336, 338], [336, 329], [332, 319], [327, 314], [324, 315], [323, 313], [320, 313], [315, 315], [295, 338], [294, 337], [288, 340], [267, 343], [250, 353], [246, 358], [246, 361], [244, 362], [241, 371], [240, 386], [243, 397], [253, 412], [261, 420], [274, 426], [281, 428], [294, 428], [299, 423], [296, 402], [293, 395], [294, 385], [298, 381], [303, 379], [331, 380], [352, 386], [358, 380], [364, 369], [369, 364], [373, 365], [374, 355], [377, 348], [377, 341], [372, 336], [360, 332], [352, 326], [352, 324], [360, 315], [359, 314]]]}}, {"type": "Feature", "properties": {"class": "Grassland and crops", "class_index": 2, "area_px": 22745.5}, "geometry": {"type": "Polygon", "coordinates": [[[13, 140], [11, 144], [11, 149], [17, 161], [17, 176], [22, 187], [29, 191], [41, 192], [65, 205], [72, 212], [76, 220], [92, 224], [101, 230], [104, 235], [104, 239], [107, 246], [116, 254], [120, 267], [118, 273], [118, 282], [128, 305], [134, 311], [162, 311], [175, 305], [186, 305], [201, 302], [201, 287], [199, 285], [198, 269], [189, 263], [187, 264], [174, 261], [157, 269], [149, 270], [146, 268], [145, 264], [154, 255], [168, 250], [180, 250], [191, 252], [194, 254], [207, 254], [211, 248], [220, 245], [246, 244], [252, 246], [253, 244], [256, 245], [258, 243], [258, 241], [241, 242], [237, 239], [232, 238], [231, 235], [235, 232], [243, 230], [249, 224], [250, 220], [269, 207], [266, 192], [255, 193], [248, 190], [242, 190], [213, 176], [188, 171], [177, 164], [171, 158], [162, 158], [150, 154], [144, 155], [128, 149], [113, 151], [107, 147], [99, 133], [91, 128], [77, 128], [64, 133], [52, 133], [47, 131], [29, 130], [18, 135], [13, 140]]]}}, {"type": "Feature", "properties": {"class": "Grassland and crops", "class_index": 2, "area_px": 822.5}, "geometry": {"type": "Polygon", "coordinates": [[[382, 13], [378, 10], [374, 10], [366, 13], [356, 13], [347, 15], [340, 19], [334, 31], [336, 45], [345, 42], [354, 35], [363, 35], [366, 24], [371, 19], [381, 19], [382, 13]]]}}, {"type": "Feature", "properties": {"class": "Cropland (primarily wheat, sugar beets, corn)", "class_index": 3, "area_px": 17915.5}, "geometry": {"type": "Polygon", "coordinates": [[[382, 19], [371, 20], [367, 24], [363, 36], [354, 36], [345, 43], [335, 46], [330, 61], [330, 67], [333, 67], [342, 80], [354, 92], [365, 98], [365, 100], [354, 97], [341, 89], [325, 73], [322, 76], [310, 82], [275, 89], [262, 96], [256, 104], [256, 111], [258, 113], [272, 115], [278, 111], [300, 103], [315, 101], [321, 103], [325, 107], [329, 116], [328, 120], [324, 124], [315, 125], [311, 127], [309, 132], [310, 137], [315, 146], [314, 170], [317, 177], [323, 185], [324, 191], [319, 201], [313, 204], [296, 206], [290, 214], [291, 231], [293, 235], [300, 240], [309, 240], [322, 234], [342, 230], [346, 233], [346, 237], [352, 242], [367, 243], [373, 239], [372, 238], [375, 237], [382, 228], [383, 219], [381, 215], [375, 210], [368, 210], [368, 213], [361, 214], [360, 211], [357, 211], [356, 205], [366, 197], [385, 196], [398, 174], [405, 168], [412, 165], [422, 153], [423, 144], [419, 142], [408, 143], [404, 141], [387, 142], [379, 144], [370, 150], [365, 156], [361, 156], [356, 153], [356, 150], [360, 145], [377, 135], [383, 127], [396, 122], [403, 116], [404, 110], [410, 104], [417, 100], [420, 94], [421, 86], [424, 84], [425, 77], [422, 73], [422, 70], [428, 65], [426, 61], [412, 49], [408, 39], [405, 36], [391, 33], [386, 28], [382, 19]], [[346, 151], [351, 151], [354, 155], [351, 159], [344, 162], [344, 172], [347, 175], [354, 175], [356, 171], [360, 171], [364, 175], [364, 181], [362, 185], [356, 190], [353, 198], [347, 198], [344, 195], [343, 190], [336, 184], [336, 178], [334, 175], [333, 167], [329, 161], [333, 155], [337, 156], [346, 151]], [[372, 100], [379, 99], [381, 101], [378, 103], [372, 100]]]}}, {"type": "Feature", "properties": {"class": "Other crops (primarily cereals)", "class_index": 4, "area_px": 100.5}, "geometry": {"type": "Polygon", "coordinates": [[[647, 705], [646, 712], [648, 715], [656, 718], [655, 707], [652, 704], [647, 705]]]}}, {"type": "Feature", "properties": {"class": "Other crops (primarily cereals)", "class_index": 4, "area_px": 18.5}, "geometry": {"type": "Polygon", "coordinates": [[[679, 615], [677, 616], [678, 622], [681, 618], [679, 615]]]}}, {"type": "Feature", "properties": {"class": "Other crops (primarily cereals)", "class_index": 4, "area_px": 665.5}, "geometry": {"type": "Polygon", "coordinates": [[[434, 491], [424, 502], [422, 502], [419, 505], [413, 505], [412, 503], [409, 504], [405, 511], [403, 522], [405, 524], [404, 532], [406, 533], [418, 518], [423, 518], [431, 526], [434, 533], [435, 520], [433, 517], [433, 509], [436, 500], [434, 491]]]}}, {"type": "Feature", "properties": {"class": "Other crops (primarily cereals)", "class_index": 4, "area_px": 4939.5}, "geometry": {"type": "Polygon", "coordinates": [[[261, 536], [257, 527], [244, 512], [235, 509], [226, 500], [221, 497], [218, 497], [216, 494], [209, 490], [205, 497], [202, 499], [196, 497], [195, 501], [196, 498], [201, 504], [205, 513], [223, 520], [228, 525], [229, 533], [227, 536], [223, 538], [216, 537], [210, 532], [200, 529], [192, 521], [185, 517], [182, 517], [179, 521], [175, 522], [163, 522], [150, 518], [142, 518], [137, 520], [126, 529], [119, 532], [109, 530], [98, 531], [100, 537], [109, 544], [121, 540], [139, 541], [146, 546], [153, 554], [161, 559], [164, 557], [163, 552], [159, 548], [162, 544], [166, 543], [173, 549], [177, 549], [185, 543], [191, 542], [196, 547], [196, 551], [191, 558], [192, 563], [195, 566], [223, 565], [239, 558], [243, 558], [255, 547], [258, 538], [261, 536]]]}}, {"type": "Feature", "properties": {"class": "Other crops (primarily cereals)", "class_index": 4, "area_px": 6934.0}, "geometry": {"type": "Polygon", "coordinates": [[[263, 457], [262, 464], [265, 469], [265, 473], [261, 479], [244, 484], [236, 484], [234, 487], [231, 483], [228, 486], [228, 489], [233, 493], [236, 489], [244, 490], [250, 493], [254, 492], [258, 494], [263, 500], [269, 500], [272, 503], [272, 506], [267, 509], [267, 513], [270, 518], [270, 521], [273, 523], [289, 523], [294, 520], [305, 520], [307, 522], [297, 527], [294, 526], [289, 528], [289, 531], [291, 533], [291, 542], [295, 543], [293, 550], [295, 557], [299, 561], [301, 571], [309, 567], [317, 566], [321, 568], [328, 563], [328, 561], [317, 556], [307, 555], [306, 553], [303, 553], [297, 546], [299, 543], [314, 542], [320, 548], [321, 551], [334, 552], [342, 548], [344, 549], [354, 545], [360, 541], [370, 527], [373, 526], [372, 524], [374, 523], [373, 521], [376, 514], [374, 512], [370, 514], [366, 513], [363, 508], [364, 506], [354, 514], [337, 520], [325, 521], [323, 523], [311, 523], [308, 521], [324, 513], [335, 510], [341, 511], [343, 508], [347, 506], [353, 498], [358, 496], [359, 494], [364, 494], [366, 489], [360, 492], [348, 491], [330, 480], [321, 477], [315, 477], [310, 479], [308, 478], [306, 480], [303, 479], [294, 482], [276, 481], [269, 476], [273, 473], [278, 474], [279, 472], [297, 474], [299, 473], [299, 470], [321, 466], [322, 469], [324, 466], [327, 466], [329, 468], [333, 467], [336, 464], [335, 458], [323, 460], [320, 458], [308, 460], [305, 458], [304, 459], [299, 452], [292, 452], [287, 454], [276, 453], [267, 457], [263, 457]]]}}, {"type": "Feature", "properties": {"class": "Other crops (primarily cereals)", "class_index": 4, "area_px": 1399.5}, "geometry": {"type": "Polygon", "coordinates": [[[468, 411], [458, 409], [454, 401], [450, 400], [443, 410], [435, 413], [432, 410], [431, 416], [429, 418], [419, 418], [414, 420], [410, 426], [412, 430], [411, 436], [403, 443], [400, 443], [396, 448], [396, 458], [401, 468], [403, 470], [407, 469], [409, 464], [408, 452], [412, 447], [415, 447], [419, 451], [421, 445], [418, 442], [418, 439], [427, 433], [436, 423], [442, 419], [449, 424], [448, 432], [450, 439], [454, 438], [455, 434], [460, 429], [461, 425], [465, 420], [468, 411]]]}}, {"type": "Feature", "properties": {"class": "Other crops (primarily cereals)", "class_index": 4, "area_px": 3890.5}, "geometry": {"type": "Polygon", "coordinates": [[[544, 361], [534, 360], [530, 363], [523, 374], [520, 374], [512, 379], [508, 379], [505, 382], [505, 386], [500, 396], [499, 407], [497, 409], [492, 409], [486, 417], [483, 427], [476, 434], [476, 439], [465, 452], [454, 452], [450, 448], [450, 444], [442, 444], [433, 451], [431, 467], [426, 474], [427, 478], [425, 482], [430, 488], [433, 489], [438, 485], [444, 488], [445, 491], [442, 502], [447, 504], [454, 504], [454, 501], [452, 500], [452, 498], [454, 497], [454, 491], [457, 488], [459, 488], [462, 484], [471, 481], [480, 486], [500, 502], [506, 503], [508, 505], [520, 505], [520, 498], [500, 475], [490, 474], [482, 479], [477, 479], [467, 469], [467, 465], [469, 462], [482, 453], [491, 454], [499, 451], [499, 449], [494, 447], [490, 442], [490, 432], [495, 424], [496, 419], [499, 418], [497, 416], [497, 409], [499, 407], [501, 409], [505, 408], [514, 397], [517, 398], [517, 395], [520, 396], [522, 393], [524, 394], [526, 392], [525, 388], [528, 382], [528, 378], [539, 370], [544, 361]]]}}, {"type": "Feature", "properties": {"class": "Other crops (primarily cereals)", "class_index": 4, "area_px": 875.0}, "geometry": {"type": "Polygon", "coordinates": [[[507, 322], [499, 322], [497, 324], [491, 322], [482, 327], [477, 336], [477, 366], [475, 374], [476, 387], [478, 385], [478, 380], [481, 375], [484, 361], [492, 352], [494, 347], [501, 340], [505, 330], [509, 325], [509, 323], [507, 322]]]}}, {"type": "Feature", "properties": {"class": "Other crops (primarily cereals)", "class_index": 4, "area_px": 19208.0}, "geometry": {"type": "Polygon", "coordinates": [[[136, 312], [138, 312], [153, 326], [158, 348], [166, 350], [178, 364], [180, 370], [186, 374], [186, 376], [182, 379], [176, 378], [174, 375], [170, 373], [169, 369], [166, 369], [166, 371], [159, 376], [161, 382], [168, 387], [175, 386], [180, 388], [181, 390], [185, 389], [187, 386], [193, 387], [198, 390], [206, 390], [211, 395], [211, 401], [216, 406], [224, 407], [227, 410], [228, 416], [224, 420], [230, 429], [234, 432], [236, 436], [236, 444], [243, 444], [243, 442], [247, 439], [251, 439], [256, 435], [266, 432], [273, 436], [276, 445], [279, 445], [280, 443], [284, 445], [292, 444], [292, 441], [295, 440], [294, 438], [299, 432], [300, 433], [307, 426], [309, 428], [313, 424], [317, 423], [327, 414], [330, 415], [330, 411], [339, 397], [344, 397], [346, 394], [353, 394], [360, 401], [359, 403], [362, 415], [360, 422], [362, 428], [362, 443], [365, 448], [373, 448], [375, 444], [374, 428], [379, 421], [378, 411], [383, 406], [385, 408], [388, 407], [388, 400], [390, 399], [389, 397], [392, 395], [394, 385], [398, 379], [400, 380], [404, 370], [406, 369], [406, 367], [404, 366], [405, 363], [403, 362], [404, 360], [401, 357], [402, 355], [398, 351], [399, 350], [395, 345], [395, 341], [392, 339], [393, 337], [391, 335], [388, 335], [388, 373], [385, 379], [379, 379], [375, 374], [376, 366], [369, 365], [365, 369], [359, 380], [352, 387], [331, 381], [300, 381], [295, 385], [294, 395], [297, 402], [300, 423], [294, 429], [281, 429], [261, 421], [252, 412], [244, 401], [239, 386], [239, 375], [245, 358], [250, 352], [267, 342], [288, 339], [294, 336], [295, 337], [303, 329], [308, 321], [315, 314], [320, 312], [323, 312], [324, 314], [327, 313], [335, 322], [334, 323], [338, 335], [337, 338], [353, 330], [350, 326], [351, 321], [359, 313], [361, 315], [367, 307], [365, 298], [360, 293], [360, 278], [355, 278], [341, 290], [337, 290], [329, 286], [328, 280], [309, 280], [307, 278], [307, 274], [296, 263], [282, 270], [275, 271], [274, 274], [276, 275], [272, 279], [249, 279], [247, 280], [250, 282], [250, 285], [255, 293], [257, 293], [267, 282], [271, 282], [275, 288], [275, 303], [273, 305], [273, 308], [268, 312], [264, 312], [260, 308], [255, 307], [253, 308], [252, 316], [249, 319], [242, 322], [237, 322], [231, 317], [228, 312], [227, 300], [228, 297], [236, 291], [245, 292], [243, 287], [238, 283], [237, 280], [228, 281], [222, 279], [206, 267], [204, 264], [202, 264], [199, 268], [200, 285], [202, 287], [201, 303], [186, 306], [175, 306], [162, 312], [136, 312]]]}}, {"type": "Feature", "properties": {"class": "Other crops (primarily cereals)", "class_index": 4, "area_px": 391.5}, "geometry": {"type": "Polygon", "coordinates": [[[569, 264], [567, 271], [580, 274], [589, 284], [593, 283], [598, 277], [599, 267], [586, 267], [582, 265], [578, 260], [574, 260], [569, 264]]]}}, {"type": "Feature", "properties": {"class": "Other crops (primarily cereals)", "class_index": 4, "area_px": 425.5}, "geometry": {"type": "Polygon", "coordinates": [[[407, 253], [406, 258], [409, 265], [409, 269], [405, 275], [405, 285], [412, 290], [417, 287], [417, 284], [419, 284], [417, 283], [419, 277], [416, 274], [416, 270], [421, 266], [427, 264], [415, 254], [407, 253]]]}}, {"type": "Feature", "properties": {"class": "Other crops (primarily cereals)", "class_index": 4, "area_px": 494.0}, "geometry": {"type": "Polygon", "coordinates": [[[394, 247], [392, 248], [390, 256], [383, 263], [375, 267], [376, 268], [373, 271], [372, 284], [373, 290], [375, 292], [380, 285], [383, 284], [382, 281], [384, 278], [399, 266], [399, 262], [397, 261], [398, 260], [395, 256], [397, 253], [396, 249], [394, 247]]]}}, {"type": "Feature", "properties": {"class": "Other crops (primarily cereals)", "class_index": 4, "area_px": 2578.5}, "geometry": {"type": "Polygon", "coordinates": [[[502, 213], [498, 213], [493, 218], [486, 218], [484, 232], [475, 241], [468, 243], [455, 255], [460, 274], [460, 286], [462, 288], [457, 297], [456, 308], [462, 301], [465, 301], [466, 298], [471, 297], [474, 293], [480, 290], [487, 294], [489, 294], [490, 291], [493, 290], [497, 294], [497, 299], [493, 303], [493, 306], [495, 306], [501, 299], [508, 298], [512, 294], [516, 295], [517, 292], [521, 293], [524, 288], [520, 285], [518, 277], [511, 277], [508, 279], [504, 279], [500, 283], [497, 283], [494, 277], [497, 261], [495, 260], [493, 262], [489, 262], [485, 257], [486, 251], [496, 236], [495, 227], [498, 225], [502, 213]]]}}, {"type": "Feature", "properties": {"class": "Other crops (primarily cereals)", "class_index": 4, "area_px": 1630.0}, "geometry": {"type": "Polygon", "coordinates": [[[397, 210], [396, 214], [400, 222], [400, 229], [403, 239], [413, 247], [426, 252], [431, 258], [431, 263], [439, 263], [443, 269], [443, 273], [440, 275], [440, 277], [443, 281], [447, 283], [450, 279], [452, 272], [451, 265], [448, 262], [449, 261], [447, 258], [444, 244], [441, 241], [442, 240], [430, 227], [431, 226], [428, 224], [423, 214], [414, 210], [397, 210]]]}}, {"type": "Feature", "properties": {"class": "Other crops (primarily cereals)", "class_index": 4, "area_px": 4760.5}, "geometry": {"type": "Polygon", "coordinates": [[[604, 172], [599, 169], [586, 168], [573, 164], [568, 161], [560, 151], [551, 143], [525, 135], [513, 136], [514, 139], [512, 140], [513, 142], [510, 145], [499, 146], [500, 151], [505, 149], [508, 153], [508, 157], [504, 160], [506, 164], [504, 168], [506, 177], [509, 179], [513, 189], [511, 193], [513, 195], [515, 210], [518, 216], [518, 231], [521, 235], [523, 234], [524, 236], [526, 233], [527, 234], [528, 232], [531, 232], [535, 227], [539, 225], [539, 219], [537, 218], [538, 209], [535, 205], [533, 206], [528, 201], [529, 198], [527, 194], [529, 187], [527, 186], [527, 179], [529, 178], [528, 169], [531, 165], [531, 158], [534, 154], [537, 153], [541, 157], [541, 168], [539, 171], [540, 175], [536, 182], [536, 193], [538, 196], [544, 198], [545, 203], [550, 211], [554, 211], [558, 208], [561, 208], [562, 211], [567, 211], [578, 204], [588, 188], [604, 172]]]}}, {"type": "Feature", "properties": {"class": "Other crops (primarily cereals)", "class_index": 4, "area_px": 5819.5}, "geometry": {"type": "Polygon", "coordinates": [[[418, 113], [415, 116], [415, 121], [409, 130], [394, 131], [392, 132], [392, 134], [394, 136], [406, 138], [409, 136], [418, 135], [423, 128], [430, 128], [438, 130], [441, 134], [441, 137], [439, 140], [430, 141], [424, 144], [424, 150], [421, 156], [412, 166], [405, 169], [399, 174], [392, 184], [387, 195], [383, 197], [383, 200], [385, 199], [386, 201], [388, 199], [399, 197], [401, 198], [404, 196], [418, 196], [420, 199], [422, 198], [425, 201], [427, 200], [442, 205], [443, 208], [447, 208], [449, 210], [447, 212], [449, 212], [462, 222], [476, 222], [477, 216], [475, 215], [474, 207], [469, 202], [459, 198], [450, 189], [446, 182], [443, 182], [437, 176], [436, 173], [440, 168], [443, 168], [452, 175], [460, 187], [471, 193], [477, 191], [482, 182], [474, 176], [475, 169], [469, 164], [467, 155], [471, 152], [474, 154], [477, 162], [483, 167], [487, 173], [490, 183], [494, 185], [496, 182], [489, 169], [488, 157], [490, 152], [482, 143], [479, 134], [475, 130], [465, 127], [461, 121], [458, 119], [455, 120], [451, 114], [447, 112], [439, 115], [426, 115], [423, 113], [418, 113]]]}}, {"type": "Feature", "properties": {"class": "Other crops (primarily cereals)", "class_index": 4, "area_px": 844.0}, "geometry": {"type": "Polygon", "coordinates": [[[210, 112], [214, 142], [216, 145], [228, 146], [231, 151], [231, 156], [240, 160], [241, 157], [237, 151], [237, 146], [239, 142], [239, 127], [237, 126], [237, 122], [228, 116], [210, 112]]]}}, {"type": "Feature", "properties": {"class": "Other crops (primarily cereals)", "class_index": 4, "area_px": 7524.5}, "geometry": {"type": "Polygon", "coordinates": [[[321, 104], [315, 102], [304, 103], [278, 112], [272, 116], [269, 116], [274, 120], [274, 123], [276, 125], [275, 142], [278, 151], [281, 155], [281, 157], [278, 160], [277, 174], [271, 185], [266, 189], [270, 207], [250, 221], [250, 224], [243, 231], [232, 235], [232, 237], [237, 238], [241, 241], [258, 240], [259, 243], [256, 246], [253, 245], [252, 247], [246, 245], [225, 245], [211, 249], [208, 254], [209, 256], [217, 259], [226, 266], [233, 269], [247, 268], [254, 265], [261, 265], [263, 263], [282, 263], [302, 250], [304, 250], [314, 241], [319, 240], [322, 237], [332, 233], [322, 235], [312, 240], [303, 242], [296, 239], [292, 235], [289, 227], [289, 214], [296, 205], [316, 202], [320, 199], [322, 195], [322, 185], [316, 177], [313, 170], [314, 146], [308, 133], [311, 126], [315, 124], [324, 123], [328, 118], [327, 113], [321, 104]]]}}, {"type": "Feature", "properties": {"class": "Olives (often with vines and wheat)", "class_index": 5, "area_px": 103.0}, "geometry": {"type": "Polygon", "coordinates": [[[418, 556], [414, 553], [407, 554], [403, 559], [407, 562], [415, 562], [418, 556]]]}}, {"type": "Feature", "properties": {"class": "Olives (often with vines and wheat)", "class_index": 5, "area_px": 9.5}, "geometry": {"type": "Polygon", "coordinates": [[[200, 427], [199, 429], [202, 433], [200, 427]]]}}, {"type": "Feature", "properties": {"class": "Olives (often with vines and wheat)", "class_index": 5, "area_px": 358.0}, "geometry": {"type": "Polygon", "coordinates": [[[475, 301], [467, 314], [469, 317], [473, 315], [478, 316], [482, 323], [485, 325], [491, 321], [493, 312], [490, 309], [490, 306], [486, 306], [483, 302], [475, 301]]]}}, {"type": "Feature", "properties": {"class": "Olives (often with vines and wheat)", "class_index": 5, "area_px": 14.0}, "geometry": {"type": "Polygon", "coordinates": [[[602, 239], [602, 243], [605, 244], [606, 241], [602, 239]]]}}, {"type": "Feature", "properties": {"class": "Olives (often with vines and wheat)", "class_index": 5, "area_px": 344.0}, "geometry": {"type": "Polygon", "coordinates": [[[602, 195], [596, 200], [596, 203], [601, 211], [601, 220], [604, 223], [612, 226], [616, 216], [615, 212], [612, 209], [611, 204], [606, 200], [606, 195], [602, 195]]]}}, {"type": "Feature", "properties": {"class": "Market gardening (fruits, vegetables, flowers)", "class_index": 6, "area_px": 242.5}, "geometry": {"type": "Polygon", "coordinates": [[[657, 632], [640, 639], [635, 649], [640, 652], [653, 646], [658, 639], [657, 632]]]}}, {"type": "Feature", "properties": {"class": "Market gardening (fruits, vegetables, flowers)", "class_index": 6, "area_px": 721.0}, "geometry": {"type": "Polygon", "coordinates": [[[305, 611], [306, 618], [308, 621], [318, 629], [334, 629], [339, 631], [343, 627], [338, 614], [341, 605], [340, 602], [329, 602], [321, 610], [305, 611]]]}}, {"type": "Feature", "properties": {"class": "Market gardening (fruits, vegetables, flowers)", "class_index": 6, "area_px": 1230.0}, "geometry": {"type": "Polygon", "coordinates": [[[273, 542], [264, 549], [265, 555], [270, 565], [271, 581], [269, 584], [271, 587], [284, 592], [294, 581], [295, 582], [300, 572], [299, 564], [294, 557], [292, 550], [294, 543], [273, 542]]]}}, {"type": "Feature", "properties": {"class": "Market gardening (fruits, vegetables, flowers)", "class_index": 6, "area_px": 3486.0}, "geometry": {"type": "Polygon", "coordinates": [[[426, 489], [417, 498], [413, 500], [413, 504], [419, 504], [422, 501], [424, 501], [434, 490], [437, 500], [434, 509], [434, 517], [436, 520], [436, 529], [434, 535], [439, 541], [439, 544], [436, 547], [436, 551], [440, 559], [448, 564], [451, 574], [454, 576], [462, 577], [466, 581], [466, 584], [469, 584], [475, 578], [479, 571], [488, 571], [490, 569], [492, 561], [500, 554], [500, 552], [504, 548], [506, 538], [509, 535], [509, 523], [506, 515], [507, 505], [500, 503], [498, 508], [498, 511], [500, 513], [499, 515], [504, 524], [504, 530], [495, 538], [485, 537], [481, 539], [469, 539], [466, 538], [461, 532], [461, 528], [465, 525], [465, 516], [454, 505], [447, 505], [441, 502], [444, 491], [443, 488], [438, 486], [434, 490], [426, 489]]]}}, {"type": "Feature", "properties": {"class": "Market gardening (fruits, vegetables, flowers)", "class_index": 6, "area_px": 448.0}, "geometry": {"type": "Polygon", "coordinates": [[[199, 391], [196, 401], [197, 407], [201, 411], [205, 412], [213, 418], [223, 420], [227, 416], [226, 410], [224, 408], [216, 407], [210, 401], [210, 395], [206, 391], [199, 391]]]}}, {"type": "Feature", "properties": {"class": "Market gardening (fruits, vegetables, flowers)", "class_index": 6, "area_px": 2172.5}, "geometry": {"type": "Polygon", "coordinates": [[[493, 291], [491, 291], [489, 295], [480, 291], [477, 292], [471, 298], [468, 298], [465, 302], [462, 302], [456, 309], [456, 313], [460, 315], [456, 320], [456, 324], [451, 331], [449, 330], [444, 334], [445, 338], [447, 339], [452, 338], [456, 334], [459, 335], [462, 339], [461, 346], [459, 347], [461, 351], [459, 368], [456, 372], [454, 382], [460, 391], [459, 396], [455, 401], [456, 405], [460, 409], [469, 410], [470, 408], [475, 407], [479, 403], [479, 399], [473, 393], [473, 389], [475, 388], [474, 374], [476, 366], [475, 344], [476, 336], [483, 325], [478, 317], [473, 316], [469, 318], [466, 313], [475, 300], [483, 301], [486, 305], [492, 304], [496, 299], [496, 294], [493, 291]]]}}, {"type": "Feature", "properties": {"class": "Market gardening (fruits, vegetables, flowers)", "class_index": 6, "area_px": 678.5}, "geometry": {"type": "Polygon", "coordinates": [[[333, 156], [330, 161], [334, 167], [335, 175], [337, 178], [337, 184], [344, 190], [344, 193], [347, 197], [353, 197], [355, 190], [361, 185], [363, 181], [363, 175], [360, 172], [356, 172], [354, 176], [347, 176], [343, 172], [343, 162], [351, 158], [353, 154], [351, 152], [346, 152], [337, 157], [333, 156]]]}}, {"type": "Feature", "properties": {"class": "Vineyards", "class_index": 7, "area_px": 1189.5}, "geometry": {"type": "Polygon", "coordinates": [[[566, 558], [560, 554], [551, 554], [546, 557], [543, 564], [536, 569], [526, 569], [517, 566], [512, 567], [503, 578], [503, 587], [500, 592], [500, 595], [503, 597], [510, 597], [513, 595], [519, 595], [525, 592], [530, 592], [534, 588], [536, 581], [542, 575], [557, 568], [566, 558]]]}}, {"type": "Feature", "properties": {"class": "Vineyards", "class_index": 7, "area_px": 2010.5}, "geometry": {"type": "Polygon", "coordinates": [[[427, 547], [425, 543], [417, 537], [413, 529], [411, 529], [406, 534], [404, 533], [404, 524], [401, 523], [392, 537], [391, 548], [388, 554], [386, 555], [379, 550], [379, 548], [371, 546], [367, 548], [367, 550], [363, 554], [353, 557], [345, 565], [341, 567], [324, 567], [321, 569], [317, 567], [305, 569], [299, 574], [296, 582], [305, 585], [309, 584], [313, 580], [320, 578], [342, 582], [350, 577], [352, 574], [363, 571], [372, 565], [378, 563], [386, 556], [395, 555], [403, 557], [407, 553], [414, 552], [419, 556], [422, 556], [425, 554], [427, 547]]]}}, {"type": "Feature", "properties": {"class": "Vineyards", "class_index": 7, "area_px": 1145.5}, "geometry": {"type": "Polygon", "coordinates": [[[164, 477], [164, 482], [167, 485], [166, 489], [172, 493], [180, 494], [183, 498], [183, 503], [178, 510], [178, 513], [181, 517], [185, 516], [192, 520], [200, 528], [208, 530], [216, 536], [223, 537], [227, 535], [228, 527], [223, 521], [205, 514], [194, 495], [176, 482], [167, 477], [164, 477]]]}}, {"type": "Feature", "properties": {"class": "Vineyards", "class_index": 7, "area_px": 5483.0}, "geometry": {"type": "Polygon", "coordinates": [[[159, 391], [155, 396], [155, 402], [158, 410], [158, 416], [162, 424], [163, 440], [165, 445], [177, 455], [179, 462], [185, 469], [192, 472], [195, 471], [201, 474], [208, 483], [208, 489], [216, 493], [218, 496], [221, 496], [226, 499], [235, 508], [244, 511], [258, 527], [261, 535], [269, 537], [270, 534], [268, 530], [255, 519], [251, 511], [252, 506], [262, 499], [254, 493], [250, 494], [244, 491], [236, 490], [233, 494], [227, 489], [227, 486], [231, 482], [234, 486], [236, 483], [244, 483], [255, 479], [259, 479], [263, 475], [252, 474], [247, 469], [245, 464], [245, 456], [241, 454], [234, 445], [228, 446], [221, 443], [211, 442], [207, 440], [199, 432], [200, 430], [198, 428], [200, 426], [200, 410], [196, 407], [195, 402], [198, 393], [197, 390], [187, 387], [185, 390], [181, 391], [180, 389], [171, 387], [166, 390], [159, 391]]]}}, {"type": "Feature", "properties": {"class": "Vineyards", "class_index": 7, "area_px": 622.5}, "geometry": {"type": "Polygon", "coordinates": [[[459, 348], [453, 353], [449, 361], [445, 376], [445, 383], [440, 393], [440, 400], [437, 411], [443, 409], [450, 399], [455, 400], [458, 396], [459, 391], [453, 382], [455, 372], [458, 368], [458, 360], [460, 357], [459, 348]]]}}, {"type": "Feature", "properties": {"class": "Vineyards", "class_index": 7, "area_px": 1708.5}, "geometry": {"type": "Polygon", "coordinates": [[[317, 241], [311, 244], [304, 251], [302, 251], [282, 264], [263, 264], [261, 266], [254, 266], [241, 270], [230, 269], [207, 255], [194, 255], [191, 253], [180, 251], [168, 251], [158, 254], [151, 258], [147, 262], [146, 266], [149, 269], [154, 269], [174, 260], [187, 263], [189, 262], [198, 268], [202, 263], [204, 263], [217, 275], [228, 280], [246, 280], [249, 278], [272, 278], [275, 275], [273, 274], [275, 270], [279, 270], [292, 265], [313, 251], [317, 245], [317, 241]]]}}, {"type": "Feature", "properties": {"class": "Vineyards", "class_index": 7, "area_px": 1007.0}, "geometry": {"type": "Polygon", "coordinates": [[[597, 206], [592, 211], [591, 218], [589, 221], [591, 226], [590, 233], [578, 258], [580, 262], [586, 266], [600, 266], [605, 256], [606, 245], [601, 243], [601, 239], [603, 238], [606, 240], [610, 231], [610, 226], [604, 224], [600, 220], [600, 211], [597, 206]]]}}]}