{"type": "FeatureCollection", "coordinate_space": "map_area.png pixels, y down", "mm_per_px": 0.259, "features": [{"type": "Feature", "properties": {"class": "Forest", "class_index": 0, "area_px": 206.0}, "geometry": {"type": "Polygon", "coordinates": [[[661, 671], [658, 674], [657, 681], [662, 687], [655, 693], [659, 698], [661, 707], [665, 709], [667, 707], [667, 701], [665, 700], [666, 690], [662, 687], [663, 672], [661, 671]]]}}, {"type": "Feature", "properties": {"class": "Forest", "class_index": 0, "area_px": 3235.0}, "geometry": {"type": "Polygon", "coordinates": [[[139, 568], [146, 577], [164, 581], [178, 591], [214, 594], [215, 588], [219, 587], [246, 600], [252, 607], [259, 606], [266, 611], [267, 618], [273, 621], [281, 628], [289, 625], [309, 634], [313, 634], [321, 629], [331, 629], [328, 625], [327, 626], [321, 622], [321, 610], [304, 610], [306, 619], [303, 622], [299, 617], [300, 610], [284, 610], [276, 597], [268, 594], [265, 598], [263, 598], [257, 590], [254, 590], [247, 586], [236, 584], [232, 581], [230, 582], [223, 579], [220, 580], [215, 577], [212, 579], [204, 579], [200, 570], [188, 562], [179, 561], [175, 566], [171, 563], [167, 563], [160, 567], [141, 566], [139, 568]]]}}, {"type": "Feature", "properties": {"class": "Forest", "class_index": 0, "area_px": 263.0}, "geometry": {"type": "Polygon", "coordinates": [[[246, 456], [246, 464], [248, 471], [251, 473], [265, 473], [265, 470], [259, 462], [258, 455], [250, 454], [246, 456]]]}}, {"type": "Feature", "properties": {"class": "Forest", "class_index": 0, "area_px": 317.0}, "geometry": {"type": "Polygon", "coordinates": [[[485, 453], [481, 454], [464, 467], [465, 469], [471, 471], [478, 479], [482, 479], [485, 474], [484, 463], [487, 455], [485, 453]]]}}, {"type": "Feature", "properties": {"class": "Forest", "class_index": 0, "area_px": 331.5}, "geometry": {"type": "Polygon", "coordinates": [[[274, 439], [268, 433], [254, 437], [245, 444], [252, 448], [259, 449], [265, 453], [269, 448], [273, 446], [274, 439]]]}}, {"type": "Feature", "properties": {"class": "Forest", "class_index": 0, "area_px": 2025.5}, "geometry": {"type": "Polygon", "coordinates": [[[409, 427], [402, 424], [391, 426], [384, 421], [379, 422], [376, 425], [375, 434], [378, 446], [377, 453], [374, 458], [369, 475], [367, 500], [364, 505], [365, 515], [367, 515], [377, 506], [379, 501], [388, 494], [393, 482], [403, 473], [403, 471], [396, 464], [393, 445], [398, 441], [403, 442], [411, 436], [411, 430], [409, 427]]]}}, {"type": "Feature", "properties": {"class": "Forest", "class_index": 0, "area_px": 682.5}, "geometry": {"type": "Polygon", "coordinates": [[[201, 410], [199, 414], [199, 419], [204, 429], [204, 437], [211, 441], [233, 445], [235, 435], [229, 428], [226, 427], [224, 422], [222, 420], [213, 419], [201, 410]]]}}, {"type": "Feature", "properties": {"class": "Forest", "class_index": 0, "area_px": 322.5}, "geometry": {"type": "Polygon", "coordinates": [[[403, 383], [399, 383], [396, 386], [396, 391], [394, 395], [397, 399], [396, 413], [400, 416], [404, 414], [405, 404], [410, 396], [403, 383]]]}}, {"type": "Feature", "properties": {"class": "Forest", "class_index": 0, "area_px": 5328.0}, "geometry": {"type": "Polygon", "coordinates": [[[154, 376], [150, 377], [146, 384], [144, 398], [138, 416], [137, 424], [131, 436], [131, 438], [135, 442], [130, 448], [128, 463], [120, 484], [120, 491], [116, 496], [116, 501], [110, 510], [110, 512], [115, 516], [119, 515], [120, 513], [164, 513], [177, 511], [177, 509], [185, 499], [181, 495], [169, 493], [166, 495], [164, 493], [166, 486], [165, 476], [167, 472], [168, 476], [195, 493], [199, 498], [205, 496], [208, 490], [206, 488], [207, 483], [204, 477], [201, 474], [197, 474], [195, 472], [190, 473], [183, 470], [178, 463], [177, 455], [174, 452], [168, 452], [162, 443], [161, 424], [157, 418], [157, 410], [152, 398], [152, 394], [155, 391], [160, 390], [161, 386], [154, 376]]]}}, {"type": "Feature", "properties": {"class": "Forest", "class_index": 0, "area_px": 5546.0}, "geometry": {"type": "Polygon", "coordinates": [[[545, 358], [544, 364], [540, 366], [529, 378], [526, 391], [528, 389], [530, 379], [534, 377], [536, 379], [536, 387], [542, 401], [539, 411], [539, 421], [544, 424], [549, 429], [549, 431], [544, 436], [543, 443], [513, 443], [508, 449], [505, 449], [502, 453], [506, 456], [507, 459], [505, 461], [500, 460], [499, 465], [510, 485], [518, 494], [527, 499], [525, 500], [525, 503], [522, 506], [522, 510], [531, 519], [534, 526], [543, 530], [557, 528], [566, 534], [576, 532], [582, 536], [587, 537], [591, 530], [588, 524], [582, 527], [575, 527], [561, 520], [556, 515], [552, 504], [552, 498], [560, 486], [559, 476], [550, 469], [549, 463], [546, 458], [559, 450], [565, 449], [569, 435], [563, 425], [562, 418], [556, 412], [557, 406], [563, 400], [563, 389], [557, 380], [557, 363], [552, 358], [545, 358]]]}}, {"type": "Feature", "properties": {"class": "Forest", "class_index": 0, "area_px": 856.0}, "geometry": {"type": "Polygon", "coordinates": [[[431, 289], [425, 290], [421, 295], [419, 295], [415, 290], [412, 291], [413, 292], [411, 299], [416, 306], [412, 310], [408, 310], [405, 312], [398, 322], [399, 328], [406, 326], [413, 319], [418, 319], [426, 324], [431, 324], [433, 321], [432, 318], [434, 316], [443, 314], [444, 309], [440, 306], [435, 306], [433, 304], [431, 289]]]}}, {"type": "Feature", "properties": {"class": "Forest", "class_index": 0, "area_px": 705.5}, "geometry": {"type": "Polygon", "coordinates": [[[589, 222], [578, 229], [575, 235], [569, 241], [563, 242], [559, 245], [559, 252], [556, 253], [555, 256], [557, 266], [556, 271], [558, 273], [566, 272], [566, 261], [568, 259], [577, 258], [585, 243], [582, 235], [585, 231], [590, 230], [589, 222]]]}}, {"type": "Feature", "properties": {"class": "Forest", "class_index": 0, "area_px": 776.5}, "geometry": {"type": "Polygon", "coordinates": [[[618, 175], [608, 172], [603, 177], [603, 183], [599, 187], [591, 189], [589, 191], [587, 189], [583, 194], [582, 201], [567, 212], [564, 212], [571, 217], [572, 221], [579, 220], [584, 217], [589, 219], [591, 207], [595, 203], [596, 198], [602, 194], [610, 193], [610, 190], [614, 185], [615, 181], [617, 180], [618, 175]]]}}, {"type": "Feature", "properties": {"class": "Grassland", "class_index": 1, "area_px": 3661.5}, "geometry": {"type": "Polygon", "coordinates": [[[680, 609], [676, 610], [673, 615], [672, 628], [670, 630], [663, 628], [658, 631], [659, 639], [653, 647], [640, 653], [634, 650], [631, 654], [634, 659], [631, 668], [637, 677], [635, 683], [636, 688], [640, 691], [640, 699], [647, 704], [647, 706], [643, 709], [643, 713], [649, 718], [654, 720], [656, 719], [662, 725], [664, 725], [667, 722], [670, 715], [670, 711], [676, 704], [676, 692], [686, 673], [686, 664], [684, 656], [686, 642], [681, 635], [680, 627], [684, 623], [684, 614], [680, 609]], [[661, 670], [664, 672], [663, 687], [667, 690], [666, 700], [668, 701], [668, 707], [665, 710], [663, 710], [660, 707], [658, 698], [654, 693], [661, 687], [656, 681], [657, 674], [661, 670]]]}}, {"type": "Feature", "properties": {"class": "Grassland", "class_index": 1, "area_px": 1474.0}, "geometry": {"type": "Polygon", "coordinates": [[[103, 552], [105, 556], [114, 554], [121, 560], [138, 568], [141, 565], [160, 566], [167, 562], [171, 562], [175, 565], [179, 560], [188, 561], [194, 566], [191, 563], [190, 558], [195, 551], [197, 551], [191, 541], [177, 550], [173, 550], [166, 544], [158, 543], [158, 546], [165, 554], [165, 557], [161, 560], [153, 555], [146, 547], [139, 542], [118, 541], [111, 538], [108, 546], [103, 552]]]}}, {"type": "Feature", "properties": {"class": "Grassland", "class_index": 1, "area_px": 3184.0}, "geometry": {"type": "Polygon", "coordinates": [[[196, 567], [201, 570], [204, 578], [212, 578], [215, 576], [220, 579], [223, 578], [230, 581], [232, 580], [236, 583], [247, 585], [254, 589], [257, 589], [263, 597], [265, 597], [268, 593], [276, 596], [280, 600], [284, 609], [300, 609], [300, 617], [303, 621], [305, 619], [303, 611], [304, 609], [321, 609], [329, 601], [340, 601], [338, 598], [339, 583], [328, 580], [314, 580], [305, 588], [300, 587], [298, 584], [294, 582], [284, 593], [271, 588], [268, 584], [270, 581], [269, 565], [263, 552], [263, 549], [271, 542], [265, 537], [260, 537], [256, 547], [243, 559], [239, 559], [223, 566], [196, 567]]]}}, {"type": "Feature", "properties": {"class": "Grassland", "class_index": 1, "area_px": 734.5}, "geometry": {"type": "Polygon", "coordinates": [[[419, 518], [413, 524], [412, 528], [416, 530], [420, 541], [426, 541], [429, 543], [429, 551], [425, 556], [424, 566], [430, 570], [435, 570], [438, 572], [443, 569], [449, 570], [450, 567], [439, 559], [435, 551], [435, 547], [437, 546], [438, 541], [433, 535], [434, 534], [430, 526], [425, 520], [419, 518]]]}}, {"type": "Feature", "properties": {"class": "Grassland", "class_index": 1, "area_px": 742.5}, "geometry": {"type": "Polygon", "coordinates": [[[180, 517], [177, 512], [164, 514], [120, 514], [119, 516], [115, 517], [109, 513], [105, 518], [93, 526], [93, 531], [94, 532], [99, 529], [119, 531], [126, 528], [137, 519], [142, 517], [150, 517], [163, 521], [175, 521], [179, 520], [180, 517]]]}}, {"type": "Feature", "properties": {"class": "Grassland", "class_index": 1, "area_px": 3490.5}, "geometry": {"type": "Polygon", "coordinates": [[[585, 538], [576, 533], [566, 535], [557, 529], [545, 531], [540, 530], [532, 525], [530, 519], [521, 510], [521, 506], [508, 506], [507, 515], [510, 523], [510, 535], [507, 538], [505, 548], [501, 552], [501, 554], [493, 561], [490, 571], [479, 572], [476, 578], [469, 585], [488, 593], [491, 597], [494, 598], [499, 595], [499, 592], [502, 588], [502, 572], [511, 571], [511, 561], [513, 559], [517, 561], [518, 567], [536, 569], [543, 565], [543, 558], [547, 553], [561, 552], [570, 558], [579, 556], [582, 553], [582, 544], [585, 538]]]}}, {"type": "Feature", "properties": {"class": "Grassland", "class_index": 1, "area_px": 1867.5}, "geometry": {"type": "Polygon", "coordinates": [[[462, 485], [459, 489], [455, 491], [455, 497], [453, 498], [453, 500], [455, 501], [455, 505], [466, 516], [466, 525], [462, 528], [462, 533], [464, 536], [469, 538], [481, 538], [485, 536], [495, 537], [503, 530], [503, 524], [497, 511], [499, 502], [480, 487], [471, 482], [462, 485]]]}}, {"type": "Feature", "properties": {"class": "Grassland", "class_index": 1, "area_px": 6027.0}, "geometry": {"type": "Polygon", "coordinates": [[[353, 395], [346, 395], [344, 398], [339, 398], [331, 411], [331, 415], [327, 415], [325, 418], [317, 424], [313, 425], [309, 429], [307, 427], [304, 431], [303, 430], [300, 434], [299, 433], [295, 438], [296, 440], [293, 441], [294, 443], [292, 445], [284, 446], [280, 444], [279, 446], [276, 446], [274, 444], [274, 446], [269, 449], [265, 454], [259, 450], [252, 449], [244, 444], [252, 437], [251, 439], [250, 438], [244, 442], [243, 445], [240, 445], [237, 448], [234, 447], [240, 453], [245, 455], [254, 453], [260, 456], [267, 456], [276, 452], [287, 453], [292, 451], [299, 451], [304, 458], [305, 457], [308, 459], [317, 457], [327, 459], [335, 457], [337, 459], [337, 464], [333, 468], [329, 469], [327, 467], [324, 467], [323, 470], [321, 469], [321, 467], [299, 471], [300, 473], [297, 475], [288, 473], [279, 473], [278, 475], [275, 475], [275, 472], [272, 475], [271, 473], [267, 475], [272, 480], [275, 479], [285, 481], [294, 481], [303, 478], [306, 479], [308, 477], [310, 478], [315, 476], [321, 476], [330, 479], [348, 490], [360, 491], [366, 488], [367, 489], [364, 495], [359, 495], [358, 497], [353, 499], [348, 506], [338, 514], [320, 519], [296, 519], [289, 524], [273, 524], [269, 521], [266, 509], [269, 506], [277, 505], [264, 501], [261, 503], [251, 504], [249, 506], [256, 516], [257, 520], [274, 533], [276, 542], [290, 542], [290, 533], [288, 531], [288, 528], [291, 526], [298, 526], [301, 524], [310, 524], [312, 522], [317, 523], [321, 521], [323, 522], [325, 520], [337, 519], [354, 513], [365, 503], [368, 475], [373, 458], [376, 453], [376, 448], [368, 450], [365, 449], [361, 443], [361, 428], [359, 425], [361, 415], [358, 403], [359, 401], [353, 395]]]}}, {"type": "Feature", "properties": {"class": "Grassland", "class_index": 1, "area_px": 248.0}, "geometry": {"type": "Polygon", "coordinates": [[[153, 356], [146, 362], [146, 367], [156, 375], [162, 374], [167, 367], [160, 360], [153, 356]]]}}, {"type": "Feature", "properties": {"class": "Grassland", "class_index": 1, "area_px": 765.5}, "geometry": {"type": "Polygon", "coordinates": [[[249, 216], [246, 213], [246, 219], [244, 222], [234, 222], [228, 225], [216, 226], [212, 229], [205, 238], [206, 254], [207, 255], [211, 248], [225, 244], [246, 244], [251, 246], [253, 244], [256, 245], [258, 241], [241, 242], [231, 237], [233, 233], [243, 230], [249, 224], [249, 216]]]}}, {"type": "Feature", "properties": {"class": "Grassland", "class_index": 1, "area_px": 18507.0}, "geometry": {"type": "Polygon", "coordinates": [[[366, 198], [355, 207], [355, 209], [357, 211], [360, 210], [362, 215], [368, 212], [367, 210], [369, 208], [377, 208], [385, 219], [385, 224], [381, 232], [375, 238], [373, 238], [375, 240], [371, 244], [353, 244], [345, 240], [344, 231], [335, 232], [327, 237], [322, 238], [312, 245], [312, 253], [305, 258], [299, 260], [298, 264], [308, 274], [308, 280], [328, 279], [330, 282], [330, 286], [335, 287], [339, 291], [355, 277], [360, 277], [362, 279], [361, 293], [366, 298], [368, 307], [353, 324], [353, 326], [358, 331], [375, 335], [380, 342], [379, 349], [382, 353], [381, 366], [377, 368], [376, 374], [378, 379], [382, 381], [385, 379], [387, 373], [386, 336], [388, 334], [391, 334], [394, 337], [393, 339], [396, 341], [396, 345], [398, 346], [397, 347], [399, 348], [399, 351], [402, 353], [402, 357], [404, 358], [404, 362], [406, 363], [405, 366], [407, 367], [407, 372], [403, 382], [411, 395], [409, 401], [406, 404], [406, 412], [403, 416], [400, 417], [395, 413], [396, 399], [393, 396], [389, 400], [389, 407], [386, 409], [383, 407], [379, 410], [380, 421], [384, 420], [391, 425], [402, 423], [409, 426], [412, 421], [416, 418], [429, 417], [432, 409], [435, 412], [439, 400], [439, 391], [444, 383], [444, 376], [448, 361], [453, 349], [455, 347], [460, 346], [462, 340], [460, 334], [458, 334], [452, 339], [443, 341], [441, 339], [441, 333], [449, 329], [451, 330], [455, 324], [455, 320], [458, 317], [459, 318], [459, 315], [455, 313], [455, 302], [457, 294], [461, 288], [459, 286], [459, 274], [454, 255], [467, 243], [465, 231], [462, 227], [464, 223], [462, 223], [452, 215], [446, 212], [448, 210], [443, 209], [442, 206], [427, 201], [425, 202], [422, 199], [408, 203], [391, 203], [388, 205], [382, 200], [382, 198], [366, 198]], [[394, 246], [397, 249], [398, 253], [396, 256], [399, 260], [398, 261], [400, 262], [400, 266], [385, 278], [383, 281], [384, 284], [381, 285], [375, 293], [372, 290], [371, 284], [372, 271], [375, 268], [375, 266], [383, 262], [389, 256], [391, 248], [394, 246]], [[397, 209], [414, 209], [425, 215], [429, 224], [432, 226], [431, 227], [443, 240], [442, 241], [445, 244], [448, 258], [450, 261], [449, 262], [452, 265], [453, 273], [450, 281], [447, 284], [443, 282], [438, 275], [426, 275], [422, 277], [420, 284], [417, 285], [418, 287], [416, 290], [419, 294], [421, 294], [425, 289], [431, 288], [433, 290], [434, 304], [440, 305], [445, 309], [443, 315], [436, 316], [433, 318], [434, 321], [431, 325], [426, 325], [418, 320], [413, 320], [406, 327], [402, 329], [398, 328], [397, 322], [404, 312], [408, 309], [412, 309], [415, 306], [410, 299], [412, 292], [411, 290], [404, 285], [404, 275], [408, 269], [405, 254], [407, 252], [413, 252], [427, 262], [430, 258], [425, 252], [413, 248], [402, 239], [399, 229], [399, 222], [395, 214], [395, 211], [397, 209]]]}}, {"type": "Feature", "properties": {"class": "Grassland", "class_index": 1, "area_px": 198.5}, "geometry": {"type": "Polygon", "coordinates": [[[346, 88], [347, 92], [358, 100], [361, 100], [363, 102], [378, 102], [381, 103], [385, 108], [388, 108], [386, 101], [383, 98], [365, 98], [356, 94], [353, 90], [351, 90], [348, 87], [346, 88]]]}}, {"type": "Feature", "properties": {"class": "Grassland", "class_index": 1, "area_px": 6666.0}, "geometry": {"type": "Polygon", "coordinates": [[[164, 80], [163, 82], [166, 105], [173, 118], [173, 121], [169, 128], [171, 135], [167, 141], [167, 149], [174, 156], [176, 163], [189, 171], [199, 171], [205, 173], [207, 172], [209, 174], [212, 174], [225, 182], [230, 182], [242, 191], [248, 186], [250, 186], [254, 194], [261, 193], [270, 185], [276, 174], [277, 160], [280, 157], [274, 142], [275, 125], [272, 119], [270, 119], [267, 115], [254, 115], [245, 121], [238, 122], [238, 126], [240, 127], [240, 142], [238, 146], [238, 151], [242, 157], [240, 161], [236, 161], [230, 156], [230, 151], [228, 147], [216, 146], [213, 142], [209, 118], [210, 110], [203, 107], [196, 108], [194, 106], [190, 96], [190, 93], [193, 88], [192, 84], [188, 81], [179, 84], [167, 79], [164, 80]]]}}, {"type": "Feature", "properties": {"class": "Grassland", "class_index": 1, "area_px": 59.5}, "geometry": {"type": "Polygon", "coordinates": [[[327, 69], [326, 72], [336, 83], [338, 81], [329, 68], [327, 69]]]}}, {"type": "Feature", "properties": {"class": "Grassland", "class_index": 1, "area_px": 23302.5}, "geometry": {"type": "Polygon", "coordinates": [[[429, 65], [423, 70], [423, 73], [428, 79], [428, 81], [422, 86], [421, 97], [405, 110], [404, 116], [399, 121], [388, 127], [383, 128], [377, 136], [360, 146], [358, 154], [363, 155], [365, 157], [366, 153], [370, 149], [379, 143], [387, 141], [404, 140], [408, 142], [419, 141], [424, 143], [434, 139], [443, 139], [444, 136], [441, 133], [430, 129], [423, 129], [418, 136], [413, 136], [406, 139], [394, 137], [391, 134], [391, 132], [394, 130], [409, 129], [412, 120], [411, 118], [417, 110], [421, 109], [422, 121], [433, 124], [441, 123], [446, 120], [456, 122], [455, 120], [458, 118], [464, 123], [463, 124], [465, 126], [475, 129], [480, 134], [483, 143], [491, 152], [489, 157], [490, 167], [493, 172], [493, 176], [497, 182], [496, 186], [491, 186], [488, 181], [486, 173], [482, 167], [476, 162], [471, 149], [468, 147], [466, 150], [466, 154], [470, 160], [469, 163], [476, 169], [475, 176], [483, 182], [477, 192], [471, 194], [465, 191], [457, 185], [450, 174], [442, 168], [439, 168], [439, 171], [446, 179], [453, 184], [457, 193], [469, 201], [475, 207], [476, 215], [478, 216], [477, 223], [480, 236], [487, 233], [496, 226], [499, 227], [499, 238], [496, 245], [489, 254], [490, 261], [493, 261], [495, 259], [498, 261], [498, 266], [495, 275], [496, 280], [493, 281], [493, 284], [495, 285], [499, 283], [504, 278], [518, 276], [520, 278], [521, 285], [525, 288], [521, 294], [517, 293], [516, 296], [512, 295], [508, 299], [506, 299], [495, 311], [499, 314], [499, 317], [497, 319], [493, 319], [493, 322], [497, 323], [499, 321], [511, 322], [513, 326], [505, 342], [501, 345], [489, 361], [486, 369], [486, 374], [481, 383], [473, 391], [480, 399], [481, 403], [475, 408], [470, 409], [466, 420], [462, 425], [461, 429], [456, 434], [455, 438], [450, 440], [447, 432], [447, 423], [440, 425], [429, 437], [421, 442], [422, 447], [419, 452], [415, 448], [410, 448], [410, 464], [408, 469], [404, 471], [404, 473], [394, 482], [389, 494], [383, 498], [378, 506], [369, 514], [372, 511], [374, 511], [377, 514], [374, 521], [375, 523], [373, 524], [374, 526], [371, 527], [362, 538], [362, 540], [354, 546], [344, 550], [342, 549], [334, 553], [323, 553], [314, 543], [297, 543], [299, 548], [303, 552], [326, 558], [329, 561], [329, 563], [323, 568], [340, 567], [344, 565], [352, 556], [361, 555], [365, 553], [366, 546], [369, 543], [379, 544], [380, 552], [387, 556], [391, 548], [390, 538], [395, 532], [397, 523], [403, 518], [406, 507], [424, 489], [429, 488], [424, 482], [424, 480], [426, 478], [425, 474], [430, 467], [432, 451], [442, 443], [450, 443], [451, 448], [454, 451], [465, 451], [475, 439], [475, 434], [482, 427], [485, 417], [492, 409], [496, 411], [498, 416], [496, 424], [491, 432], [491, 442], [494, 446], [499, 448], [505, 445], [511, 445], [513, 442], [543, 442], [543, 436], [548, 431], [548, 429], [538, 421], [538, 411], [541, 401], [535, 387], [535, 379], [531, 379], [529, 389], [526, 392], [525, 391], [504, 403], [499, 399], [499, 396], [504, 386], [504, 382], [508, 378], [512, 378], [515, 376], [522, 365], [522, 354], [525, 347], [538, 336], [545, 321], [549, 318], [556, 316], [574, 295], [574, 293], [570, 289], [574, 286], [577, 286], [581, 289], [588, 289], [591, 287], [580, 275], [576, 274], [570, 268], [567, 268], [567, 272], [564, 274], [558, 274], [555, 271], [556, 266], [554, 256], [555, 253], [558, 252], [558, 245], [563, 241], [569, 240], [574, 235], [575, 231], [589, 220], [584, 218], [579, 221], [572, 222], [570, 217], [562, 212], [561, 209], [558, 209], [554, 212], [550, 212], [546, 207], [543, 198], [540, 198], [536, 195], [535, 182], [539, 175], [538, 171], [540, 168], [540, 157], [538, 154], [541, 149], [538, 148], [538, 151], [535, 152], [533, 155], [531, 162], [532, 165], [529, 169], [530, 178], [528, 179], [528, 186], [530, 187], [528, 192], [530, 198], [529, 201], [533, 205], [535, 204], [539, 209], [538, 218], [540, 219], [540, 225], [535, 228], [531, 233], [530, 232], [527, 235], [526, 234], [526, 236], [524, 237], [523, 235], [521, 236], [517, 231], [517, 216], [514, 210], [512, 195], [510, 193], [512, 189], [508, 179], [505, 177], [503, 168], [505, 164], [503, 160], [508, 157], [508, 155], [505, 150], [500, 152], [498, 146], [501, 144], [510, 144], [512, 142], [511, 140], [513, 139], [513, 137], [497, 122], [492, 120], [483, 113], [480, 98], [481, 88], [479, 86], [475, 87], [465, 99], [455, 98], [450, 94], [452, 88], [450, 83], [451, 75], [446, 71], [434, 69], [429, 65]]]}}, {"type": "Feature", "properties": {"class": "Grassland and crops", "class_index": 2, "area_px": 295.5}, "geometry": {"type": "Polygon", "coordinates": [[[488, 455], [485, 463], [486, 473], [496, 472], [500, 470], [505, 480], [519, 496], [521, 496], [518, 495], [509, 485], [498, 465], [498, 461], [500, 459], [506, 459], [505, 456], [502, 455], [502, 451], [510, 446], [500, 448], [500, 452], [498, 454], [489, 456], [488, 455]]]}}, {"type": "Feature", "properties": {"class": "Grassland and crops", "class_index": 2, "area_px": 89.5}, "geometry": {"type": "Polygon", "coordinates": [[[444, 420], [436, 424], [427, 434], [419, 439], [419, 442], [429, 436], [434, 429], [440, 424], [446, 423], [444, 420]]]}}, {"type": "Feature", "properties": {"class": "Grassland and crops", "class_index": 2, "area_px": 161.5}, "geometry": {"type": "Polygon", "coordinates": [[[511, 323], [506, 330], [502, 340], [486, 359], [482, 375], [479, 380], [479, 384], [485, 374], [485, 369], [488, 361], [500, 345], [504, 342], [512, 326], [511, 323]]]}}, {"type": "Feature", "properties": {"class": "Grassland and crops", "class_index": 2, "area_px": 8276.0}, "geometry": {"type": "Polygon", "coordinates": [[[359, 314], [351, 323], [354, 333], [343, 341], [337, 336], [336, 329], [333, 323], [334, 322], [332, 321], [332, 319], [327, 314], [324, 315], [323, 313], [320, 313], [315, 315], [295, 338], [294, 337], [288, 340], [267, 343], [248, 355], [246, 361], [244, 362], [240, 375], [240, 386], [243, 397], [253, 412], [261, 420], [271, 424], [278, 435], [289, 435], [291, 430], [296, 427], [299, 423], [296, 402], [293, 395], [294, 385], [298, 381], [303, 379], [331, 380], [350, 385], [358, 380], [364, 369], [369, 364], [376, 365], [377, 367], [380, 366], [381, 353], [378, 349], [379, 342], [377, 338], [369, 334], [358, 332], [352, 326], [352, 324], [360, 316], [359, 314]]]}}, {"type": "Feature", "properties": {"class": "Grassland and crops", "class_index": 2, "area_px": 1170.5}, "geometry": {"type": "Polygon", "coordinates": [[[228, 300], [228, 309], [230, 314], [235, 320], [242, 321], [251, 316], [251, 310], [255, 306], [260, 307], [265, 312], [269, 311], [272, 308], [272, 305], [274, 303], [274, 288], [271, 283], [267, 283], [258, 293], [255, 287], [250, 286], [249, 282], [245, 279], [239, 279], [239, 283], [244, 287], [245, 290], [240, 293], [236, 292], [229, 297], [228, 300]]]}}, {"type": "Feature", "properties": {"class": "Grassland and crops", "class_index": 2, "area_px": 242.0}, "geometry": {"type": "Polygon", "coordinates": [[[441, 266], [439, 264], [431, 264], [430, 262], [426, 262], [428, 264], [417, 270], [417, 274], [420, 277], [418, 283], [420, 282], [420, 279], [423, 275], [441, 274], [441, 266]]]}}, {"type": "Feature", "properties": {"class": "Grassland and crops", "class_index": 2, "area_px": 68.5}, "geometry": {"type": "Polygon", "coordinates": [[[498, 227], [496, 227], [497, 236], [486, 254], [487, 261], [489, 261], [488, 254], [495, 245], [498, 238], [498, 227]]]}}, {"type": "Feature", "properties": {"class": "Grassland and crops", "class_index": 2, "area_px": 113.0}, "geometry": {"type": "Polygon", "coordinates": [[[419, 198], [404, 197], [401, 199], [399, 198], [388, 200], [386, 202], [385, 200], [384, 201], [389, 204], [391, 202], [408, 202], [419, 198]]]}}, {"type": "Feature", "properties": {"class": "Grassland and crops", "class_index": 2, "area_px": 573.0}, "geometry": {"type": "Polygon", "coordinates": [[[636, 180], [619, 175], [619, 178], [612, 188], [611, 193], [607, 195], [606, 200], [612, 204], [613, 211], [616, 215], [618, 208], [630, 195], [636, 186], [636, 180]]]}}, {"type": "Feature", "properties": {"class": "Grassland and crops", "class_index": 2, "area_px": 86.0}, "geometry": {"type": "Polygon", "coordinates": [[[436, 167], [435, 173], [443, 181], [446, 181], [451, 187], [451, 189], [459, 197], [464, 199], [456, 193], [452, 184], [439, 173], [438, 168], [436, 167]]]}}, {"type": "Feature", "properties": {"class": "Grassland and crops", "class_index": 2, "area_px": 21445.5}, "geometry": {"type": "Polygon", "coordinates": [[[14, 136], [14, 141], [8, 145], [8, 150], [10, 152], [25, 151], [26, 154], [30, 156], [31, 148], [32, 158], [34, 160], [30, 161], [22, 154], [18, 154], [14, 158], [14, 161], [16, 163], [25, 164], [27, 166], [24, 169], [14, 169], [14, 175], [20, 180], [20, 186], [23, 187], [21, 188], [23, 192], [28, 192], [30, 190], [40, 190], [44, 192], [43, 195], [48, 195], [55, 200], [60, 200], [62, 205], [67, 207], [71, 206], [72, 210], [75, 211], [73, 215], [74, 223], [87, 221], [95, 227], [106, 231], [106, 234], [104, 235], [104, 246], [106, 248], [116, 249], [126, 246], [131, 249], [122, 249], [115, 254], [115, 259], [122, 265], [122, 270], [115, 275], [115, 278], [119, 283], [122, 292], [125, 295], [128, 307], [133, 312], [139, 315], [140, 317], [150, 310], [191, 314], [196, 311], [200, 305], [201, 306], [201, 287], [199, 285], [198, 278], [199, 273], [198, 269], [189, 263], [186, 264], [173, 261], [152, 272], [146, 272], [139, 268], [138, 264], [145, 262], [152, 255], [169, 249], [177, 249], [181, 251], [188, 250], [194, 254], [205, 254], [204, 238], [212, 228], [216, 225], [228, 224], [234, 221], [244, 221], [245, 204], [244, 197], [240, 191], [230, 183], [225, 183], [207, 173], [205, 174], [199, 172], [189, 172], [176, 164], [174, 159], [159, 159], [152, 150], [149, 150], [150, 153], [148, 154], [148, 159], [146, 162], [143, 161], [144, 157], [142, 154], [136, 153], [134, 150], [130, 148], [125, 148], [114, 154], [111, 153], [101, 139], [101, 133], [91, 127], [75, 127], [69, 133], [61, 132], [60, 135], [57, 134], [53, 136], [52, 132], [49, 130], [40, 132], [35, 129], [28, 129], [23, 133], [22, 137], [21, 134], [17, 134], [14, 136]]]}}, {"type": "Feature", "properties": {"class": "Grassland and crops", "class_index": 2, "area_px": 1264.5}, "geometry": {"type": "Polygon", "coordinates": [[[385, 11], [382, 8], [375, 8], [367, 13], [351, 13], [349, 17], [348, 15], [345, 15], [336, 22], [333, 32], [335, 45], [345, 42], [354, 34], [371, 38], [379, 45], [379, 36], [381, 35], [381, 33], [388, 32], [384, 28], [385, 11]]]}}, {"type": "Feature", "properties": {"class": "Cropland (primarily wheat, sugar beets, corn)", "class_index": 3, "area_px": 1933.5}, "geometry": {"type": "Polygon", "coordinates": [[[195, 524], [185, 517], [182, 517], [179, 521], [175, 522], [163, 522], [150, 518], [142, 518], [137, 520], [126, 529], [119, 532], [99, 530], [93, 533], [96, 537], [108, 541], [111, 537], [118, 540], [139, 541], [158, 558], [162, 559], [164, 557], [164, 554], [157, 546], [157, 543], [163, 542], [173, 549], [177, 549], [191, 540], [193, 537], [193, 529], [195, 524]]]}}, {"type": "Feature", "properties": {"class": "Cropland (primarily wheat, sugar beets, corn)", "class_index": 3, "area_px": 395.5}, "geometry": {"type": "Polygon", "coordinates": [[[440, 124], [433, 125], [422, 122], [421, 110], [417, 111], [412, 118], [412, 125], [409, 130], [394, 131], [392, 132], [392, 134], [394, 136], [406, 138], [409, 136], [418, 135], [423, 128], [436, 129], [440, 124]]]}}, {"type": "Feature", "properties": {"class": "Cropland (primarily wheat, sugar beets, corn)", "class_index": 3, "area_px": 17567.0}, "geometry": {"type": "Polygon", "coordinates": [[[407, 35], [399, 34], [391, 36], [389, 33], [382, 33], [382, 35], [380, 36], [379, 46], [371, 39], [354, 35], [345, 43], [337, 46], [334, 45], [333, 47], [333, 56], [330, 60], [331, 66], [329, 67], [339, 81], [336, 84], [326, 73], [324, 73], [321, 77], [308, 83], [275, 89], [262, 96], [255, 104], [255, 111], [268, 115], [270, 113], [275, 113], [289, 106], [290, 107], [306, 101], [322, 101], [326, 105], [324, 111], [327, 111], [331, 115], [330, 124], [311, 124], [308, 127], [309, 136], [315, 142], [317, 147], [315, 150], [314, 161], [316, 166], [322, 172], [322, 181], [324, 183], [325, 190], [324, 197], [321, 202], [311, 205], [295, 205], [292, 207], [290, 212], [290, 229], [295, 239], [303, 241], [315, 236], [323, 230], [332, 230], [334, 232], [344, 230], [346, 232], [347, 241], [353, 243], [371, 243], [374, 240], [372, 238], [380, 232], [384, 224], [384, 219], [377, 209], [369, 209], [369, 212], [362, 216], [360, 214], [360, 211], [357, 212], [354, 209], [354, 207], [366, 197], [384, 196], [388, 191], [390, 184], [395, 178], [398, 177], [397, 172], [416, 163], [417, 158], [424, 151], [424, 146], [419, 142], [387, 142], [379, 144], [370, 150], [365, 158], [357, 154], [358, 147], [377, 135], [383, 127], [396, 122], [403, 116], [404, 110], [420, 97], [421, 86], [427, 81], [427, 79], [422, 73], [422, 70], [429, 63], [412, 51], [407, 35]], [[355, 152], [356, 154], [351, 159], [343, 163], [345, 168], [343, 174], [351, 178], [354, 176], [355, 169], [357, 167], [364, 173], [364, 181], [362, 185], [356, 190], [354, 197], [352, 199], [347, 199], [344, 196], [343, 190], [336, 184], [336, 178], [334, 175], [333, 167], [331, 163], [328, 161], [328, 159], [355, 152]], [[345, 88], [348, 86], [351, 89], [353, 89], [356, 93], [365, 97], [383, 97], [384, 99], [386, 99], [389, 108], [385, 109], [381, 104], [378, 103], [363, 103], [361, 101], [358, 101], [350, 96], [346, 92], [345, 88]]]}}, {"type": "Feature", "properties": {"class": "Other crops (primarily cereals)", "class_index": 4, "area_px": 2436.5}, "geometry": {"type": "Polygon", "coordinates": [[[376, 514], [372, 512], [369, 515], [365, 516], [363, 514], [363, 506], [354, 514], [337, 520], [325, 521], [323, 523], [321, 522], [317, 524], [312, 523], [310, 525], [301, 525], [298, 527], [294, 526], [289, 528], [289, 531], [291, 533], [291, 542], [295, 543], [293, 552], [295, 557], [299, 561], [300, 571], [309, 567], [317, 566], [321, 568], [328, 563], [328, 561], [317, 556], [307, 555], [306, 553], [303, 553], [298, 548], [296, 543], [297, 542], [314, 542], [323, 552], [334, 552], [342, 548], [344, 549], [350, 547], [360, 541], [370, 527], [373, 526], [372, 524], [374, 523], [373, 521], [376, 514]]]}}, {"type": "Feature", "properties": {"class": "Other crops (primarily cereals)", "class_index": 4, "area_px": 676.5}, "geometry": {"type": "Polygon", "coordinates": [[[434, 491], [424, 502], [422, 502], [418, 506], [414, 506], [412, 503], [409, 504], [405, 511], [403, 519], [405, 523], [405, 533], [411, 528], [412, 524], [419, 517], [422, 517], [431, 526], [433, 532], [437, 530], [437, 524], [433, 517], [433, 509], [436, 500], [434, 491]]]}}, {"type": "Feature", "properties": {"class": "Other crops (primarily cereals)", "class_index": 4, "area_px": 3413.0}, "geometry": {"type": "Polygon", "coordinates": [[[366, 491], [366, 489], [360, 492], [348, 491], [330, 480], [321, 477], [315, 477], [310, 479], [308, 478], [306, 480], [303, 479], [294, 482], [275, 480], [272, 481], [268, 478], [264, 481], [255, 480], [244, 484], [236, 484], [234, 487], [230, 483], [227, 486], [228, 489], [233, 493], [236, 489], [244, 490], [250, 493], [259, 493], [265, 499], [265, 501], [277, 504], [277, 506], [269, 507], [267, 509], [270, 521], [273, 523], [289, 523], [296, 518], [320, 518], [338, 513], [343, 508], [345, 508], [353, 498], [358, 496], [359, 494], [364, 494], [366, 491]]]}}, {"type": "Feature", "properties": {"class": "Other crops (primarily cereals)", "class_index": 4, "area_px": 3214.5}, "geometry": {"type": "Polygon", "coordinates": [[[167, 473], [167, 486], [165, 490], [166, 494], [169, 492], [181, 494], [186, 499], [199, 502], [205, 513], [222, 519], [230, 527], [231, 530], [230, 537], [220, 539], [208, 531], [201, 530], [195, 525], [194, 537], [192, 541], [198, 551], [195, 552], [191, 558], [192, 563], [195, 566], [214, 566], [227, 564], [239, 558], [243, 558], [255, 547], [258, 538], [261, 536], [257, 527], [253, 525], [251, 519], [244, 512], [233, 508], [226, 500], [221, 497], [218, 498], [216, 494], [209, 490], [205, 497], [199, 499], [195, 494], [168, 477], [167, 473]]]}}, {"type": "Feature", "properties": {"class": "Other crops (primarily cereals)", "class_index": 4, "area_px": 1022.0}, "geometry": {"type": "Polygon", "coordinates": [[[260, 457], [260, 462], [266, 470], [266, 473], [271, 472], [272, 474], [274, 472], [275, 474], [278, 474], [279, 472], [297, 474], [299, 473], [299, 470], [321, 466], [323, 469], [324, 466], [327, 466], [329, 468], [333, 467], [336, 464], [335, 458], [323, 460], [320, 458], [308, 460], [305, 458], [304, 459], [299, 452], [292, 452], [287, 454], [276, 453], [267, 457], [260, 457]]]}}, {"type": "Feature", "properties": {"class": "Other crops (primarily cereals)", "class_index": 4, "area_px": 3166.5}, "geometry": {"type": "Polygon", "coordinates": [[[494, 410], [492, 410], [486, 417], [483, 427], [476, 434], [476, 439], [465, 452], [454, 452], [450, 448], [450, 444], [442, 444], [433, 451], [431, 467], [426, 474], [427, 478], [425, 482], [430, 488], [433, 489], [440, 482], [444, 485], [445, 491], [442, 501], [443, 506], [450, 503], [454, 504], [454, 501], [452, 500], [452, 498], [454, 497], [454, 491], [457, 488], [459, 488], [462, 484], [470, 481], [480, 486], [500, 502], [506, 503], [508, 505], [522, 505], [524, 503], [524, 500], [526, 499], [519, 497], [504, 480], [500, 471], [496, 473], [486, 474], [482, 480], [478, 480], [471, 472], [463, 468], [468, 462], [472, 461], [483, 452], [489, 455], [499, 452], [499, 449], [494, 447], [490, 442], [490, 432], [497, 418], [494, 410]]]}}, {"type": "Feature", "properties": {"class": "Other crops (primarily cereals)", "class_index": 4, "area_px": 1402.0}, "geometry": {"type": "Polygon", "coordinates": [[[469, 409], [465, 411], [460, 410], [457, 408], [454, 401], [450, 400], [447, 403], [445, 410], [440, 415], [437, 415], [432, 410], [431, 416], [429, 418], [419, 418], [414, 420], [410, 426], [412, 430], [412, 436], [403, 443], [398, 442], [394, 445], [394, 449], [396, 452], [396, 461], [398, 466], [402, 470], [407, 469], [409, 464], [409, 448], [411, 446], [413, 448], [415, 447], [419, 451], [421, 445], [418, 442], [418, 439], [427, 433], [436, 423], [442, 419], [444, 419], [449, 424], [448, 432], [450, 439], [454, 438], [455, 434], [460, 429], [461, 425], [465, 420], [469, 409]]]}}, {"type": "Feature", "properties": {"class": "Other crops (primarily cereals)", "class_index": 4, "area_px": 601.5}, "geometry": {"type": "Polygon", "coordinates": [[[543, 358], [532, 359], [529, 364], [527, 373], [524, 377], [514, 377], [512, 379], [508, 379], [505, 382], [505, 386], [500, 396], [500, 399], [503, 402], [525, 390], [528, 378], [540, 365], [543, 364], [543, 358]]]}}, {"type": "Feature", "properties": {"class": "Other crops (primarily cereals)", "class_index": 4, "area_px": 894.5}, "geometry": {"type": "Polygon", "coordinates": [[[509, 323], [499, 322], [497, 324], [491, 322], [481, 328], [477, 336], [476, 344], [477, 366], [474, 378], [474, 388], [478, 385], [478, 380], [481, 375], [485, 359], [501, 340], [509, 323]]]}}, {"type": "Feature", "properties": {"class": "Other crops (primarily cereals)", "class_index": 4, "area_px": 19172.5}, "geometry": {"type": "Polygon", "coordinates": [[[142, 317], [144, 320], [154, 323], [156, 325], [156, 328], [153, 332], [157, 340], [158, 347], [154, 355], [168, 367], [166, 371], [159, 376], [166, 385], [174, 384], [181, 390], [185, 389], [187, 386], [193, 386], [198, 390], [206, 390], [211, 395], [211, 401], [213, 405], [226, 408], [228, 410], [228, 416], [224, 421], [227, 427], [229, 427], [236, 435], [234, 441], [235, 447], [237, 447], [240, 444], [243, 444], [244, 441], [250, 437], [251, 438], [252, 436], [268, 432], [270, 435], [274, 437], [276, 445], [279, 445], [280, 443], [284, 445], [292, 444], [292, 441], [295, 440], [294, 438], [299, 432], [300, 433], [307, 426], [309, 428], [313, 424], [317, 423], [327, 414], [330, 415], [330, 411], [339, 397], [344, 397], [346, 394], [353, 394], [360, 401], [359, 403], [362, 415], [360, 422], [362, 428], [362, 443], [365, 448], [375, 448], [377, 446], [374, 428], [379, 421], [378, 410], [383, 406], [385, 408], [388, 407], [388, 400], [394, 394], [395, 386], [399, 382], [403, 381], [406, 372], [406, 367], [404, 366], [405, 363], [403, 362], [404, 360], [401, 357], [402, 355], [398, 351], [399, 350], [395, 345], [396, 343], [392, 339], [393, 337], [391, 335], [388, 335], [388, 373], [386, 379], [383, 382], [377, 379], [375, 374], [376, 366], [369, 365], [365, 369], [359, 380], [355, 384], [350, 386], [331, 381], [303, 380], [298, 382], [294, 388], [294, 395], [297, 402], [300, 423], [296, 428], [292, 430], [289, 436], [278, 436], [271, 425], [261, 421], [252, 412], [242, 397], [239, 386], [239, 375], [245, 358], [250, 352], [267, 342], [288, 339], [294, 336], [295, 337], [303, 329], [308, 321], [315, 314], [320, 312], [323, 312], [324, 314], [327, 313], [333, 319], [337, 329], [337, 334], [342, 340], [353, 333], [353, 330], [350, 326], [351, 321], [359, 313], [361, 315], [367, 307], [365, 298], [360, 293], [360, 278], [355, 278], [339, 292], [335, 288], [331, 288], [329, 286], [328, 280], [308, 281], [307, 274], [296, 263], [287, 270], [275, 271], [274, 274], [278, 276], [275, 279], [249, 279], [247, 280], [250, 282], [250, 285], [255, 286], [258, 292], [267, 282], [271, 282], [275, 288], [275, 303], [273, 305], [273, 308], [269, 312], [265, 313], [260, 308], [255, 307], [253, 308], [252, 316], [249, 319], [242, 322], [237, 322], [231, 317], [228, 312], [227, 300], [228, 297], [236, 291], [240, 292], [244, 290], [243, 287], [238, 283], [237, 280], [223, 280], [206, 267], [204, 264], [202, 264], [199, 268], [200, 285], [202, 287], [202, 302], [196, 312], [191, 315], [182, 315], [170, 312], [150, 311], [142, 317]]]}}, {"type": "Feature", "properties": {"class": "Other crops (primarily cereals)", "class_index": 4, "area_px": 410.0}, "geometry": {"type": "Polygon", "coordinates": [[[568, 260], [567, 267], [572, 268], [576, 273], [580, 274], [591, 286], [599, 278], [599, 267], [585, 267], [582, 266], [577, 259], [568, 260]]]}}, {"type": "Feature", "properties": {"class": "Other crops (primarily cereals)", "class_index": 4, "area_px": 425.5}, "geometry": {"type": "Polygon", "coordinates": [[[407, 253], [406, 258], [409, 265], [409, 269], [405, 275], [405, 285], [412, 290], [417, 287], [417, 284], [419, 284], [417, 283], [419, 277], [416, 274], [416, 270], [421, 266], [427, 264], [415, 254], [407, 253]]]}}, {"type": "Feature", "properties": {"class": "Other crops (primarily cereals)", "class_index": 4, "area_px": 495.0}, "geometry": {"type": "Polygon", "coordinates": [[[394, 247], [392, 248], [390, 256], [383, 263], [375, 267], [376, 268], [373, 271], [372, 284], [373, 290], [375, 292], [380, 285], [383, 284], [382, 281], [384, 278], [399, 266], [399, 262], [397, 261], [398, 260], [395, 256], [397, 253], [396, 249], [394, 247]]]}}, {"type": "Feature", "properties": {"class": "Other crops (primarily cereals)", "class_index": 4, "area_px": 1628.0}, "geometry": {"type": "Polygon", "coordinates": [[[397, 210], [396, 214], [400, 222], [400, 229], [403, 239], [413, 247], [425, 251], [430, 256], [431, 263], [439, 263], [443, 269], [443, 273], [440, 275], [440, 277], [443, 281], [447, 283], [450, 279], [452, 272], [451, 265], [448, 262], [449, 261], [447, 258], [444, 244], [441, 241], [442, 240], [430, 227], [431, 226], [428, 224], [423, 214], [414, 210], [397, 210]]]}}, {"type": "Feature", "properties": {"class": "Other crops (primarily cereals)", "class_index": 4, "area_px": 4820.0}, "geometry": {"type": "Polygon", "coordinates": [[[607, 172], [600, 167], [591, 170], [586, 167], [583, 168], [577, 164], [570, 164], [554, 144], [543, 139], [533, 139], [525, 134], [516, 134], [513, 136], [514, 139], [512, 140], [513, 142], [510, 145], [499, 146], [500, 151], [505, 149], [509, 155], [509, 157], [504, 160], [506, 164], [504, 168], [506, 177], [509, 179], [513, 189], [511, 193], [513, 195], [515, 210], [518, 216], [518, 231], [521, 235], [523, 234], [524, 236], [526, 233], [527, 234], [528, 232], [531, 232], [535, 227], [539, 225], [539, 219], [537, 218], [538, 209], [535, 205], [533, 206], [528, 201], [529, 198], [527, 194], [529, 187], [527, 186], [527, 179], [529, 178], [528, 169], [531, 165], [530, 162], [532, 155], [535, 151], [538, 152], [536, 150], [538, 147], [540, 147], [542, 150], [539, 154], [541, 157], [541, 168], [539, 171], [540, 175], [536, 182], [536, 193], [538, 196], [544, 198], [545, 203], [550, 211], [554, 211], [558, 208], [561, 208], [562, 211], [567, 211], [573, 206], [575, 206], [581, 201], [582, 194], [587, 188], [589, 190], [591, 188], [599, 186], [602, 183], [602, 177], [607, 172]]]}}, {"type": "Feature", "properties": {"class": "Other crops (primarily cereals)", "class_index": 4, "area_px": 7687.0}, "geometry": {"type": "Polygon", "coordinates": [[[446, 121], [435, 130], [441, 132], [445, 136], [444, 139], [434, 140], [425, 143], [425, 151], [418, 158], [417, 163], [411, 167], [404, 169], [401, 172], [398, 172], [399, 177], [395, 179], [391, 184], [390, 189], [387, 194], [383, 197], [383, 200], [385, 199], [386, 201], [388, 199], [399, 197], [401, 198], [404, 196], [418, 196], [420, 199], [422, 198], [425, 201], [427, 200], [442, 205], [443, 208], [447, 208], [449, 210], [447, 212], [449, 212], [465, 223], [463, 227], [466, 231], [468, 243], [455, 255], [460, 274], [460, 286], [462, 288], [457, 297], [456, 308], [460, 305], [462, 301], [465, 301], [466, 298], [471, 297], [477, 291], [480, 290], [489, 294], [490, 290], [493, 288], [497, 291], [497, 299], [491, 304], [490, 307], [494, 312], [493, 318], [497, 318], [498, 314], [494, 311], [497, 309], [498, 306], [512, 294], [516, 295], [517, 292], [521, 293], [524, 288], [520, 285], [518, 277], [504, 279], [495, 286], [492, 284], [492, 281], [495, 280], [494, 275], [497, 266], [497, 261], [495, 260], [493, 262], [487, 262], [485, 260], [485, 254], [496, 236], [496, 229], [495, 228], [487, 234], [480, 237], [477, 231], [477, 216], [475, 215], [474, 207], [469, 202], [459, 198], [450, 189], [446, 182], [443, 182], [434, 173], [436, 166], [442, 167], [452, 175], [460, 187], [471, 193], [477, 191], [482, 182], [474, 176], [475, 169], [468, 163], [469, 160], [465, 154], [466, 147], [468, 146], [472, 149], [477, 162], [483, 167], [487, 173], [489, 181], [492, 186], [493, 184], [495, 186], [496, 182], [492, 176], [492, 172], [489, 167], [488, 157], [490, 152], [482, 143], [479, 134], [475, 130], [465, 127], [462, 124], [463, 123], [458, 119], [455, 122], [446, 121]]]}}, {"type": "Feature", "properties": {"class": "Other crops (primarily cereals)", "class_index": 4, "area_px": 863.0}, "geometry": {"type": "Polygon", "coordinates": [[[211, 111], [210, 118], [214, 142], [216, 145], [228, 146], [231, 151], [231, 156], [236, 160], [240, 160], [241, 157], [237, 151], [237, 146], [239, 142], [239, 127], [237, 126], [237, 122], [227, 115], [216, 114], [211, 111]]]}}, {"type": "Feature", "properties": {"class": "Other crops (primarily cereals)", "class_index": 4, "area_px": 8251.5}, "geometry": {"type": "Polygon", "coordinates": [[[324, 103], [306, 102], [290, 108], [289, 107], [275, 114], [269, 115], [269, 117], [274, 120], [274, 123], [276, 125], [275, 142], [278, 151], [281, 155], [281, 157], [278, 160], [277, 174], [271, 185], [259, 195], [254, 195], [251, 192], [250, 187], [248, 187], [242, 192], [241, 191], [245, 197], [245, 212], [250, 216], [251, 220], [250, 224], [243, 231], [232, 235], [232, 237], [237, 238], [241, 241], [258, 240], [259, 243], [256, 246], [253, 245], [252, 247], [246, 245], [225, 245], [211, 249], [208, 254], [209, 256], [217, 259], [226, 266], [233, 269], [247, 268], [254, 265], [261, 265], [263, 263], [280, 263], [290, 258], [293, 254], [304, 250], [309, 245], [313, 244], [322, 237], [327, 236], [333, 232], [323, 231], [315, 237], [303, 242], [299, 242], [293, 238], [289, 229], [289, 212], [293, 205], [311, 204], [319, 202], [323, 197], [324, 190], [323, 183], [321, 181], [321, 172], [315, 166], [313, 161], [314, 150], [316, 147], [314, 142], [308, 136], [307, 127], [311, 123], [330, 123], [330, 115], [327, 112], [323, 111], [325, 108], [324, 103]]]}}, {"type": "Feature", "properties": {"class": "Olives (often with vines and wheat)", "class_index": 5, "area_px": 104.0}, "geometry": {"type": "Polygon", "coordinates": [[[418, 556], [414, 553], [407, 554], [403, 559], [406, 562], [415, 562], [418, 556]]]}}, {"type": "Feature", "properties": {"class": "Olives (often with vines and wheat)", "class_index": 5, "area_px": 17.5}, "geometry": {"type": "Polygon", "coordinates": [[[201, 426], [198, 429], [200, 429], [200, 432], [202, 433], [203, 429], [201, 426]]]}}, {"type": "Feature", "properties": {"class": "Olives (often with vines and wheat)", "class_index": 5, "area_px": 72.0}, "geometry": {"type": "Polygon", "coordinates": [[[172, 424], [173, 430], [170, 433], [170, 435], [175, 437], [175, 435], [180, 429], [176, 425], [172, 424]]]}}, {"type": "Feature", "properties": {"class": "Olives (often with vines and wheat)", "class_index": 5, "area_px": 215.0}, "geometry": {"type": "Polygon", "coordinates": [[[489, 306], [485, 306], [475, 313], [475, 315], [480, 318], [484, 325], [492, 320], [493, 312], [489, 306]]]}}, {"type": "Feature", "properties": {"class": "Olives (often with vines and wheat)", "class_index": 5, "area_px": 23.5}, "geometry": {"type": "Polygon", "coordinates": [[[599, 239], [599, 241], [606, 244], [605, 240], [599, 239]]]}}, {"type": "Feature", "properties": {"class": "Olives (often with vines and wheat)", "class_index": 5, "area_px": 324.5}, "geometry": {"type": "Polygon", "coordinates": [[[602, 195], [596, 200], [596, 203], [602, 209], [601, 220], [604, 223], [612, 226], [616, 216], [612, 211], [611, 204], [605, 200], [606, 195], [602, 195]]]}}, {"type": "Feature", "properties": {"class": "Market gardening (fruits, vegetables, flowers)", "class_index": 6, "area_px": 242.5}, "geometry": {"type": "Polygon", "coordinates": [[[657, 632], [640, 639], [635, 649], [640, 652], [653, 646], [658, 639], [657, 632]]]}}, {"type": "Feature", "properties": {"class": "Market gardening (fruits, vegetables, flowers)", "class_index": 6, "area_px": 436.0}, "geometry": {"type": "Polygon", "coordinates": [[[329, 602], [322, 609], [322, 622], [327, 625], [328, 624], [332, 629], [343, 632], [343, 626], [338, 614], [341, 602], [329, 602]]]}}, {"type": "Feature", "properties": {"class": "Market gardening (fruits, vegetables, flowers)", "class_index": 6, "area_px": 280.0}, "geometry": {"type": "Polygon", "coordinates": [[[569, 558], [561, 553], [547, 554], [544, 558], [544, 566], [551, 571], [553, 568], [560, 568], [563, 561], [569, 558]]]}}, {"type": "Feature", "properties": {"class": "Market gardening (fruits, vegetables, flowers)", "class_index": 6, "area_px": 1223.5}, "geometry": {"type": "Polygon", "coordinates": [[[273, 542], [264, 549], [265, 555], [270, 565], [271, 581], [269, 584], [271, 587], [284, 592], [296, 580], [300, 572], [299, 564], [292, 552], [294, 543], [273, 542]]]}}, {"type": "Feature", "properties": {"class": "Market gardening (fruits, vegetables, flowers)", "class_index": 6, "area_px": 3456.5}, "geometry": {"type": "Polygon", "coordinates": [[[440, 483], [434, 490], [424, 490], [417, 498], [413, 500], [413, 504], [418, 505], [422, 501], [424, 501], [434, 490], [437, 500], [434, 509], [434, 517], [438, 524], [438, 530], [434, 533], [434, 535], [439, 541], [439, 544], [436, 547], [436, 551], [440, 559], [451, 567], [451, 574], [454, 576], [463, 577], [466, 581], [466, 584], [468, 585], [475, 578], [479, 571], [489, 571], [492, 561], [500, 554], [500, 552], [504, 548], [506, 538], [509, 535], [509, 523], [506, 515], [507, 505], [500, 503], [498, 508], [498, 511], [500, 513], [499, 515], [504, 524], [504, 530], [495, 538], [485, 537], [481, 539], [469, 539], [464, 537], [461, 533], [461, 528], [465, 525], [465, 516], [454, 505], [450, 504], [445, 507], [441, 505], [444, 488], [443, 485], [440, 483]]]}}, {"type": "Feature", "properties": {"class": "Market gardening (fruits, vegetables, flowers)", "class_index": 6, "area_px": 363.0}, "geometry": {"type": "Polygon", "coordinates": [[[224, 458], [224, 464], [232, 472], [244, 473], [247, 471], [245, 464], [245, 456], [237, 451], [224, 458]]]}}, {"type": "Feature", "properties": {"class": "Market gardening (fruits, vegetables, flowers)", "class_index": 6, "area_px": 439.0}, "geometry": {"type": "Polygon", "coordinates": [[[199, 391], [196, 401], [197, 407], [213, 418], [223, 420], [227, 416], [227, 410], [224, 408], [213, 406], [210, 401], [210, 395], [206, 391], [199, 391]]]}}, {"type": "Feature", "properties": {"class": "Market gardening (fruits, vegetables, flowers)", "class_index": 6, "area_px": 1480.5}, "geometry": {"type": "Polygon", "coordinates": [[[476, 316], [473, 316], [468, 320], [461, 332], [463, 339], [461, 344], [462, 354], [459, 360], [459, 368], [456, 372], [454, 382], [462, 391], [455, 401], [458, 408], [465, 410], [473, 408], [480, 403], [479, 399], [472, 392], [473, 378], [476, 366], [476, 336], [480, 328], [483, 326], [479, 318], [476, 316]]]}}, {"type": "Feature", "properties": {"class": "Market gardening (fruits, vegetables, flowers)", "class_index": 6, "area_px": 628.5}, "geometry": {"type": "Polygon", "coordinates": [[[355, 153], [339, 158], [329, 159], [329, 161], [332, 163], [334, 167], [335, 175], [337, 178], [337, 184], [344, 190], [345, 196], [347, 198], [353, 197], [355, 190], [361, 185], [363, 181], [363, 173], [357, 168], [355, 176], [351, 179], [342, 174], [344, 168], [342, 163], [351, 158], [355, 153]]]}}, {"type": "Feature", "properties": {"class": "Vineyards", "class_index": 7, "area_px": 993.0}, "geometry": {"type": "Polygon", "coordinates": [[[550, 571], [543, 566], [536, 570], [518, 568], [516, 561], [513, 560], [512, 571], [503, 572], [503, 588], [500, 592], [500, 596], [503, 600], [507, 600], [512, 595], [520, 595], [524, 592], [533, 593], [536, 590], [536, 587], [533, 584], [541, 575], [546, 575], [550, 571]]]}}, {"type": "Feature", "properties": {"class": "Vineyards", "class_index": 7, "area_px": 1250.0}, "geometry": {"type": "Polygon", "coordinates": [[[385, 557], [379, 552], [379, 545], [369, 544], [367, 546], [367, 552], [361, 556], [352, 557], [344, 566], [340, 568], [319, 569], [317, 567], [305, 569], [299, 574], [295, 582], [298, 583], [300, 586], [305, 587], [314, 579], [318, 578], [343, 582], [347, 580], [353, 572], [361, 572], [370, 568], [372, 564], [379, 563], [385, 557]]]}}, {"type": "Feature", "properties": {"class": "Vineyards", "class_index": 7, "area_px": 793.0}, "geometry": {"type": "Polygon", "coordinates": [[[398, 523], [396, 532], [391, 538], [392, 548], [388, 556], [395, 555], [400, 556], [402, 558], [407, 553], [414, 552], [418, 555], [422, 554], [424, 556], [428, 551], [428, 543], [420, 542], [417, 538], [414, 529], [411, 529], [405, 534], [403, 532], [404, 523], [402, 520], [398, 523]]]}}, {"type": "Feature", "properties": {"class": "Vineyards", "class_index": 7, "area_px": 851.0}, "geometry": {"type": "Polygon", "coordinates": [[[178, 509], [178, 513], [181, 517], [185, 516], [192, 520], [201, 529], [208, 530], [220, 538], [230, 536], [229, 527], [222, 520], [205, 514], [199, 503], [186, 500], [178, 509]]]}}, {"type": "Feature", "properties": {"class": "Vineyards", "class_index": 7, "area_px": 5108.0}, "geometry": {"type": "Polygon", "coordinates": [[[155, 392], [153, 394], [153, 398], [158, 410], [158, 418], [162, 424], [162, 440], [167, 450], [174, 451], [178, 455], [179, 463], [183, 469], [190, 472], [195, 471], [197, 473], [201, 473], [208, 483], [208, 489], [216, 493], [218, 497], [221, 496], [226, 499], [233, 507], [244, 511], [252, 519], [254, 525], [258, 527], [261, 535], [267, 537], [272, 542], [274, 541], [273, 533], [256, 520], [255, 516], [248, 506], [253, 502], [261, 502], [264, 499], [259, 494], [250, 494], [240, 490], [236, 490], [233, 494], [226, 487], [230, 482], [234, 486], [236, 483], [244, 483], [255, 479], [264, 480], [267, 478], [266, 474], [251, 474], [249, 472], [244, 474], [232, 473], [223, 464], [223, 458], [235, 451], [235, 449], [233, 446], [228, 446], [221, 443], [206, 440], [199, 432], [200, 430], [197, 429], [201, 425], [198, 419], [198, 414], [200, 410], [196, 407], [195, 402], [198, 393], [196, 389], [193, 387], [187, 387], [185, 390], [181, 391], [174, 385], [171, 385], [170, 386], [173, 393], [172, 394], [170, 391], [168, 391], [167, 409], [163, 390], [155, 392]], [[172, 423], [176, 424], [181, 429], [175, 438], [169, 435], [169, 433], [172, 430], [172, 423]]]}}, {"type": "Feature", "properties": {"class": "Vineyards", "class_index": 7, "area_px": 682.0}, "geometry": {"type": "Polygon", "coordinates": [[[460, 347], [454, 349], [449, 361], [445, 376], [445, 383], [440, 391], [440, 400], [436, 410], [437, 414], [440, 414], [444, 410], [446, 403], [450, 399], [455, 400], [461, 392], [453, 382], [455, 372], [458, 368], [458, 360], [461, 354], [460, 347]]]}}, {"type": "Feature", "properties": {"class": "Vineyards", "class_index": 7, "area_px": 801.5}, "geometry": {"type": "Polygon", "coordinates": [[[496, 291], [493, 289], [491, 290], [491, 293], [489, 295], [480, 291], [474, 294], [471, 298], [466, 299], [465, 302], [462, 302], [461, 305], [456, 309], [456, 313], [460, 315], [460, 318], [456, 320], [456, 324], [451, 331], [449, 330], [442, 333], [442, 339], [447, 340], [452, 338], [456, 334], [460, 333], [463, 325], [468, 319], [474, 315], [474, 313], [478, 309], [485, 305], [490, 305], [496, 299], [496, 291]]]}}, {"type": "Feature", "properties": {"class": "Vineyards", "class_index": 7, "area_px": 1781.5}, "geometry": {"type": "Polygon", "coordinates": [[[311, 246], [309, 246], [304, 251], [293, 255], [290, 259], [283, 263], [263, 264], [261, 266], [254, 266], [241, 270], [230, 269], [217, 260], [203, 254], [194, 255], [188, 251], [181, 252], [177, 250], [169, 250], [152, 256], [145, 263], [141, 265], [139, 264], [139, 267], [146, 271], [152, 271], [156, 268], [161, 267], [169, 261], [174, 260], [186, 263], [189, 262], [197, 268], [202, 263], [204, 263], [217, 275], [227, 280], [239, 278], [275, 278], [277, 277], [273, 274], [275, 270], [287, 269], [297, 262], [299, 259], [310, 254], [311, 246]]]}}, {"type": "Feature", "properties": {"class": "Vineyards", "class_index": 7, "area_px": 1082.5}, "geometry": {"type": "Polygon", "coordinates": [[[594, 204], [592, 207], [590, 219], [591, 230], [585, 232], [583, 235], [586, 243], [578, 259], [582, 265], [593, 265], [601, 267], [606, 254], [606, 245], [599, 242], [598, 239], [603, 238], [606, 240], [607, 236], [612, 230], [612, 227], [604, 224], [600, 220], [601, 209], [596, 204], [594, 204]]]}}]}