{
  "type": "FeatureCollection",
  "coordinate_space": "map_area.png pixels, y down",
  "extraction": {
    "method": "mask-boundary-and-label-seeded-ridge-graph",
    "boundary_features": 2,
    "river_label_seeds": 9,
    "river_components": 15,
    "river_features": 28,
    "pixel_supported_river_features": 24,
    "graph_bridge_features": 4,
    "unmatched_river_labels": [],
    "omitted_unconfirmed_interior": false,
    "coastline_cleanup": {
      "method": "adaptive-inner-dark-edge-band",
      "band_width_px": 6,
      "pixels": 9380
    },
    "river_cleanup": {
      "method": "pixel-supported-dark-fringe",
      "fringe_radius_px": 2,
      "centerline_pixels": 868,
      "fringe_pixels": 1053,
      "pixels": 1921
    }
  },
  "review": {
    "source": "line_review.json",
    "version": 2,
    "saved_at": "2026-08-03T14:26:43.214559+00:00",
    "automatic_rivers_kept": 12,
    "manual_rivers": 8,
    "include_rivers": true
  },
  "features": [
    {
      "type": "Feature",
      "properties": {
        "kind": "coastline",
        "source_class": "geographic mask boundary",
        "source": "map_mask",
        "confidence": "high",
        "label_evidence": null
      },
      "geometry": {
        "type": "LineString",
        "coordinates": [
          [
            681,
            609
          ],
          [
            677,
            609
          ],
          [
            674,
            612
          ],
          [
            673,
            618
          ],
          [
            675,
            619
          ],
          [
            672,
            620
          ],
          [
            671,
            632
          ],
          [
            667,
            628
          ],
          [
            662,
            628
          ],
          [
            657,
            632
          ],
          [
            640,
            639
          ],
          [
            638,
            641
          ],
          [
            637,
            647
          ],
          [
            631,
            653
          ],
          [
            631,
            656
          ],
          [
            635,
            660
          ],
          [
            635,
            662
          ],
          [
            631,
            664
          ],
          [
            631,
            669
          ],
          [
            637,
            676
          ],
          [
            637,
            679
          ],
          [
            635,
            681
          ],
          [
            635,
            689
          ],
          [
            641,
            690
          ],
          [
            640,
            694
          ],
          [
            637,
            695
          ],
          [
            637,
            697
          ],
          [
            640,
            696
          ],
          [
            640,
            701
          ],
          [
            643,
            701
          ],
          [
            647,
            704
          ],
          [
            647,
            706
          ],
          [
            643,
            709
          ],
          [
            643,
            713
          ],
          [
            649,
            718
          ],
          [
            658,
            720
          ],
          [
            661,
            725
          ],
          [
            666,
            724
          ],
          [
            670,
            715
          ],
          [
            670,
            710
          ],
          [
            674,
            708
          ],
          [
            676,
            705
          ],
          [
            676,
            692
          ],
          [
            686,
            673
          ],
          [
            686,
            664
          ],
          [
            684,
            656
          ],
          [
            686,
            641
          ],
          [
            683,
            637
          ],
          [
            680,
            636
          ],
          [
            681,
            630
          ],
          [
            679,
            629
          ],
          [
            679,
            626
          ],
          [
            683,
            626
          ],
          [
            684,
            623
          ],
          [
            684,
            614
          ],
          [
            681,
            609
          ]
        ]
      }
    },
    {
      "type": "Feature",
      "properties": {
        "kind": "coastline",
        "source_class": "geographic mask boundary",
        "source": "map_mask",
        "confidence": "high",
        "label_evidence": null
      },
      "geometry": {
        "type": "LineString",
        "coordinates": [
          [
            382,
            8
          ],
          [
            375,
            8
          ],
          [
            363,
            14
          ],
          [
            351,
            13
          ],
          [
            349,
            17
          ],
          [
            348,
            15
          ],
          [
            345,
            15
          ],
          [
            336,
            22
          ],
          [
            333,
            32
          ],
          [
            335,
            44
          ],
          [
            333,
            47
          ],
          [
            333,
            56
          ],
          [
            330,
            60
          ],
          [
            331,
            66
          ],
          [
            325,
            71
          ],
          [
            321,
            77
          ],
          [
            311,
            82
          ],
          [
            275,
            89
          ],
          [
            262,
            96
          ],
          [
            254,
            106
          ],
          [
            254,
            110
          ],
          [
            257,
            112
          ],
          [
            261,
            112
          ],
          [
            263,
            114
          ],
          [
            262,
            116
          ],
          [
            254,
            115
          ],
          [
            243,
            122
          ],
          [
            238,
            121
          ],
          [
            237,
            124
          ],
          [
            236,
            120
          ],
          [
            227,
            115
          ],
          [
            215,
            115
          ],
          [
            212,
            110
          ],
          [
            203,
            107
          ],
          [
            199,
            107
          ],
          [
            196,
            109
          ],
          [
            190,
            96
          ],
          [
            190,
            92
          ],
          [
            193,
            89
          ],
          [
            193,
            85
          ],
          [
            189,
            81
          ],
          [
            184,
            81
          ],
          [
            178,
            84
          ],
          [
            168,
            79
          ],
          [
            163,
            80
          ],
          [
            164,
            85
          ],
          [
            167,
            86
          ],
          [
            164,
            87
          ],
          [
            166,
            105
          ],
          [
            173,
            117
          ],
          [
            173,
            120
          ],
          [
            175,
            121
          ],
          [
            172,
            122
          ],
          [
            169,
            127
          ],
          [
            171,
            134
          ],
          [
            167,
            141
          ],
          [
            167,
            149
          ],
          [
            175,
            157
          ],
          [
            174,
            159
          ],
          [
            159,
            159
          ],
          [
            152,
            150
          ],
          [
            149,
            150
          ],
          [
            150,
            153
          ],
          [
            148,
            154
          ],
          [
            148,
            159
          ],
          [
            146,
            162
          ],
          [
            143,
            161
          ],
          [
            144,
            157
          ],
          [
            142,
            154
          ],
          [
            136,
            153
          ],
          [
            134,
            150
          ],
          [
            130,
            148
          ],
          [
            125,
            148
          ],
          [
            114,
            154
          ],
          [
            111,
            153
          ],
          [
            101,
            139
          ],
          [
            101,
            133
          ],
          [
            91,
            127
          ],
          [
            75,
            127
          ],
          [
            69,
            133
          ],
          [
            61,
            132
          ],
          [
            60,
            135
          ],
          [
            57,
            134
          ],
          [
            53,
            136
          ],
          [
            52,
            132
          ],
          [
            49,
            130
          ],
          [
            40,
            132
          ],
          [
            35,
            129
          ],
          [
            28,
            129
          ],
          [
            23,
            133
          ],
          [
            22,
            137
          ],
          [
            21,
            134
          ],
          [
            15,
            135
          ],
          [
            13,
            138
          ],
          [
            14,
            141
          ],
          [
            8,
            145
          ],
          [
            8,
            150
          ],
          [
            10,
            152
          ],
          [
            25,
            151
          ],
          [
            28,
            156
          ],
          [
            30,
            156
          ],
          [
            30,
            149
          ],
          [
            32,
            149
          ],
          [
            32,
            158
          ],
          [
            34,
            160
          ],
          [
            33,
            161
          ],
          [
            30,
            161
          ],
          [
            22,
            154
          ],
          [
            18,
            154
          ],
          [
            14,
            158
          ],
          [
            14,
            161
          ],
          [
            16,
            163
          ],
          [
            25,
            164
          ],
          [
            27,
            166
          ],
          [
            24,
            169
          ],
          [
            14,
            169
          ],
          [
            14,
            175
          ],
          [
            20,
            180
          ],
          [
            20,
            186
          ],
          [
            23,
            187
          ],
          [
            21,
            188
          ],
          [
            23,
            192
          ],
          [
            28,
            192
          ],
          [
            30,
            190
          ],
          [
            40,
            190
          ],
          [
            44,
            192
          ],
          [
            43,
            195
          ],
          [
            48,
            195
          ],
          [
            55,
            200
          ],
          [
            60,
            200
          ],
          [
            62,
            205
          ],
          [
            67,
            207
          ],
          [
            71,
            206
          ],
          [
            72,
            210
          ],
          [
            75,
            211
          ],
          [
            73,
            215
          ],
          [
            74,
            223
          ],
          [
            87,
            221
          ],
          [
            95,
            227
          ],
          [
            106,
            231
          ],
          [
            106,
            234
          ],
          [
            104,
            235
          ],
          [
            104,
            246
          ],
          [
            106,
            248
          ],
          [
            116,
            249
          ],
          [
            126,
            246
          ],
          [
            131,
            249
          ],
          [
            122,
            249
          ],
          [
            115,
            254
          ],
          [
            115,
            259
          ],
          [
            122,
            265
          ],
          [
            122,
            270
          ],
          [
            115,
            275
          ],
          [
            115,
            278
          ],
          [
            119,
            283
          ],
          [
            122,
            292
          ],
          [
            125,
            295
          ],
          [
            128,
            307
          ],
          [
            144,
            320
          ],
          [
            155,
            323
          ],
          [
            157,
            325
          ],
          [
            157,
            327
          ],
          [
            153,
            330
          ],
          [
            153,
            334
          ],
          [
            157,
            335
          ],
          [
            155,
            336
          ],
          [
            155,
            338
          ],
          [
            158,
            342
          ],
          [
            158,
            347
          ],
          [
            153,
            356
          ],
          [
            146,
            361
          ],
          [
            145,
            365
          ],
          [
            149,
            370
          ],
          [
            158,
            375
          ],
          [
            165,
            385
          ],
          [
            168,
            384
          ],
          [
            173,
            391
          ],
          [
            172,
            394
          ],
          [
            170,
            391
          ],
          [
            168,
            391
          ],
          [
            167,
            409
          ],
          [
            164,
            392
          ],
          [
            160,
            384
          ],
          [
            156,
            381
          ],
          [
            155,
            377
          ],
          [
            151,
            376
          ],
          [
            146,
            384
          ],
          [
            144,
            398
          ],
          [
            138,
            416
          ],
          [
            137,
            424
          ],
          [
            131,
            436
          ],
          [
            132,
            440
          ],
          [
            136,
            440
          ],
          [
            139,
            437
          ],
          [
            141,
            439
          ],
          [
            132,
            445
          ],
          [
            130,
            448
          ],
          [
            128,
            463
          ],
          [
            119,
            489
          ],
          [
            121,
            490
          ],
          [
            115,
            498
          ],
          [
            115,
            500
          ],
          [
            117,
            501
          ],
          [
            116,
            503
          ],
          [
            113,
            504
          ],
          [
            108,
            515
          ],
          [
            104,
            519
          ],
          [
            96,
            523
          ],
          [
            92,
            528
          ],
          [
            93,
            533
          ],
          [
            96,
            537
          ],
          [
            107,
            540
          ],
          [
            109,
            542
          ],
          [
            109,
            545
          ],
          [
            103,
            551
          ],
          [
            103,
            555
          ],
          [
            110,
            556
          ],
          [
            112,
            554
          ],
          [
            116,
            554
          ],
          [
            121,
            560
          ],
          [
            139,
            569
          ],
          [
            147,
            578
          ],
          [
            153,
            578
          ],
          [
            155,
            580
          ],
          [
            164,
            581
          ],
          [
            178,
            591
          ],
          [
            187,
            591
          ],
          [
            192,
            593
          ],
          [
            198,
            592
          ],
          [
            213,
            595
          ],
          [
            215,
            593
          ],
          [
            214,
            587
          ],
          [
            220,
            587
          ],
          [
            246,
            600
          ],
          [
            251,
            607
          ],
          [
            260,
            606
          ],
          [
            266,
            610
          ],
          [
            266,
            617
          ],
          [
            269,
            620
          ],
          [
            276,
            623
          ],
          [
            280,
            628
          ],
          [
            284,
            628
          ],
          [
            287,
            625
          ],
          [
            290,
            625
          ],
          [
            300,
            631
          ],
          [
            309,
            634
          ],
          [
            314,
            634
          ],
          [
            320,
            629
          ],
          [
            334,
            629
          ],
          [
            343,
            632
          ],
          [
            343,
            626
          ],
          [
            338,
            614
          ],
          [
            341,
            605
          ],
          [
            341,
            601
          ],
          [
            337,
            598
          ],
          [
            339,
            593
          ],
          [
            338,
            584
          ],
          [
            340,
            582
          ],
          [
            347,
            580
          ],
          [
            353,
            572
          ],
          [
            361,
            572
          ],
          [
            370,
            568
          ],
          [
            372,
            564
          ],
          [
            379,
            563
          ],
          [
            386,
            556
          ],
          [
            400,
            556
          ],
          [
            406,
            562
          ],
          [
            415,
            562
          ],
          [
            418,
            556
          ],
          [
            422,
            554
          ],
          [
            425,
            557
          ],
          [
            423,
            565
          ],
          [
            427,
            569
          ],
          [
            435,
            569
          ],
          [
            436,
            572
          ],
          [
            440,
            572
          ],
          [
            444,
            568
          ],
          [
            450,
            570
          ],
          [
            452,
            575
          ],
          [
            463,
            577
          ],
          [
            467,
            585
          ],
          [
            487,
            592
          ],
          [
            491,
            598
          ],
          [
            495,
            598
          ],
          [
            498,
            594
          ],
          [
            503,
            600
          ],
          [
            507,
            600
          ],
          [
            512,
            595
          ],
          [
            520,
            595
          ],
          [
            524,
            592
          ],
          [
            533,
            593
          ],
          [
            536,
            590
          ],
          [
            536,
            587
          ],
          [
            533,
            583
          ],
          [
            538,
            579
          ],
          [
            540,
            575
          ],
          [
            547,
            575
          ],
          [
            553,
            568
          ],
          [
            560,
            568
          ],
          [
            565,
            559
          ],
          [
            576,
            557
          ],
          [
            582,
            554
          ],
          [
            582,
            544
          ],
          [
            590,
            534
          ],
          [
            591,
            527
          ],
          [
            589,
            524
          ],
          [
            586,
            524
          ],
          [
            583,
            527
          ],
          [
            574,
            527
          ],
          [
            569,
            523
          ],
          [
            561,
            520
          ],
          [
            556,
            515
          ],
          [
            552,
            504
          ],
          [
            552,
            497
          ],
          [
            556,
            493
          ],
          [
            556,
            489
          ],
          [
            560,
            487
          ],
          [
            559,
            475
          ],
          [
            551,
            471
          ],
          [
            549,
            468
          ],
          [
            549,
            462
          ],
          [
            545,
            457
          ],
          [
            547,
            455
          ],
          [
            555,
            454
          ],
          [
            560,
            449
          ],
          [
            564,
            450
          ],
          [
            566,
            448
          ],
          [
            566,
            442
          ],
          [
            569,
            438
          ],
          [
            569,
            434
          ],
          [
            563,
            426
          ],
          [
            561,
            416
          ],
          [
            556,
            413
          ],
          [
            556,
            406
          ],
          [
            561,
            404
          ],
          [
            563,
            400
          ],
          [
            563,
            388
          ],
          [
            557,
            380
          ],
          [
            557,
            362
          ],
          [
            553,
            358
          ],
          [
            533,
            358
          ],
          [
            530,
            361
          ],
          [
            525,
            377
          ],
          [
            518,
            378
          ],
          [
            515,
            375
          ],
          [
            522,
            365
          ],
          [
            522,
            354
          ],
          [
            524,
            348
          ],
          [
            538,
            336
          ],
          [
            544,
            322
          ],
          [
            547,
            319
          ],
          [
            556,
            316
          ],
          [
            560,
            309
          ],
          [
            565,
            306
          ],
          [
            568,
            301
          ],
          [
            574,
            296
          ],
          [
            573,
            291
          ],
          [
            567,
            290
          ],
          [
            576,
            285
          ],
          [
            580,
            289
          ],
          [
            591,
            288
          ],
          [
            599,
            278
          ],
          [
            600,
            268
          ],
          [
            606,
            254
          ],
          [
            606,
            239
          ],
          [
            612,
            230
          ],
          [
            617,
            210
          ],
          [
            636,
            186
          ],
          [
            636,
            180
          ],
          [
            608,
            172
          ],
          [
            602,
            169
          ],
          [
            601,
            167
          ],
          [
            589,
            170
          ],
          [
            588,
            167
          ],
          [
            582,
            169
          ],
          [
            578,
            164
          ],
          [
            569,
            164
          ],
          [
            556,
            146
          ],
          [
            547,
            140
          ],
          [
            532,
            139
          ],
          [
            526,
            134
          ],
          [
            516,
            134
          ],
          [
            510,
            136
          ],
          [
            501,
            125
          ],
          [
            493,
            121
          ],
          [
            482,
            112
          ],
          [
            480,
            86
          ],
          [
            476,
            86
          ],
          [
            466,
            99
          ],
          [
            452,
            97
          ],
          [
            449,
            94
          ],
          [
            452,
            89
          ],
          [
            452,
            86
          ],
          [
            449,
            82
          ],
          [
            449,
            80
          ],
          [
            452,
            78
          ],
          [
            451,
            74
          ],
          [
            447,
            71
          ],
          [
            433,
            69
          ],
          [
            425,
            59
          ],
          [
            414,
            53
          ],
          [
            410,
            47
          ],
          [
            407,
            35
          ],
          [
            399,
            34
          ],
          [
            391,
            36
          ],
          [
            384,
            28
          ],
          [
            385,
            11
          ],
          [
            382,
            8
          ]
        ]
      }
    },
    {
      "type": "Feature",
      "properties": {
        "kind": "river",
        "source_class": "label-seeded dark ridge skeleton",
        "source": "image_processing",
        "confidence": "pixel-derived",
        "label_evidence": [
          "Rhône",
          "Saône"
        ],
        "review_id": "river-13-3f527ed4b2",
        "review_status": "approved-automatic"
      },
      "geometry": {
        "type": "LineString",
        "coordinates": [
          [
            493,
            292
          ],
          [
            486,
            303
          ]
        ]
      }
    },
    {
      "type": "Feature",
      "properties": {
        "kind": "river",
        "source_class": "label-seeded dark ridge skeleton",
        "source": "image_processing",
        "confidence": "pixel-derived",
        "label_evidence": [
          "Rhône",
          "Saône"
        ],
        "review_id": "river-14-f8c4602d8b",
        "review_status": "approved-automatic"
      },
      "geometry": {
        "type": "LineString",
        "coordinates": [
          [
            494,
            291
          ],
          [
            495,
            287
          ],
          [
            500,
            281
          ],
          [
            512,
            271
          ],
          [
            522,
            266
          ]
        ]
      }
    },
    {
      "type": "Feature",
      "properties": {
        "kind": "river",
        "source_class": "label-seeded dark ridge skeleton",
        "source": "image_processing",
        "confidence": "pixel-derived",
        "label_evidence": [
          "Seine"
        ],
        "review_id": "river-15-3849aaa760",
        "review_status": "approved-automatic"
      },
      "geometry": {
        "type": "LineString",
        "coordinates": [
          [
            359,
            187
          ],
          [
            373,
            203
          ],
          [
            397,
            205
          ]
        ]
      }
    },
    {
      "type": "Feature",
      "properties": {
        "kind": "river",
        "source_class": "label-seeded dark ridge skeleton",
        "source": "image_processing",
        "confidence": "pixel-derived",
        "label_evidence": [
          "Loire"
        ],
        "review_id": "river-18-f911160546",
        "review_status": "approved-automatic"
      },
      "geometry": {
        "type": "LineString",
        "coordinates": [
          [
            414,
            432
          ],
          [
            421,
            418
          ]
        ]
      }
    },
    {
      "type": "Feature",
      "properties": {
        "kind": "river",
        "source_class": "label-seeded dark ridge skeleton",
        "source": "image_processing",
        "confidence": "pixel-derived",
        "label_evidence": [
          "Loire"
        ],
        "review_id": "river-19-2b99523d3b",
        "review_status": "approved-automatic"
      },
      "geometry": {
        "type": "LineString",
        "coordinates": [
          [
            421,
            416
          ],
          [
            421,
            404
          ],
          [
            412,
            385
          ],
          [
            416,
            372
          ],
          [
            411,
            362
          ],
          [
            412,
            354
          ],
          [
            407,
            346
          ]
        ]
      }
    },
    {
      "type": "Feature",
      "properties": {
        "kind": "river",
        "source_class": "label-seeded dark ridge skeleton",
        "source": "image_processing",
        "confidence": "pixel-derived",
        "label_evidence": [
          "Loire"
        ],
        "review_id": "river-20-58b83ea4ce",
        "review_status": "approved-automatic"
      },
      "geometry": {
        "type": "LineString",
        "coordinates": [
          [
            328,
            240
          ],
          [
            336,
            240
          ],
          [
            346,
            249
          ],
          [
            358,
            255
          ],
          [
            362,
            259
          ],
          [
            366,
            274
          ],
          [
            366,
            284
          ],
          [
            372,
            294
          ],
          [
            372,
            303
          ],
          [
            377,
            310
          ]
        ]
      }
    },
    {
      "type": "Feature",
      "properties": {
        "kind": "river",
        "source_class": "label-seeded dark ridge skeleton",
        "source": "image_processing",
        "confidence": "pixel-derived",
        "label_evidence": [
          "Meuse"
        ],
        "review_id": "river-22-29d37426f2",
        "review_status": "approved-automatic"
      },
      "geometry": {
        "type": "LineString",
        "coordinates": [
          [
            488,
            133
          ],
          [
            485,
            126
          ],
          [
            481,
            123
          ],
          [
            477,
            123
          ],
          [
            475,
            120
          ],
          [
            476,
            110
          ],
          [
            474,
            107
          ],
          [
            474,
            100
          ]
        ]
      }
    },
    {
      "type": "Feature",
      "properties": {
        "kind": "river",
        "source_class": "label-seeded dark ridge skeleton",
        "source": "image_processing",
        "confidence": "pixel-derived",
        "label_evidence": [
          "Rhône"
        ],
        "review_id": "river-23-10f0a39c99",
        "review_status": "approved-automatic"
      },
      "geometry": {
        "type": "LineString",
        "coordinates": [
          [
            449,
            452
          ],
          [
            447,
            449
          ],
          [
            448,
            439
          ]
        ]
      }
    },
    {
      "type": "Feature",
      "properties": {
        "kind": "river",
        "source_class": "label-seeded dark ridge skeleton",
        "source": "image_processing",
        "confidence": "pixel-derived",
        "label_evidence": [
          "Rhône"
        ],
        "review_id": "river-24-529fd5c9f7",
        "review_status": "approved-automatic"
      },
      "geometry": {
        "type": "LineString",
        "coordinates": [
          [
            456,
            402
          ],
          [
            454,
            404
          ],
          [
            453,
            417
          ],
          [
            449,
            428
          ],
          [
            452,
            439
          ],
          [
            450,
            452
          ]
        ]
      }
    },
    {
      "type": "Feature",
      "properties": {
        "kind": "river",
        "source_class": "label-seeded dark ridge skeleton",
        "source": "image_processing",
        "confidence": "pixel-derived",
        "label_evidence": [
          "Rhône"
        ],
        "review_id": "river-25-4462d52ac9",
        "review_status": "approved-automatic"
      },
      "geometry": {
        "type": "LineString",
        "coordinates": [
          [
            436,
            565
          ],
          [
            429,
            559
          ],
          [
            430,
            552
          ],
          [
            428,
            541
          ],
          [
            437,
            530
          ],
          [
            437,
            522
          ],
          [
            434,
            518
          ],
          [
            435,
            507
          ]
        ]
      }
    },
    {
      "type": "Feature",
      "properties": {
        "kind": "river",
        "source_class": "label-guided shortest path across a text gap",
        "source": "image_processing",
        "confidence": "label-guided",
        "label_evidence": [
          "Loire"
        ],
        "review_id": "river-27-717c25a3de",
        "review_status": "approved-automatic"
      },
      "geometry": {
        "type": "LineString",
        "coordinates": [
          [
            407,
            345
          ],
          [
            399,
            333
          ],
          [
            377,
            311
          ]
        ]
      }
    },
    {
      "type": "Feature",
      "properties": {
        "kind": "river",
        "source_class": "label-guided shortest path across a text gap",
        "source": "image_processing",
        "confidence": "label-guided",
        "label_evidence": [
          "Rhône"
        ],
        "review_id": "river-29-7256a9b297",
        "review_status": "approved-automatic"
      },
      "geometry": {
        "type": "LineString",
        "coordinates": [
          [
            436,
            507
          ],
          [
            436,
            498
          ],
          [
            443,
            484
          ],
          [
            449,
            462
          ]
        ]
      }
    },
    {
      "type": "Feature",
      "properties": {
        "kind": "river",
        "source_class": "reviewed river path",
        "source": "manual_review",
        "confidence": "reviewed",
        "label_evidence": [],
        "review_id": "manual-msd6fsm8",
        "edit_kind": "drawn",
        "connections": {
          "end": {
            "target_id": "river-15-3849aaa760",
            "segment_index": 0,
            "t": 0.0,
            "point": [
              359.0,
              187.0
            ],
            "distance_px": 0.0
          }
        }
      },
      "geometry": {
        "type": "LineString",
        "coordinates": [
          [
            266.84,
            114.02
          ],
          [
            302.54,
            120.52
          ],
          [
            322.02,
            148.65
          ],
          [
            359.0,
            187.0
          ]
        ]
      }
    },
    {
      "type": "Feature",
      "properties": {
        "kind": "river",
        "source_class": "reviewed river path",
        "source": "manual_review",
        "confidence": "reviewed",
        "label_evidence": [],
        "review_id": "manual-msd6g3ii",
        "edit_kind": "drawn",
        "connections": {
          "start": {
            "target_id": "river-15-3849aaa760",
            "segment_index": 1,
            "t": 1.0,
            "point": [
              397.0,
              205.0
            ],
            "distance_px": 0.0
          }
        }
      },
      "geometry": {
        "type": "LineString",
        "coordinates": [
          [
            397.0,
            205.0
          ],
          [
            422.64,
            202.75
          ],
          [
            444.28,
            233.04
          ],
          [
            460.51,
            277.4
          ]
        ]
      }
    },
    {
      "type": "Feature",
      "properties": {
        "kind": "river",
        "source_class": "reviewed river path",
        "source": "manual_review",
        "confidence": "reviewed",
        "label_evidence": [],
        "review_id": "manual-msd6gvsu",
        "edit_kind": "drawn",
        "connections": {
          "start": {
            "target_id": "river-13-3f527ed4b2",
            "segment_index": 0,
            "t": 1.0,
            "point": [
              486.0,
              303.0
            ],
            "distance_px": 0.0
          },
          "end": {
            "target_id": "river-24-529fd5c9f7",
            "segment_index": 0,
            "t": 0.0,
            "point": [
              456.0,
              402.0
            ],
            "distance_px": 0.0
          }
        }
      },
      "geometry": {
        "type": "LineString",
        "coordinates": [
          [
            486.0,
            303.0
          ],
          [
            468.08,
            325.01
          ],
          [
            456.0,
            402.0
          ]
        ]
      }
    },
    {
      "type": "Feature",
      "properties": {
        "kind": "river",
        "source_class": "reviewed river path",
        "source": "manual_review",
        "confidence": "reviewed",
        "label_evidence": [],
        "review_id": "manual-msd6harz",
        "edit_kind": "drawn",
        "connections": {}
      },
      "geometry": {
        "type": "LineString",
        "coordinates": [
          [
            171.63,
            428.87
          ],
          [
            196.51,
            460.25
          ],
          [
            219.23,
            486.22
          ],
          [
            241.96,
            501.37
          ],
          [
            258.18,
            520.84
          ],
          [
            261.43,
            539.23
          ],
          [
            248.45,
            555.46
          ],
          [
            225.73,
            563.04
          ],
          [
            213.82,
            565.2
          ],
          [
            220.32,
            585.76
          ]
        ]
      }
    },
    {
      "type": "Feature",
      "properties": {
        "kind": "river",
        "source_class": "reviewed river path",
        "source": "manual_review",
        "confidence": "reviewed",
        "label_evidence": [],
        "review_id": "manual-msd6hl0z",
        "edit_kind": "drawn",
        "connections": {
          "end": {
            "target_id": "river-20-58b83ea4ce",
            "segment_index": 0,
            "t": 0.0,
            "point": [
              328.0,
              240.0
            ],
            "distance_px": 0.0
          }
        }
      },
      "geometry": {
        "type": "LineString",
        "coordinates": [
          [
            129.43,
            253.6
          ],
          [
            195.43,
            253.6
          ],
          [
            233.3,
            266.58
          ],
          [
            270.09,
            265.5
          ],
          [
            328.0,
            240.0
          ]
        ]
      }
    },
    {
      "type": "Feature",
      "properties": {
        "kind": "river",
        "source_class": "reviewed river path",
        "source": "manual_review",
        "confidence": "reviewed",
        "label_evidence": [],
        "review_id": "manual-msd6i39z",
        "edit_kind": "drawn",
        "connections": {
          "start": {
            "target_id": "river-22-29d37426f2",
            "segment_index": 0,
            "t": 0.0,
            "point": [
              488.0,
              133.0
            ],
            "distance_px": 0.0
          }
        }
      },
      "geometry": {
        "type": "LineString",
        "coordinates": [
          [
            488.0,
            133.0
          ],
          [
            505.95,
            182.19
          ],
          [
            509.2,
            211.4
          ],
          [
            500.54,
            246.02
          ]
        ]
      }
    },
    {
      "type": "Feature",
      "properties": {
        "kind": "river",
        "source_class": "reviewed river path",
        "source": "manual_review",
        "confidence": "reviewed",
        "label_evidence": [],
        "review_id": "manual-msd6ibna",
        "edit_kind": "drawn",
        "connections": {}
      },
      "geometry": {
        "type": "LineString",
        "coordinates": [
          [
            552.48,
            144.32
          ],
          [
            535.17,
            186.52
          ],
          [
            535.17,
            202.75
          ],
          [
            548.15,
            230.88
          ],
          [
            561.13,
            264.42
          ]
        ]
      }
    },
    {
      "type": "Feature",
      "properties": {
        "kind": "river",
        "source_class": "reviewed river path",
        "source": "manual_review",
        "confidence": "reviewed",
        "label_evidence": [],
        "review_id": "manual-msd6m1tq",
        "edit_kind": "drawn",
        "connections": {}
      },
      "geometry": {
        "type": "LineString",
        "coordinates": [
          [
            597.13,
            284.12
          ],
          [
            591.36,
            241.78
          ],
          [
            604.83,
            222.54
          ],
          [
            612.53,
            205.21
          ],
          [
            620.23,
            197.52
          ],
          [
            629.85,
            193.67
          ]
        ]
      }
    }
  ]
}