{"type": "FeatureCollection", "coordinate_space": "map_area.png pixels, y down", "features": [{"type": "Feature", "properties": {"class": "Forest", "class_index": 0, "area_px": 277.0}, "geometry": {"type": "Polygon", "coordinates": [[[661, 671], [657, 677], [656, 689], [659, 692], [658, 697], [661, 707], [665, 709], [667, 707], [667, 701], [665, 700], [667, 683], [665, 675], [661, 671]]]}}, {"type": "Feature", "properties": {"class": "Forest", "class_index": 0, "area_px": 199.5}, "geometry": {"type": "Polygon", "coordinates": [[[550, 571], [543, 566], [538, 568], [537, 572], [531, 577], [523, 579], [523, 586], [533, 584], [540, 575], [547, 575], [550, 573], [550, 571]]]}}, {"type": "Feature", "properties": {"class": "Forest", "class_index": 0, "area_px": 2748.5}, "geometry": {"type": "Polygon", "coordinates": [[[138, 569], [147, 578], [153, 578], [155, 580], [164, 581], [178, 591], [187, 591], [192, 593], [198, 592], [213, 595], [215, 593], [214, 587], [220, 587], [246, 600], [251, 607], [260, 606], [266, 610], [266, 617], [269, 620], [276, 623], [280, 628], [284, 628], [287, 625], [290, 625], [300, 631], [309, 634], [314, 634], [319, 630], [317, 627], [311, 625], [306, 619], [304, 622], [300, 619], [300, 610], [284, 610], [276, 597], [268, 594], [265, 598], [263, 598], [257, 590], [254, 590], [247, 586], [239, 585], [232, 581], [230, 582], [223, 579], [220, 580], [215, 577], [212, 579], [203, 579], [200, 577], [198, 573], [186, 573], [177, 569], [171, 563], [167, 563], [160, 567], [141, 566], [138, 569]]]}}, {"type": "Feature", "properties": {"class": "Forest", "class_index": 0, "area_px": 263.0}, "geometry": {"type": "Polygon", "coordinates": [[[246, 456], [246, 464], [248, 471], [251, 473], [265, 473], [265, 470], [259, 462], [258, 455], [250, 454], [246, 456]]]}}, {"type": "Feature", "properties": {"class": "Forest", "class_index": 0, "area_px": 307.0}, "geometry": {"type": "Polygon", "coordinates": [[[485, 453], [481, 454], [464, 467], [465, 469], [471, 470], [478, 479], [482, 479], [485, 474], [484, 463], [487, 455], [485, 453]]]}}, {"type": "Feature", "properties": {"class": "Forest", "class_index": 0, "area_px": 337.0}, "geometry": {"type": "Polygon", "coordinates": [[[274, 439], [269, 433], [266, 433], [254, 437], [245, 444], [252, 448], [259, 449], [265, 453], [269, 448], [273, 446], [274, 439]]]}}, {"type": "Feature", "properties": {"class": "Forest", "class_index": 0, "area_px": 2009.5}, "geometry": {"type": "Polygon", "coordinates": [[[409, 427], [402, 424], [391, 426], [389, 424], [379, 422], [376, 425], [375, 434], [379, 445], [377, 447], [377, 453], [374, 458], [369, 475], [367, 500], [364, 505], [365, 515], [367, 515], [377, 506], [379, 501], [388, 494], [393, 482], [403, 473], [403, 471], [396, 464], [393, 445], [398, 441], [403, 442], [411, 436], [411, 430], [409, 427]]]}}, {"type": "Feature", "properties": {"class": "Forest", "class_index": 0, "area_px": 679.5}, "geometry": {"type": "Polygon", "coordinates": [[[201, 410], [199, 414], [199, 419], [205, 430], [203, 433], [204, 437], [211, 441], [233, 445], [235, 435], [229, 428], [226, 427], [224, 422], [222, 420], [213, 419], [201, 410]]]}}, {"type": "Feature", "properties": {"class": "Forest", "class_index": 0, "area_px": 322.5}, "geometry": {"type": "Polygon", "coordinates": [[[403, 383], [399, 383], [396, 386], [396, 391], [394, 395], [397, 399], [396, 413], [400, 416], [404, 414], [405, 404], [410, 396], [403, 383]]]}}, {"type": "Feature", "properties": {"class": "Forest", "class_index": 0, "area_px": 4947.0}, "geometry": {"type": "Polygon", "coordinates": [[[156, 380], [149, 379], [146, 384], [144, 398], [138, 416], [137, 424], [131, 436], [132, 440], [136, 440], [139, 437], [141, 439], [132, 445], [130, 448], [128, 463], [119, 489], [121, 490], [120, 493], [116, 495], [115, 500], [117, 501], [115, 504], [113, 504], [110, 512], [115, 516], [119, 515], [123, 509], [135, 506], [156, 509], [160, 511], [163, 510], [167, 512], [177, 511], [177, 509], [185, 499], [175, 494], [169, 493], [166, 495], [161, 493], [161, 490], [166, 485], [158, 479], [160, 475], [156, 467], [159, 464], [167, 471], [168, 476], [195, 493], [199, 498], [205, 496], [208, 490], [206, 488], [207, 483], [204, 477], [201, 474], [197, 474], [195, 472], [190, 473], [183, 470], [178, 463], [177, 455], [174, 452], [168, 452], [162, 443], [161, 424], [157, 418], [157, 410], [152, 398], [152, 394], [155, 391], [162, 389], [160, 384], [156, 380]]]}}, {"type": "Feature", "properties": {"class": "Forest", "class_index": 0, "area_px": 5434.5}, "geometry": {"type": "Polygon", "coordinates": [[[549, 358], [549, 362], [535, 377], [536, 387], [542, 401], [539, 411], [539, 421], [549, 429], [549, 431], [544, 436], [544, 442], [513, 443], [508, 449], [505, 449], [502, 453], [506, 456], [507, 459], [505, 461], [500, 460], [499, 465], [510, 485], [518, 494], [524, 496], [527, 499], [527, 501], [522, 506], [522, 510], [531, 519], [534, 526], [543, 530], [557, 528], [566, 534], [576, 532], [587, 538], [591, 530], [589, 524], [586, 524], [583, 527], [572, 526], [569, 523], [561, 520], [556, 515], [552, 504], [552, 497], [556, 493], [556, 489], [560, 487], [559, 475], [552, 472], [549, 468], [549, 462], [545, 457], [547, 455], [555, 454], [560, 449], [564, 450], [566, 448], [566, 442], [569, 438], [569, 434], [563, 426], [561, 416], [556, 413], [556, 406], [561, 404], [563, 400], [563, 388], [557, 380], [557, 362], [555, 359], [549, 358]]]}}, {"type": "Feature", "properties": {"class": "Forest", "class_index": 0, "area_px": 856.0}, "geometry": {"type": "Polygon", "coordinates": [[[431, 289], [425, 290], [421, 295], [419, 295], [415, 290], [412, 291], [413, 292], [411, 299], [416, 306], [412, 310], [408, 310], [405, 312], [398, 322], [399, 328], [406, 326], [413, 319], [418, 319], [426, 324], [431, 324], [433, 321], [432, 318], [434, 316], [443, 314], [444, 309], [440, 306], [435, 306], [433, 304], [431, 289]]]}}, {"type": "Feature", "properties": {"class": "Forest", "class_index": 0, "area_px": 135.5}, "geometry": {"type": "Polygon", "coordinates": [[[441, 269], [436, 266], [428, 267], [421, 270], [420, 274], [421, 276], [426, 274], [439, 275], [441, 274], [441, 269]]]}}, {"type": "Feature", "properties": {"class": "Forest", "class_index": 0, "area_px": 204.0}, "geometry": {"type": "Polygon", "coordinates": [[[476, 223], [465, 224], [463, 227], [466, 231], [466, 237], [468, 242], [471, 242], [479, 237], [476, 223]]]}}, {"type": "Feature", "properties": {"class": "Forest", "class_index": 0, "area_px": 729.5}, "geometry": {"type": "Polygon", "coordinates": [[[589, 222], [578, 229], [575, 235], [569, 241], [563, 242], [559, 245], [559, 252], [556, 253], [555, 256], [557, 266], [556, 271], [558, 273], [566, 272], [565, 261], [568, 258], [577, 258], [590, 231], [589, 222]]]}}, {"type": "Feature", "properties": {"class": "Forest", "class_index": 0, "area_px": 190.5}, "geometry": {"type": "Polygon", "coordinates": [[[501, 212], [493, 218], [486, 218], [484, 233], [487, 233], [498, 225], [502, 215], [501, 212]]]}}, {"type": "Feature", "properties": {"class": "Forest", "class_index": 0, "area_px": 736.5}, "geometry": {"type": "Polygon", "coordinates": [[[616, 174], [608, 172], [583, 197], [583, 203], [576, 209], [572, 210], [570, 213], [572, 221], [579, 220], [584, 217], [589, 219], [590, 218], [591, 207], [595, 203], [596, 198], [602, 194], [610, 193], [610, 190], [614, 185], [616, 179], [616, 174]]]}}, {"type": "Feature", "properties": {"class": "Forest", "class_index": 0, "area_px": 118.5}, "geometry": {"type": "Polygon", "coordinates": [[[505, 165], [504, 168], [506, 177], [509, 179], [510, 184], [518, 183], [522, 180], [518, 178], [515, 179], [511, 175], [509, 167], [505, 165]]]}}, {"type": "Feature", "properties": {"class": "Forest", "class_index": 0, "area_px": 109.0}, "geometry": {"type": "Polygon", "coordinates": [[[492, 157], [490, 159], [490, 167], [493, 174], [499, 182], [499, 174], [492, 157]]]}}, {"type": "Feature", "properties": {"class": "Grassland", "class_index": 1, "area_px": 9.5}, "geometry": {"type": "Polygon", "coordinates": [[[656, 691], [655, 693], [656, 695], [658, 695], [658, 692], [656, 691]]]}}, {"type": "Feature", "properties": {"class": "Grassland", "class_index": 1, "area_px": 2255.5}, "geometry": {"type": "Polygon", "coordinates": [[[662, 628], [658, 631], [658, 642], [653, 647], [640, 653], [636, 650], [634, 650], [631, 653], [631, 656], [635, 660], [635, 662], [631, 664], [631, 669], [636, 675], [641, 676], [644, 675], [644, 672], [646, 670], [648, 671], [655, 685], [657, 674], [661, 670], [666, 675], [668, 683], [666, 700], [668, 701], [668, 707], [665, 710], [663, 710], [660, 707], [658, 701], [655, 706], [657, 713], [656, 720], [658, 720], [661, 725], [665, 725], [670, 715], [670, 710], [674, 708], [676, 705], [675, 696], [677, 689], [686, 673], [686, 664], [684, 656], [685, 651], [678, 646], [678, 644], [672, 637], [668, 629], [662, 628]], [[669, 660], [673, 659], [680, 665], [680, 672], [676, 676], [671, 675], [667, 665], [669, 660]]]}}, {"type": "Feature", "properties": {"class": "Grassland", "class_index": 1, "area_px": 4734.0}, "geometry": {"type": "Polygon", "coordinates": [[[341, 601], [337, 598], [339, 593], [339, 583], [328, 580], [314, 580], [305, 588], [300, 587], [298, 584], [294, 582], [284, 593], [271, 588], [268, 584], [270, 581], [269, 565], [263, 552], [263, 549], [271, 542], [265, 537], [261, 537], [262, 542], [259, 547], [252, 550], [243, 559], [239, 559], [227, 565], [214, 567], [195, 567], [191, 563], [190, 558], [195, 551], [197, 551], [191, 541], [177, 550], [173, 550], [166, 544], [158, 543], [158, 546], [165, 554], [165, 557], [162, 560], [158, 559], [142, 544], [135, 541], [121, 541], [115, 544], [110, 544], [103, 551], [104, 556], [116, 554], [121, 560], [137, 568], [141, 565], [160, 566], [167, 562], [171, 562], [177, 568], [186, 572], [196, 571], [203, 578], [212, 578], [215, 576], [220, 579], [223, 578], [230, 581], [232, 580], [236, 583], [247, 585], [254, 589], [257, 589], [263, 597], [265, 597], [268, 593], [276, 596], [280, 600], [284, 609], [321, 609], [329, 601], [341, 601]]]}}, {"type": "Feature", "properties": {"class": "Grassland", "class_index": 1, "area_px": 737.5}, "geometry": {"type": "Polygon", "coordinates": [[[419, 518], [413, 524], [412, 528], [416, 530], [420, 541], [426, 541], [429, 543], [429, 551], [425, 556], [425, 561], [423, 565], [427, 569], [435, 569], [436, 572], [440, 572], [444, 568], [449, 570], [450, 567], [439, 559], [435, 551], [435, 547], [437, 546], [438, 541], [433, 535], [434, 534], [430, 526], [425, 520], [419, 518]]]}}, {"type": "Feature", "properties": {"class": "Grassland", "class_index": 1, "area_px": 944.5}, "geometry": {"type": "Polygon", "coordinates": [[[180, 517], [177, 512], [167, 513], [163, 511], [160, 512], [156, 510], [135, 507], [123, 510], [119, 516], [115, 517], [109, 512], [104, 519], [93, 526], [92, 530], [93, 532], [99, 529], [119, 531], [126, 528], [137, 519], [142, 517], [150, 517], [163, 521], [175, 521], [179, 520], [180, 517]]]}}, {"type": "Feature", "properties": {"class": "Grassland", "class_index": 1, "area_px": 3493.0}, "geometry": {"type": "Polygon", "coordinates": [[[586, 538], [576, 533], [566, 535], [557, 529], [545, 531], [540, 530], [532, 525], [530, 519], [521, 510], [521, 506], [508, 506], [507, 515], [510, 523], [510, 535], [507, 538], [505, 548], [501, 552], [501, 554], [493, 561], [490, 571], [479, 572], [476, 578], [469, 586], [487, 592], [491, 598], [495, 598], [498, 594], [499, 595], [499, 592], [502, 588], [502, 572], [511, 571], [511, 561], [513, 559], [517, 561], [518, 567], [536, 569], [543, 565], [543, 558], [547, 553], [561, 552], [570, 558], [581, 555], [582, 544], [586, 538]]]}}, {"type": "Feature", "properties": {"class": "Grassland", "class_index": 1, "area_px": 1074.0}, "geometry": {"type": "Polygon", "coordinates": [[[366, 495], [362, 495], [353, 503], [348, 510], [342, 511], [338, 514], [320, 519], [296, 519], [289, 524], [273, 524], [269, 521], [266, 509], [269, 506], [275, 506], [277, 504], [264, 500], [261, 503], [253, 503], [249, 506], [256, 516], [257, 520], [274, 533], [276, 542], [290, 542], [290, 533], [288, 531], [289, 527], [294, 525], [298, 526], [301, 524], [310, 524], [312, 522], [317, 523], [321, 521], [323, 522], [325, 520], [337, 519], [354, 513], [365, 503], [366, 495]]]}}, {"type": "Feature", "properties": {"class": "Grassland", "class_index": 1, "area_px": 160.5}, "geometry": {"type": "Polygon", "coordinates": [[[434, 491], [424, 502], [422, 502], [424, 508], [428, 512], [433, 512], [436, 500], [434, 491]]]}}, {"type": "Feature", "properties": {"class": "Grassland", "class_index": 1, "area_px": 1844.5}, "geometry": {"type": "Polygon", "coordinates": [[[462, 485], [455, 497], [455, 505], [466, 516], [466, 525], [462, 528], [462, 533], [464, 536], [469, 538], [481, 538], [485, 536], [495, 537], [503, 530], [503, 524], [497, 511], [499, 502], [480, 487], [471, 482], [462, 485]]]}}, {"type": "Feature", "properties": {"class": "Grassland", "class_index": 1, "area_px": 224.5}, "geometry": {"type": "Polygon", "coordinates": [[[488, 455], [485, 463], [486, 473], [499, 471], [500, 468], [498, 465], [498, 461], [500, 459], [505, 460], [505, 456], [502, 455], [497, 457], [490, 457], [488, 455]]]}}, {"type": "Feature", "properties": {"class": "Grassland", "class_index": 1, "area_px": 4686.5}, "geometry": {"type": "Polygon", "coordinates": [[[376, 453], [376, 448], [368, 450], [365, 449], [361, 443], [361, 428], [359, 425], [361, 415], [358, 403], [359, 401], [356, 397], [346, 399], [344, 398], [335, 408], [333, 414], [321, 420], [315, 427], [310, 428], [301, 434], [292, 445], [274, 446], [269, 449], [265, 454], [259, 450], [252, 449], [245, 445], [234, 445], [236, 450], [245, 455], [254, 453], [260, 456], [267, 456], [276, 452], [287, 453], [292, 451], [299, 451], [304, 458], [305, 457], [308, 459], [317, 457], [327, 459], [335, 457], [337, 459], [337, 464], [333, 468], [327, 470], [318, 470], [312, 472], [310, 471], [297, 475], [285, 473], [279, 475], [271, 475], [271, 478], [276, 480], [294, 481], [303, 478], [306, 479], [308, 477], [310, 478], [315, 476], [321, 476], [325, 478], [326, 477], [344, 488], [352, 491], [360, 491], [367, 487], [370, 467], [376, 453]]]}}, {"type": "Feature", "properties": {"class": "Grassland", "class_index": 1, "area_px": 2006.0}, "geometry": {"type": "Polygon", "coordinates": [[[534, 378], [531, 379], [529, 389], [523, 396], [519, 397], [505, 409], [501, 410], [499, 425], [497, 430], [491, 437], [491, 442], [494, 446], [499, 448], [505, 441], [543, 442], [543, 436], [548, 431], [548, 429], [538, 421], [538, 411], [541, 401], [535, 387], [534, 378]]]}}, {"type": "Feature", "properties": {"class": "Grassland", "class_index": 1, "area_px": 12.5}, "geometry": {"type": "Polygon", "coordinates": [[[149, 378], [154, 379], [155, 377], [151, 376], [149, 378]]]}}, {"type": "Feature", "properties": {"class": "Grassland", "class_index": 1, "area_px": 568.0}, "geometry": {"type": "Polygon", "coordinates": [[[149, 360], [149, 370], [157, 375], [162, 374], [166, 368], [169, 368], [173, 372], [173, 374], [178, 377], [189, 379], [192, 377], [188, 372], [186, 374], [183, 374], [179, 370], [177, 364], [166, 351], [157, 350], [149, 360]]]}}, {"type": "Feature", "properties": {"class": "Grassland", "class_index": 1, "area_px": 312.5}, "geometry": {"type": "Polygon", "coordinates": [[[153, 331], [158, 335], [167, 336], [175, 331], [179, 332], [181, 330], [186, 330], [186, 325], [183, 322], [159, 323], [153, 331]]]}}, {"type": "Feature", "properties": {"class": "Grassland", "class_index": 1, "area_px": 144.5}, "geometry": {"type": "Polygon", "coordinates": [[[464, 325], [470, 329], [474, 329], [478, 326], [483, 326], [479, 318], [476, 316], [473, 316], [464, 325]]]}}, {"type": "Feature", "properties": {"class": "Grassland", "class_index": 1, "area_px": 466.5}, "geometry": {"type": "Polygon", "coordinates": [[[238, 280], [239, 283], [244, 287], [246, 292], [244, 302], [244, 313], [246, 318], [249, 318], [251, 316], [251, 310], [255, 306], [260, 307], [265, 312], [269, 311], [272, 308], [272, 306], [260, 299], [254, 293], [249, 285], [249, 282], [245, 279], [238, 280]]]}}, {"type": "Feature", "properties": {"class": "Grassland", "class_index": 1, "area_px": 809.0}, "geometry": {"type": "Polygon", "coordinates": [[[249, 216], [246, 213], [244, 213], [237, 222], [228, 225], [216, 226], [212, 229], [205, 238], [206, 254], [207, 255], [211, 248], [220, 245], [252, 245], [258, 243], [258, 241], [241, 242], [231, 237], [233, 233], [243, 230], [249, 224], [249, 216]]]}}, {"type": "Feature", "properties": {"class": "Grassland", "class_index": 1, "area_px": 18316.0}, "geometry": {"type": "Polygon", "coordinates": [[[366, 198], [355, 207], [355, 209], [357, 211], [360, 210], [362, 215], [368, 212], [367, 210], [369, 208], [377, 208], [385, 219], [386, 227], [375, 241], [371, 244], [353, 244], [345, 240], [344, 231], [335, 232], [327, 237], [322, 238], [320, 240], [320, 247], [310, 255], [299, 260], [298, 264], [308, 274], [308, 280], [313, 278], [326, 280], [329, 279], [332, 282], [332, 286], [339, 291], [355, 277], [360, 277], [362, 279], [363, 289], [366, 296], [368, 307], [353, 324], [353, 326], [358, 331], [375, 335], [380, 342], [380, 347], [373, 354], [373, 357], [375, 361], [378, 363], [378, 374], [382, 381], [385, 379], [387, 373], [386, 336], [388, 334], [391, 334], [395, 338], [407, 365], [407, 372], [403, 382], [411, 395], [409, 401], [406, 404], [406, 412], [403, 416], [400, 417], [395, 413], [396, 399], [393, 396], [391, 398], [389, 407], [381, 411], [380, 421], [389, 423], [391, 425], [402, 423], [409, 426], [414, 419], [419, 417], [427, 418], [430, 416], [431, 410], [436, 409], [439, 400], [439, 391], [444, 383], [444, 376], [451, 353], [455, 347], [460, 346], [462, 340], [460, 334], [458, 334], [452, 339], [443, 341], [441, 339], [441, 333], [451, 328], [455, 324], [455, 320], [459, 316], [455, 313], [455, 302], [457, 294], [461, 288], [459, 286], [459, 274], [454, 255], [467, 243], [465, 231], [462, 227], [464, 223], [462, 223], [443, 209], [428, 206], [424, 201], [417, 200], [408, 203], [391, 203], [388, 205], [382, 200], [382, 198], [366, 198]], [[396, 246], [400, 254], [400, 269], [394, 276], [386, 280], [383, 285], [383, 290], [380, 293], [375, 293], [372, 290], [371, 284], [372, 271], [375, 268], [375, 266], [383, 262], [389, 256], [391, 248], [393, 246], [396, 246]], [[397, 209], [414, 209], [423, 213], [429, 223], [443, 240], [451, 255], [453, 273], [450, 281], [447, 284], [443, 282], [438, 275], [426, 275], [422, 277], [421, 282], [416, 289], [419, 294], [421, 294], [425, 289], [431, 288], [433, 290], [434, 304], [440, 305], [445, 309], [443, 315], [436, 316], [433, 318], [434, 321], [431, 325], [426, 325], [418, 320], [413, 320], [406, 327], [402, 329], [398, 328], [397, 322], [404, 312], [408, 309], [412, 309], [415, 306], [410, 299], [412, 292], [411, 290], [404, 285], [404, 275], [408, 269], [405, 254], [407, 252], [413, 252], [427, 262], [430, 258], [425, 252], [413, 248], [402, 239], [399, 229], [399, 222], [395, 214], [395, 211], [397, 209]]]}}, {"type": "Feature", "properties": {"class": "Grassland", "class_index": 1, "area_px": 148.5}, "geometry": {"type": "Polygon", "coordinates": [[[628, 197], [621, 196], [617, 198], [612, 198], [609, 201], [612, 204], [613, 211], [616, 215], [618, 208], [628, 197]]]}}, {"type": "Feature", "properties": {"class": "Grassland", "class_index": 1, "area_px": 173.5}, "geometry": {"type": "Polygon", "coordinates": [[[416, 163], [407, 157], [403, 157], [399, 162], [391, 165], [398, 171], [401, 171], [404, 168], [416, 163]]]}}, {"type": "Feature", "properties": {"class": "Grassland", "class_index": 1, "area_px": 219.0}, "geometry": {"type": "Polygon", "coordinates": [[[312, 109], [314, 124], [330, 123], [330, 115], [327, 112], [318, 111], [316, 108], [312, 109]]]}}, {"type": "Feature", "properties": {"class": "Grassland", "class_index": 1, "area_px": 6462.0}, "geometry": {"type": "Polygon", "coordinates": [[[163, 80], [164, 85], [167, 86], [164, 87], [168, 89], [169, 99], [166, 100], [166, 105], [173, 117], [173, 120], [175, 121], [171, 123], [173, 125], [173, 130], [170, 132], [170, 135], [173, 139], [171, 140], [170, 152], [175, 157], [176, 163], [189, 171], [199, 171], [205, 173], [207, 172], [209, 174], [212, 174], [225, 182], [230, 182], [242, 191], [251, 185], [254, 188], [254, 192], [259, 194], [270, 185], [276, 174], [277, 160], [280, 157], [274, 142], [275, 125], [272, 119], [270, 119], [267, 115], [254, 115], [243, 122], [240, 121], [241, 140], [238, 146], [238, 151], [243, 159], [241, 161], [236, 161], [230, 156], [230, 151], [228, 147], [216, 146], [213, 142], [209, 118], [209, 112], [211, 110], [207, 108], [199, 110], [198, 108], [196, 109], [194, 107], [190, 96], [190, 92], [193, 89], [193, 85], [189, 81], [184, 81], [178, 84], [168, 79], [163, 80]]]}}, {"type": "Feature", "properties": {"class": "Grassland", "class_index": 1, "area_px": 374.0}, "geometry": {"type": "Polygon", "coordinates": [[[325, 71], [341, 88], [358, 100], [361, 100], [363, 102], [378, 102], [381, 103], [385, 108], [388, 108], [386, 101], [383, 98], [365, 98], [356, 94], [341, 80], [333, 68], [329, 67], [325, 71]]]}}, {"type": "Feature", "properties": {"class": "Grassland", "class_index": 1, "area_px": 19505.0}, "geometry": {"type": "Polygon", "coordinates": [[[429, 65], [423, 70], [423, 73], [428, 79], [428, 81], [422, 86], [421, 97], [405, 110], [404, 116], [399, 121], [388, 127], [383, 128], [377, 136], [360, 146], [356, 153], [363, 155], [365, 157], [366, 153], [370, 149], [379, 143], [387, 141], [404, 140], [408, 142], [419, 141], [424, 143], [434, 139], [443, 139], [444, 136], [441, 133], [430, 129], [423, 129], [418, 136], [413, 136], [406, 139], [394, 137], [391, 134], [391, 132], [394, 130], [409, 129], [412, 120], [411, 118], [417, 110], [421, 109], [430, 114], [439, 114], [447, 111], [451, 113], [455, 119], [458, 118], [467, 126], [475, 129], [480, 134], [483, 143], [491, 152], [495, 160], [501, 178], [499, 184], [495, 187], [491, 186], [488, 181], [486, 173], [482, 167], [476, 162], [471, 149], [468, 147], [466, 150], [467, 157], [470, 160], [472, 166], [476, 169], [479, 179], [485, 184], [480, 195], [473, 195], [465, 191], [457, 185], [450, 174], [442, 168], [439, 168], [439, 171], [446, 179], [453, 184], [458, 194], [472, 202], [476, 206], [478, 213], [478, 231], [480, 236], [484, 234], [484, 220], [488, 207], [492, 204], [497, 203], [502, 206], [503, 215], [498, 226], [499, 238], [496, 245], [489, 254], [489, 260], [493, 261], [497, 259], [500, 262], [500, 269], [498, 271], [496, 278], [496, 284], [504, 278], [508, 278], [511, 276], [520, 276], [522, 278], [523, 285], [526, 291], [520, 295], [506, 299], [495, 311], [499, 314], [499, 317], [497, 319], [493, 319], [493, 322], [497, 323], [499, 321], [511, 322], [513, 326], [505, 342], [501, 345], [489, 361], [486, 369], [486, 374], [481, 383], [473, 391], [480, 399], [481, 403], [473, 409], [473, 414], [469, 421], [461, 428], [454, 439], [449, 439], [447, 432], [448, 424], [443, 424], [436, 428], [429, 437], [421, 442], [423, 450], [422, 452], [419, 452], [415, 448], [411, 450], [410, 464], [408, 469], [404, 471], [404, 473], [394, 482], [389, 494], [383, 498], [378, 506], [374, 509], [374, 511], [377, 514], [377, 520], [369, 535], [354, 546], [343, 551], [334, 553], [323, 553], [314, 543], [297, 543], [299, 548], [303, 552], [326, 558], [329, 561], [330, 568], [340, 567], [344, 565], [352, 556], [361, 555], [365, 553], [366, 546], [369, 543], [379, 544], [380, 552], [387, 556], [391, 548], [390, 538], [395, 532], [397, 523], [403, 518], [406, 507], [424, 489], [429, 488], [424, 482], [424, 480], [426, 478], [425, 474], [430, 467], [432, 451], [442, 443], [450, 443], [451, 448], [459, 452], [465, 451], [475, 439], [475, 434], [482, 427], [485, 417], [492, 408], [498, 407], [499, 396], [504, 386], [504, 382], [508, 378], [512, 378], [515, 376], [522, 365], [522, 354], [524, 348], [538, 336], [544, 322], [547, 319], [556, 316], [560, 309], [565, 306], [568, 301], [574, 296], [573, 291], [567, 290], [576, 285], [580, 289], [591, 288], [580, 275], [571, 272], [558, 274], [555, 271], [556, 266], [554, 261], [555, 253], [558, 252], [559, 249], [558, 245], [563, 241], [569, 240], [574, 235], [575, 231], [589, 220], [584, 218], [579, 221], [572, 222], [570, 217], [563, 212], [560, 212], [555, 216], [551, 215], [544, 203], [543, 198], [538, 197], [535, 193], [535, 182], [539, 175], [538, 171], [540, 168], [540, 157], [538, 155], [536, 157], [536, 160], [532, 164], [531, 175], [529, 180], [531, 194], [529, 197], [539, 209], [538, 218], [540, 219], [540, 227], [531, 234], [522, 237], [517, 231], [517, 216], [514, 210], [512, 195], [510, 193], [512, 189], [508, 179], [505, 177], [503, 168], [505, 164], [498, 148], [498, 146], [501, 144], [510, 144], [512, 142], [511, 136], [501, 125], [493, 121], [482, 112], [480, 86], [476, 86], [466, 99], [454, 98], [449, 94], [452, 89], [452, 86], [449, 82], [449, 80], [452, 78], [451, 74], [447, 71], [433, 69], [429, 65]]]}}, {"type": "Feature", "properties": {"class": "Grassland", "class_index": 1, "area_px": 128.0}, "geometry": {"type": "Polygon", "coordinates": [[[340, 26], [337, 38], [339, 40], [339, 43], [342, 43], [350, 37], [347, 32], [340, 26]]]}}, {"type": "Feature", "properties": {"class": "Grassland and crops", "class_index": 2, "area_px": 13.5}, "geometry": {"type": "Polygon", "coordinates": [[[637, 676], [637, 679], [640, 680], [641, 677], [637, 676]]]}}, {"type": "Feature", "properties": {"class": "Grassland and crops", "class_index": 2, "area_px": 14.0}, "geometry": {"type": "Polygon", "coordinates": [[[679, 670], [676, 673], [671, 671], [672, 675], [676, 675], [679, 672], [679, 670]]]}}, {"type": "Feature", "properties": {"class": "Grassland and crops", "class_index": 2, "area_px": 41.5}, "geometry": {"type": "Polygon", "coordinates": [[[301, 610], [300, 617], [304, 621], [305, 615], [303, 610], [301, 610]]]}}, {"type": "Feature", "properties": {"class": "Grassland and crops", "class_index": 2, "area_px": 23.0}, "geometry": {"type": "Polygon", "coordinates": [[[260, 537], [256, 547], [258, 547], [261, 542], [260, 537]]]}}, {"type": "Feature", "properties": {"class": "Grassland and crops", "class_index": 2, "area_px": 25.0}, "geometry": {"type": "Polygon", "coordinates": [[[372, 527], [362, 538], [362, 540], [368, 535], [372, 527]]]}}, {"type": "Feature", "properties": {"class": "Grassland and crops", "class_index": 2, "area_px": 47.5}, "geometry": {"type": "Polygon", "coordinates": [[[340, 511], [335, 511], [313, 518], [329, 516], [340, 511]]]}}, {"type": "Feature", "properties": {"class": "Grassland and crops", "class_index": 2, "area_px": 37.0}, "geometry": {"type": "Polygon", "coordinates": [[[360, 496], [359, 495], [358, 497], [353, 499], [348, 506], [343, 510], [348, 509], [352, 503], [360, 496]]]}}, {"type": "Feature", "properties": {"class": "Grassland and crops", "class_index": 2, "area_px": 18.5}, "geometry": {"type": "Polygon", "coordinates": [[[189, 490], [196, 496], [195, 501], [196, 498], [199, 502], [202, 500], [199, 499], [195, 494], [189, 490]]]}}, {"type": "Feature", "properties": {"class": "Grassland and crops", "class_index": 2, "area_px": 10.0}, "geometry": {"type": "Polygon", "coordinates": [[[458, 489], [455, 491], [454, 496], [458, 489]]]}}, {"type": "Feature", "properties": {"class": "Grassland and crops", "class_index": 2, "area_px": 11.0}, "geometry": {"type": "Polygon", "coordinates": [[[271, 473], [267, 474], [269, 478], [271, 473]]]}}, {"type": "Feature", "properties": {"class": "Grassland and crops", "class_index": 2, "area_px": 15.0}, "geometry": {"type": "Polygon", "coordinates": [[[501, 471], [508, 484], [519, 496], [521, 496], [518, 495], [509, 485], [501, 471]]]}}, {"type": "Feature", "properties": {"class": "Grassland and crops", "class_index": 2, "area_px": 35.5}, "geometry": {"type": "Polygon", "coordinates": [[[321, 467], [299, 471], [300, 473], [310, 470], [312, 471], [321, 469], [321, 467]]]}}, {"type": "Feature", "properties": {"class": "Grassland and crops", "class_index": 2, "area_px": 35.0}, "geometry": {"type": "Polygon", "coordinates": [[[485, 451], [480, 452], [470, 461], [464, 463], [463, 468], [464, 469], [463, 467], [468, 462], [472, 461], [485, 451]]]}}, {"type": "Feature", "properties": {"class": "Grassland and crops", "class_index": 2, "area_px": 43.0}, "geometry": {"type": "Polygon", "coordinates": [[[510, 446], [500, 448], [500, 452], [498, 454], [490, 456], [501, 455], [502, 451], [510, 446]]]}}, {"type": "Feature", "properties": {"class": "Grassland and crops", "class_index": 2, "area_px": 9.5}, "geometry": {"type": "Polygon", "coordinates": [[[253, 437], [244, 442], [244, 444], [253, 437]]]}}, {"type": "Feature", "properties": {"class": "Grassland and crops", "class_index": 2, "area_px": 19.0}, "geometry": {"type": "Polygon", "coordinates": [[[308, 428], [307, 427], [304, 431], [303, 430], [300, 434], [299, 433], [295, 439], [308, 428]]]}}, {"type": "Feature", "properties": {"class": "Grassland and crops", "class_index": 2, "area_px": 89.5}, "geometry": {"type": "Polygon", "coordinates": [[[444, 420], [436, 424], [427, 434], [419, 439], [419, 442], [429, 436], [434, 429], [440, 424], [446, 423], [444, 420]]]}}, {"type": "Feature", "properties": {"class": "Grassland and crops", "class_index": 2, "area_px": 36.0}, "geometry": {"type": "Polygon", "coordinates": [[[499, 419], [497, 419], [496, 424], [491, 432], [492, 434], [496, 430], [499, 419]]]}}, {"type": "Feature", "properties": {"class": "Grassland and crops", "class_index": 2, "area_px": 43.5}, "geometry": {"type": "Polygon", "coordinates": [[[472, 409], [470, 409], [469, 414], [462, 426], [468, 421], [471, 416], [472, 409]]]}}, {"type": "Feature", "properties": {"class": "Grassland and crops", "class_index": 2, "area_px": 12.5}, "geometry": {"type": "Polygon", "coordinates": [[[499, 408], [498, 416], [500, 413], [499, 408]]]}}, {"type": "Feature", "properties": {"class": "Grassland and crops", "class_index": 2, "area_px": 40.5}, "geometry": {"type": "Polygon", "coordinates": [[[343, 398], [338, 399], [331, 411], [331, 414], [333, 413], [334, 408], [343, 398]]]}}, {"type": "Feature", "properties": {"class": "Grassland and crops", "class_index": 2, "area_px": 13.5}, "geometry": {"type": "Polygon", "coordinates": [[[345, 397], [346, 398], [354, 396], [346, 395], [345, 397]]]}}, {"type": "Feature", "properties": {"class": "Grassland and crops", "class_index": 2, "area_px": 33.0}, "geometry": {"type": "Polygon", "coordinates": [[[460, 393], [453, 395], [451, 399], [455, 400], [460, 393]]]}}, {"type": "Feature", "properties": {"class": "Grassland and crops", "class_index": 2, "area_px": 39.0}, "geometry": {"type": "Polygon", "coordinates": [[[406, 370], [401, 380], [398, 380], [395, 383], [393, 395], [390, 397], [394, 394], [395, 386], [399, 382], [403, 381], [406, 370]]]}}, {"type": "Feature", "properties": {"class": "Grassland and crops", "class_index": 2, "area_px": 10.0}, "geometry": {"type": "Polygon", "coordinates": [[[376, 370], [376, 374], [379, 379], [376, 370]]]}}, {"type": "Feature", "properties": {"class": "Grassland and crops", "class_index": 2, "area_px": 15.0}, "geometry": {"type": "Polygon", "coordinates": [[[148, 360], [145, 363], [146, 367], [149, 363], [148, 360]]]}}, {"type": "Feature", "properties": {"class": "Grassland and crops", "class_index": 2, "area_px": 56.0}, "geometry": {"type": "Polygon", "coordinates": [[[548, 358], [545, 358], [545, 362], [540, 370], [535, 375], [529, 378], [526, 391], [528, 389], [530, 379], [538, 374], [543, 366], [548, 362], [548, 358]]]}}, {"type": "Feature", "properties": {"class": "Grassland and crops", "class_index": 2, "area_px": 161.5}, "geometry": {"type": "Polygon", "coordinates": [[[511, 323], [506, 330], [502, 340], [486, 359], [482, 375], [479, 380], [479, 384], [485, 374], [485, 369], [488, 361], [500, 345], [504, 342], [512, 326], [511, 323]]]}}, {"type": "Feature", "properties": {"class": "Grassland and crops", "class_index": 2, "area_px": 7944.5}, "geometry": {"type": "Polygon", "coordinates": [[[359, 314], [351, 323], [354, 333], [344, 349], [341, 349], [337, 345], [337, 335], [333, 323], [334, 322], [327, 314], [324, 315], [323, 313], [320, 313], [315, 315], [295, 338], [294, 337], [288, 340], [267, 343], [250, 353], [246, 358], [246, 361], [244, 362], [241, 371], [240, 386], [243, 397], [253, 412], [261, 420], [274, 426], [281, 428], [294, 428], [299, 423], [296, 402], [293, 395], [294, 385], [298, 381], [303, 379], [331, 380], [350, 385], [358, 380], [364, 369], [369, 364], [376, 365], [377, 363], [374, 361], [372, 354], [379, 347], [379, 342], [377, 338], [369, 334], [358, 332], [352, 326], [352, 324], [360, 316], [359, 314]]]}}, {"type": "Feature", "properties": {"class": "Grassland and crops", "class_index": 2, "area_px": 63.5}, "geometry": {"type": "Polygon", "coordinates": [[[504, 300], [501, 300], [495, 307], [493, 307], [492, 305], [490, 306], [494, 312], [493, 318], [498, 317], [498, 314], [494, 311], [504, 300]]]}}, {"type": "Feature", "properties": {"class": "Grassland and crops", "class_index": 2, "area_px": 384.0}, "geometry": {"type": "Polygon", "coordinates": [[[236, 292], [229, 297], [228, 309], [235, 320], [242, 321], [246, 319], [243, 313], [243, 302], [245, 293], [236, 292]]]}}, {"type": "Feature", "properties": {"class": "Grassland and crops", "class_index": 2, "area_px": 20.0}, "geometry": {"type": "Polygon", "coordinates": [[[382, 285], [377, 292], [380, 292], [382, 290], [382, 285]]]}}, {"type": "Feature", "properties": {"class": "Grassland and crops", "class_index": 2, "area_px": 244.5}, "geometry": {"type": "Polygon", "coordinates": [[[267, 283], [257, 295], [272, 305], [274, 303], [274, 288], [271, 283], [267, 283]]]}}, {"type": "Feature", "properties": {"class": "Grassland and crops", "class_index": 2, "area_px": 21.5}, "geometry": {"type": "Polygon", "coordinates": [[[361, 280], [361, 293], [365, 297], [362, 289], [361, 280]]]}}, {"type": "Feature", "properties": {"class": "Grassland and crops", "class_index": 2, "area_px": 12.0}, "geometry": {"type": "Polygon", "coordinates": [[[519, 277], [520, 283], [524, 287], [522, 285], [521, 278], [519, 277]]]}}, {"type": "Feature", "properties": {"class": "Grassland and crops", "class_index": 2, "area_px": 24.5}, "geometry": {"type": "Polygon", "coordinates": [[[600, 271], [596, 272], [594, 276], [600, 276], [600, 271]]]}}, {"type": "Feature", "properties": {"class": "Grassland and crops", "class_index": 2, "area_px": 38.5}, "geometry": {"type": "Polygon", "coordinates": [[[399, 267], [394, 272], [388, 275], [383, 282], [387, 278], [394, 275], [399, 269], [399, 267]]]}}, {"type": "Feature", "properties": {"class": "Grassland and crops", "class_index": 2, "area_px": 9.5}, "geometry": {"type": "Polygon", "coordinates": [[[254, 265], [251, 264], [249, 267], [247, 266], [245, 268], [254, 265]]]}}, {"type": "Feature", "properties": {"class": "Grassland and crops", "class_index": 2, "area_px": 74.0}, "geometry": {"type": "Polygon", "coordinates": [[[441, 266], [439, 264], [431, 264], [430, 262], [426, 262], [428, 264], [417, 270], [417, 274], [420, 277], [418, 283], [420, 282], [421, 278], [419, 274], [421, 269], [428, 266], [436, 265], [442, 269], [442, 273], [441, 266]]]}}, {"type": "Feature", "properties": {"class": "Grassland and crops", "class_index": 2, "area_px": 18.5}, "geometry": {"type": "Polygon", "coordinates": [[[497, 260], [498, 266], [495, 277], [499, 269], [499, 262], [497, 260]]]}}, {"type": "Feature", "properties": {"class": "Grassland and crops", "class_index": 2, "area_px": 13.0}, "geometry": {"type": "Polygon", "coordinates": [[[397, 250], [398, 253], [396, 256], [398, 259], [399, 254], [397, 250]]]}}, {"type": "Feature", "properties": {"class": "Grassland and crops", "class_index": 2, "area_px": 36.0}, "geometry": {"type": "Polygon", "coordinates": [[[301, 251], [293, 251], [286, 260], [290, 258], [293, 254], [301, 251]]]}}, {"type": "Feature", "properties": {"class": "Grassland and crops", "class_index": 2, "area_px": 18.5}, "geometry": {"type": "Polygon", "coordinates": [[[445, 245], [450, 262], [450, 255], [445, 245]]]}}, {"type": "Feature", "properties": {"class": "Grassland and crops", "class_index": 2, "area_px": 16.5}, "geometry": {"type": "Polygon", "coordinates": [[[313, 242], [312, 241], [308, 243], [305, 248], [313, 242]]]}}, {"type": "Feature", "properties": {"class": "Grassland and crops", "class_index": 2, "area_px": 11.5}, "geometry": {"type": "Polygon", "coordinates": [[[380, 233], [375, 238], [373, 238], [375, 240], [380, 233]]]}}, {"type": "Feature", "properties": {"class": "Grassland and crops", "class_index": 2, "area_px": 12.5}, "geometry": {"type": "Polygon", "coordinates": [[[539, 227], [535, 228], [531, 233], [530, 232], [526, 235], [539, 227]]]}}, {"type": "Feature", "properties": {"class": "Grassland and crops", "class_index": 2, "area_px": 68.5}, "geometry": {"type": "Polygon", "coordinates": [[[498, 227], [496, 227], [497, 236], [486, 254], [487, 261], [489, 261], [488, 254], [495, 245], [498, 238], [498, 227]]]}}, {"type": "Feature", "properties": {"class": "Grassland and crops", "class_index": 2, "area_px": 13.5}, "geometry": {"type": "Polygon", "coordinates": [[[497, 213], [493, 216], [487, 215], [486, 217], [493, 217], [497, 213]]]}}, {"type": "Feature", "properties": {"class": "Grassland and crops", "class_index": 2, "area_px": 30.0}, "geometry": {"type": "Polygon", "coordinates": [[[561, 209], [551, 212], [552, 215], [557, 214], [561, 211], [561, 209]]]}}, {"type": "Feature", "properties": {"class": "Grassland and crops", "class_index": 2, "area_px": 45.5}, "geometry": {"type": "Polygon", "coordinates": [[[426, 202], [428, 205], [442, 208], [442, 206], [427, 201], [426, 202]]]}}, {"type": "Feature", "properties": {"class": "Grassland and crops", "class_index": 2, "area_px": 9.5}, "geometry": {"type": "Polygon", "coordinates": [[[529, 199], [529, 201], [534, 205], [532, 201], [529, 199]]]}}, {"type": "Feature", "properties": {"class": "Grassland and crops", "class_index": 2, "area_px": 113.0}, "geometry": {"type": "Polygon", "coordinates": [[[419, 198], [404, 197], [401, 199], [399, 198], [388, 200], [386, 202], [385, 200], [384, 201], [389, 204], [391, 202], [408, 202], [419, 198]]]}}, {"type": "Feature", "properties": {"class": "Grassland and crops", "class_index": 2, "area_px": 9.5}, "geometry": {"type": "Polygon", "coordinates": [[[530, 188], [528, 192], [529, 195], [530, 188]]]}}, {"type": "Feature", "properties": {"class": "Grassland and crops", "class_index": 2, "area_px": 9.5}, "geometry": {"type": "Polygon", "coordinates": [[[251, 186], [252, 192], [255, 194], [251, 186]]]}}, {"type": "Feature", "properties": {"class": "Grassland and crops", "class_index": 2, "area_px": 106.0}, "geometry": {"type": "Polygon", "coordinates": [[[636, 185], [633, 185], [622, 195], [609, 194], [607, 195], [606, 200], [608, 201], [612, 197], [617, 197], [621, 195], [629, 196], [636, 185]]]}}, {"type": "Feature", "properties": {"class": "Grassland and crops", "class_index": 2, "area_px": 36.5}, "geometry": {"type": "Polygon", "coordinates": [[[484, 184], [482, 183], [479, 190], [473, 194], [480, 194], [484, 184]]]}}, {"type": "Feature", "properties": {"class": "Grassland and crops", "class_index": 2, "area_px": 9.0}, "geometry": {"type": "Polygon", "coordinates": [[[519, 177], [523, 180], [519, 183], [521, 184], [523, 179], [522, 177], [519, 177]]]}}, {"type": "Feature", "properties": {"class": "Grassland and crops", "class_index": 2, "area_px": 10.5}, "geometry": {"type": "Polygon", "coordinates": [[[493, 175], [497, 182], [497, 185], [498, 182], [493, 175]]]}}, {"type": "Feature", "properties": {"class": "Grassland and crops", "class_index": 2, "area_px": 86.5}, "geometry": {"type": "Polygon", "coordinates": [[[605, 174], [603, 174], [583, 194], [582, 201], [567, 212], [564, 212], [569, 215], [572, 209], [579, 206], [582, 203], [582, 197], [605, 174]]]}}, {"type": "Feature", "properties": {"class": "Grassland and crops", "class_index": 2, "area_px": 9.5}, "geometry": {"type": "Polygon", "coordinates": [[[475, 171], [475, 176], [477, 177], [477, 173], [475, 171]]]}}, {"type": "Feature", "properties": {"class": "Grassland and crops", "class_index": 2, "area_px": 86.0}, "geometry": {"type": "Polygon", "coordinates": [[[436, 167], [435, 173], [443, 181], [446, 181], [451, 187], [451, 189], [459, 197], [464, 199], [456, 193], [452, 184], [439, 173], [438, 168], [436, 167]]]}}, {"type": "Feature", "properties": {"class": "Grassland and crops", "class_index": 2, "area_px": 9.5}, "geometry": {"type": "Polygon", "coordinates": [[[531, 166], [529, 169], [529, 176], [531, 166]]]}}, {"type": "Feature", "properties": {"class": "Grassland and crops", "class_index": 2, "area_px": 39.5}, "geometry": {"type": "Polygon", "coordinates": [[[505, 150], [501, 151], [501, 154], [504, 159], [508, 157], [505, 150]]]}}, {"type": "Feature", "properties": {"class": "Grassland and crops", "class_index": 2, "area_px": 46.0}, "geometry": {"type": "Polygon", "coordinates": [[[540, 148], [538, 148], [538, 151], [534, 153], [531, 164], [541, 150], [540, 148]]]}}, {"type": "Feature", "properties": {"class": "Grassland and crops", "class_index": 2, "area_px": 20.0}, "geometry": {"type": "Polygon", "coordinates": [[[547, 140], [543, 141], [542, 144], [544, 146], [547, 140]]]}}, {"type": "Feature", "properties": {"class": "Grassland and crops", "class_index": 2, "area_px": 38.0}, "geometry": {"type": "Polygon", "coordinates": [[[170, 136], [167, 141], [167, 149], [169, 151], [170, 140], [172, 139], [170, 136]]]}}, {"type": "Feature", "properties": {"class": "Grassland and crops", "class_index": 2, "area_px": 21352.5}, "geometry": {"type": "Polygon", "coordinates": [[[14, 136], [14, 141], [8, 145], [8, 150], [10, 152], [25, 151], [26, 154], [30, 156], [31, 148], [32, 158], [34, 160], [30, 161], [22, 154], [18, 154], [14, 158], [14, 161], [16, 163], [25, 164], [27, 166], [24, 169], [14, 169], [14, 175], [20, 180], [20, 186], [23, 187], [21, 188], [23, 192], [28, 192], [30, 190], [40, 190], [44, 192], [43, 195], [48, 195], [55, 200], [60, 200], [62, 205], [67, 207], [71, 206], [72, 210], [75, 211], [73, 215], [74, 223], [87, 221], [95, 227], [106, 231], [106, 234], [104, 235], [104, 246], [106, 248], [116, 249], [126, 246], [131, 249], [122, 249], [115, 254], [115, 259], [122, 265], [122, 270], [115, 275], [115, 278], [119, 283], [122, 292], [125, 295], [128, 307], [133, 312], [138, 310], [159, 310], [177, 312], [182, 314], [191, 314], [196, 311], [200, 305], [201, 306], [201, 287], [199, 285], [198, 278], [199, 273], [198, 269], [189, 263], [186, 264], [173, 261], [152, 272], [146, 272], [139, 268], [138, 264], [145, 262], [152, 255], [169, 249], [177, 249], [181, 251], [188, 250], [194, 254], [205, 254], [204, 238], [207, 233], [216, 225], [228, 224], [237, 221], [244, 212], [244, 197], [240, 191], [230, 183], [225, 183], [207, 173], [205, 174], [199, 172], [189, 172], [176, 164], [174, 159], [159, 159], [152, 150], [149, 150], [150, 153], [148, 154], [148, 159], [146, 162], [143, 161], [144, 157], [142, 154], [136, 153], [134, 150], [130, 148], [125, 148], [114, 154], [111, 153], [101, 139], [101, 133], [91, 127], [75, 127], [69, 133], [61, 132], [60, 135], [57, 134], [53, 136], [52, 132], [49, 130], [40, 132], [35, 129], [28, 129], [23, 133], [22, 137], [21, 134], [17, 134], [14, 136]], [[49, 186], [51, 184], [57, 184], [65, 188], [62, 191], [52, 191], [49, 189], [49, 186]]]}}, {"type": "Feature", "properties": {"class": "Grassland and crops", "class_index": 2, "area_px": 16.5}, "geometry": {"type": "Polygon", "coordinates": [[[171, 124], [169, 127], [170, 131], [172, 130], [171, 124]]]}}, {"type": "Feature", "properties": {"class": "Grassland and crops", "class_index": 2, "area_px": 23.0}, "geometry": {"type": "Polygon", "coordinates": [[[312, 111], [310, 113], [310, 124], [312, 123], [312, 111]]]}}, {"type": "Feature", "properties": {"class": "Grassland and crops", "class_index": 2, "area_px": 29.5}, "geometry": {"type": "Polygon", "coordinates": [[[164, 88], [165, 99], [168, 99], [167, 89], [164, 88]]]}}, {"type": "Feature", "properties": {"class": "Grassland and crops", "class_index": 2, "area_px": 1093.5}, "geometry": {"type": "Polygon", "coordinates": [[[385, 11], [382, 8], [375, 8], [367, 13], [351, 13], [349, 17], [348, 15], [345, 15], [336, 22], [333, 32], [335, 45], [339, 44], [336, 37], [340, 25], [348, 32], [350, 36], [354, 34], [366, 36], [371, 38], [379, 45], [379, 36], [381, 35], [381, 33], [388, 32], [382, 31], [384, 29], [385, 11]]]}}, {"type": "Feature", "properties": {"class": "Cropland (primarily wheat, sugar beets, corn)", "class_index": 3, "area_px": 15.0}, "geometry": {"type": "Polygon", "coordinates": [[[270, 582], [270, 586], [273, 587], [273, 583], [270, 582]]]}}, {"type": "Feature", "properties": {"class": "Cropland (primarily wheat, sugar beets, corn)", "class_index": 3, "area_px": 543.0}, "geometry": {"type": "Polygon", "coordinates": [[[238, 558], [237, 554], [233, 550], [225, 550], [210, 555], [206, 555], [198, 551], [193, 554], [191, 559], [192, 563], [195, 566], [214, 566], [227, 564], [238, 558]]]}}, {"type": "Feature", "properties": {"class": "Cropland (primarily wheat, sugar beets, corn)", "class_index": 3, "area_px": 1976.0}, "geometry": {"type": "Polygon", "coordinates": [[[195, 524], [185, 517], [182, 517], [179, 521], [175, 522], [163, 522], [150, 518], [142, 518], [137, 520], [126, 529], [119, 532], [99, 530], [93, 533], [96, 537], [107, 540], [109, 544], [121, 540], [139, 541], [158, 558], [162, 559], [164, 557], [164, 554], [157, 546], [157, 543], [163, 542], [173, 549], [177, 549], [191, 540], [193, 537], [193, 529], [195, 524]]]}}, {"type": "Feature", "properties": {"class": "Cropland (primarily wheat, sugar beets, corn)", "class_index": 3, "area_px": 811.0}, "geometry": {"type": "Polygon", "coordinates": [[[456, 122], [452, 115], [447, 112], [439, 115], [430, 115], [421, 110], [417, 111], [412, 118], [412, 125], [409, 130], [394, 131], [392, 132], [392, 134], [394, 136], [406, 138], [409, 136], [418, 135], [423, 128], [430, 128], [435, 130], [448, 129], [453, 127], [456, 122]]]}}, {"type": "Feature", "properties": {"class": "Cropland (primarily wheat, sugar beets, corn)", "class_index": 3, "area_px": 15412.0}, "geometry": {"type": "Polygon", "coordinates": [[[407, 35], [396, 35], [390, 43], [378, 46], [371, 39], [354, 35], [345, 43], [337, 46], [334, 45], [333, 47], [333, 56], [330, 60], [330, 67], [333, 67], [342, 80], [356, 93], [365, 97], [383, 97], [384, 99], [385, 98], [388, 104], [388, 109], [385, 109], [381, 104], [378, 103], [363, 103], [361, 101], [358, 101], [341, 89], [326, 73], [324, 73], [321, 77], [308, 83], [275, 89], [262, 96], [255, 104], [255, 111], [268, 115], [270, 113], [275, 113], [289, 106], [290, 107], [306, 101], [322, 101], [326, 105], [324, 111], [327, 111], [331, 115], [330, 124], [311, 124], [308, 127], [309, 136], [315, 142], [317, 147], [315, 150], [314, 173], [316, 174], [316, 177], [318, 177], [324, 183], [325, 190], [324, 197], [321, 202], [311, 205], [295, 205], [292, 207], [290, 212], [290, 229], [295, 239], [303, 241], [315, 236], [323, 230], [332, 230], [334, 232], [342, 230], [366, 231], [370, 226], [372, 215], [367, 213], [362, 216], [360, 214], [360, 211], [357, 212], [354, 209], [354, 207], [366, 197], [382, 197], [386, 194], [390, 184], [395, 178], [398, 177], [397, 171], [390, 165], [399, 161], [403, 156], [407, 156], [416, 162], [417, 158], [423, 153], [423, 144], [419, 142], [408, 143], [403, 141], [379, 144], [370, 150], [365, 158], [363, 156], [356, 154], [351, 159], [343, 163], [345, 168], [343, 174], [350, 178], [354, 176], [355, 169], [357, 167], [364, 173], [364, 181], [362, 185], [356, 190], [355, 195], [352, 199], [347, 199], [344, 196], [343, 190], [336, 184], [336, 178], [334, 175], [333, 167], [331, 163], [328, 161], [329, 155], [337, 156], [349, 150], [355, 151], [360, 145], [377, 135], [383, 127], [388, 126], [399, 120], [403, 116], [404, 110], [420, 97], [421, 86], [427, 81], [427, 79], [422, 73], [422, 70], [429, 63], [412, 51], [407, 35]]]}}, {"type": "Feature", "properties": {"class": "Other crops (primarily cereals)", "class_index": 4, "area_px": 393.0}, "geometry": {"type": "Polygon", "coordinates": [[[645, 672], [645, 675], [642, 677], [640, 681], [635, 681], [635, 689], [641, 690], [640, 694], [637, 695], [637, 697], [641, 697], [640, 701], [643, 701], [647, 704], [653, 704], [655, 701], [658, 700], [658, 698], [653, 692], [655, 688], [652, 687], [653, 684], [650, 682], [650, 677], [645, 672]]]}}, {"type": "Feature", "properties": {"class": "Other crops (primarily cereals)", "class_index": 4, "area_px": 67.0}, "geometry": {"type": "Polygon", "coordinates": [[[669, 661], [668, 665], [670, 670], [676, 672], [678, 669], [676, 668], [677, 666], [674, 664], [676, 663], [674, 663], [673, 660], [669, 661]]]}}, {"type": "Feature", "properties": {"class": "Other crops (primarily cereals)", "class_index": 4, "area_px": 220.0}, "geometry": {"type": "Polygon", "coordinates": [[[673, 617], [675, 619], [672, 620], [671, 633], [679, 644], [679, 646], [681, 646], [685, 650], [686, 641], [683, 637], [680, 636], [681, 630], [679, 629], [679, 626], [683, 626], [683, 624], [678, 623], [673, 617]]]}}, {"type": "Feature", "properties": {"class": "Other crops (primarily cereals)", "class_index": 4, "area_px": 270.0}, "geometry": {"type": "Polygon", "coordinates": [[[304, 610], [306, 618], [311, 624], [317, 626], [320, 629], [331, 629], [328, 625], [327, 626], [321, 622], [321, 610], [304, 610]]]}}, {"type": "Feature", "properties": {"class": "Other crops (primarily cereals)", "class_index": 4, "area_px": 2432.0}, "geometry": {"type": "Polygon", "coordinates": [[[376, 514], [372, 512], [367, 516], [363, 515], [363, 506], [354, 514], [337, 520], [325, 521], [323, 523], [321, 522], [317, 524], [312, 523], [310, 525], [301, 525], [298, 527], [294, 526], [289, 528], [289, 531], [291, 533], [291, 542], [295, 543], [293, 552], [295, 557], [299, 561], [300, 571], [309, 567], [317, 566], [321, 568], [328, 563], [328, 561], [317, 556], [307, 555], [306, 553], [303, 553], [298, 548], [296, 543], [297, 542], [314, 542], [323, 552], [334, 552], [342, 548], [344, 549], [350, 547], [360, 541], [370, 527], [373, 526], [372, 524], [374, 523], [373, 521], [376, 514]]]}}, {"type": "Feature", "properties": {"class": "Other crops (primarily cereals)", "class_index": 4, "area_px": 497.5}, "geometry": {"type": "Polygon", "coordinates": [[[409, 504], [405, 511], [403, 519], [405, 523], [404, 532], [406, 533], [411, 528], [412, 524], [419, 517], [422, 517], [431, 526], [434, 533], [437, 530], [437, 524], [433, 517], [433, 513], [428, 513], [420, 504], [418, 506], [414, 506], [412, 503], [409, 504]]]}}, {"type": "Feature", "properties": {"class": "Other crops (primarily cereals)", "class_index": 4, "area_px": 2270.5}, "geometry": {"type": "Polygon", "coordinates": [[[209, 490], [205, 498], [203, 498], [203, 500], [200, 503], [205, 513], [222, 519], [230, 527], [231, 536], [224, 539], [220, 539], [208, 531], [201, 530], [195, 525], [194, 537], [192, 541], [197, 550], [206, 554], [222, 551], [225, 549], [233, 549], [238, 554], [239, 558], [243, 558], [255, 547], [258, 538], [261, 536], [257, 527], [253, 525], [251, 519], [244, 512], [233, 508], [226, 500], [221, 497], [218, 498], [216, 494], [209, 490]]]}}, {"type": "Feature", "properties": {"class": "Other crops (primarily cereals)", "class_index": 4, "area_px": 3051.0}, "geometry": {"type": "Polygon", "coordinates": [[[366, 491], [366, 489], [360, 492], [348, 491], [330, 480], [321, 477], [315, 477], [310, 479], [308, 478], [306, 480], [303, 479], [294, 482], [275, 480], [272, 481], [268, 478], [264, 481], [255, 480], [244, 484], [236, 484], [234, 487], [232, 486], [232, 484], [227, 486], [228, 489], [233, 493], [236, 489], [244, 490], [250, 493], [259, 493], [265, 500], [277, 503], [277, 506], [269, 507], [267, 509], [269, 517], [272, 512], [273, 514], [275, 514], [278, 511], [285, 512], [288, 510], [293, 511], [295, 513], [296, 518], [311, 519], [313, 516], [318, 516], [335, 510], [341, 511], [343, 508], [347, 506], [353, 498], [358, 496], [359, 494], [364, 494], [366, 491]]]}}, {"type": "Feature", "properties": {"class": "Other crops (primarily cereals)", "class_index": 4, "area_px": 381.5}, "geometry": {"type": "Polygon", "coordinates": [[[157, 468], [161, 475], [160, 480], [167, 485], [167, 487], [163, 490], [162, 493], [166, 494], [169, 492], [181, 494], [183, 497], [187, 497], [191, 501], [194, 501], [195, 498], [196, 502], [198, 502], [195, 496], [188, 490], [183, 488], [177, 482], [171, 481], [168, 478], [169, 477], [166, 475], [166, 472], [160, 467], [157, 468]]]}}, {"type": "Feature", "properties": {"class": "Other crops (primarily cereals)", "class_index": 4, "area_px": 1022.0}, "geometry": {"type": "Polygon", "coordinates": [[[260, 457], [260, 462], [266, 470], [266, 473], [271, 472], [272, 474], [274, 472], [275, 474], [278, 474], [279, 472], [297, 474], [299, 473], [299, 470], [321, 466], [323, 469], [324, 466], [327, 466], [329, 468], [333, 467], [336, 464], [335, 458], [323, 460], [320, 458], [308, 460], [305, 458], [304, 459], [299, 452], [292, 452], [287, 454], [276, 453], [267, 457], [260, 457]]]}}, {"type": "Feature", "properties": {"class": "Other crops (primarily cereals)", "class_index": 4, "area_px": 29.5}, "geometry": {"type": "Polygon", "coordinates": [[[501, 447], [505, 445], [511, 445], [512, 442], [505, 442], [501, 447]]]}}, {"type": "Feature", "properties": {"class": "Other crops (primarily cereals)", "class_index": 4, "area_px": 175.5}, "geometry": {"type": "Polygon", "coordinates": [[[167, 410], [158, 414], [158, 418], [162, 424], [162, 431], [164, 432], [165, 430], [167, 430], [168, 427], [172, 426], [167, 410]]]}}, {"type": "Feature", "properties": {"class": "Other crops (primarily cereals)", "class_index": 4, "area_px": 1394.5}, "geometry": {"type": "Polygon", "coordinates": [[[469, 409], [465, 411], [460, 410], [457, 408], [454, 401], [450, 400], [447, 403], [445, 410], [440, 415], [437, 415], [432, 410], [431, 416], [429, 418], [419, 418], [414, 420], [410, 426], [412, 430], [412, 436], [400, 445], [399, 443], [394, 445], [394, 449], [396, 452], [396, 461], [398, 466], [402, 470], [407, 469], [409, 464], [409, 448], [411, 446], [413, 448], [415, 447], [419, 451], [421, 445], [418, 442], [418, 439], [427, 433], [436, 423], [442, 419], [444, 419], [449, 424], [448, 432], [450, 439], [454, 438], [455, 434], [460, 429], [461, 425], [465, 420], [469, 409]], [[450, 410], [453, 412], [453, 418], [449, 423], [446, 419], [448, 418], [447, 414], [450, 410]]]}}, {"type": "Feature", "properties": {"class": "Other crops (primarily cereals)", "class_index": 4, "area_px": 51.0}, "geometry": {"type": "Polygon", "coordinates": [[[173, 391], [172, 394], [170, 391], [168, 391], [168, 404], [171, 403], [172, 397], [175, 396], [173, 391]]]}}, {"type": "Feature", "properties": {"class": "Other crops (primarily cereals)", "class_index": 4, "area_px": 3738.5}, "geometry": {"type": "Polygon", "coordinates": [[[544, 358], [533, 358], [530, 361], [525, 377], [514, 377], [512, 379], [508, 379], [505, 382], [505, 386], [500, 396], [499, 407], [497, 409], [492, 409], [486, 417], [483, 427], [476, 434], [476, 439], [465, 452], [454, 452], [450, 448], [450, 444], [442, 444], [433, 451], [431, 467], [426, 474], [427, 478], [425, 482], [430, 488], [433, 489], [440, 482], [444, 485], [445, 491], [442, 501], [443, 506], [450, 503], [454, 504], [454, 501], [452, 500], [452, 498], [454, 497], [454, 491], [457, 488], [459, 488], [462, 484], [470, 481], [480, 486], [500, 502], [506, 503], [508, 505], [522, 505], [524, 503], [524, 500], [526, 499], [519, 497], [504, 480], [500, 471], [496, 473], [486, 474], [482, 480], [478, 481], [471, 472], [464, 470], [462, 468], [462, 464], [467, 460], [470, 460], [480, 451], [485, 450], [486, 453], [489, 455], [499, 452], [499, 449], [494, 447], [490, 442], [485, 444], [480, 441], [480, 436], [482, 434], [490, 432], [493, 428], [496, 419], [499, 418], [497, 416], [497, 409], [499, 407], [501, 409], [505, 408], [514, 397], [517, 398], [517, 395], [520, 396], [522, 393], [524, 394], [526, 392], [525, 388], [528, 382], [528, 378], [539, 370], [544, 362], [544, 358]], [[449, 456], [450, 464], [448, 467], [446, 467], [443, 461], [449, 456]]]}}, {"type": "Feature", "properties": {"class": "Other crops (primarily cereals)", "class_index": 4, "area_px": 894.5}, "geometry": {"type": "Polygon", "coordinates": [[[509, 323], [499, 322], [497, 324], [491, 322], [481, 328], [477, 336], [476, 344], [477, 366], [474, 378], [474, 388], [478, 385], [478, 380], [481, 375], [485, 359], [501, 340], [509, 323]]]}}, {"type": "Feature", "properties": {"class": "Other crops (primarily cereals)", "class_index": 4, "area_px": 134.5}, "geometry": {"type": "Polygon", "coordinates": [[[483, 302], [474, 302], [466, 315], [467, 319], [468, 316], [470, 318], [478, 309], [485, 305], [483, 302]]]}}, {"type": "Feature", "properties": {"class": "Other crops (primarily cereals)", "class_index": 4, "area_px": 18148.0}, "geometry": {"type": "Polygon", "coordinates": [[[135, 313], [148, 322], [154, 323], [155, 319], [156, 324], [159, 322], [173, 322], [174, 320], [183, 321], [187, 325], [187, 334], [176, 339], [168, 339], [167, 337], [161, 337], [153, 332], [153, 334], [157, 335], [155, 336], [158, 342], [157, 349], [166, 350], [178, 364], [180, 370], [183, 373], [187, 372], [185, 370], [185, 366], [187, 363], [190, 363], [203, 370], [208, 375], [208, 379], [204, 382], [196, 381], [194, 378], [190, 380], [176, 378], [174, 375], [170, 373], [169, 369], [166, 369], [166, 371], [159, 377], [165, 385], [170, 385], [168, 382], [171, 381], [172, 384], [174, 384], [181, 390], [182, 388], [184, 389], [184, 387], [187, 384], [193, 386], [198, 390], [206, 390], [211, 395], [211, 401], [213, 405], [224, 407], [228, 410], [228, 416], [224, 421], [227, 427], [229, 427], [236, 435], [236, 444], [243, 444], [243, 442], [250, 437], [251, 438], [252, 436], [255, 436], [260, 432], [262, 433], [263, 431], [269, 432], [274, 437], [276, 445], [279, 445], [280, 443], [284, 445], [292, 444], [292, 441], [295, 440], [294, 438], [299, 432], [300, 433], [307, 426], [309, 428], [313, 424], [317, 423], [327, 414], [330, 415], [330, 411], [339, 397], [344, 397], [346, 394], [353, 394], [360, 401], [359, 403], [362, 415], [360, 422], [362, 428], [362, 443], [365, 448], [375, 448], [377, 446], [373, 434], [373, 425], [375, 425], [379, 421], [378, 410], [383, 406], [385, 408], [388, 407], [388, 400], [390, 399], [389, 396], [392, 395], [393, 385], [398, 379], [400, 380], [404, 370], [406, 369], [406, 367], [404, 366], [405, 363], [403, 362], [404, 360], [401, 357], [402, 355], [398, 351], [399, 350], [395, 345], [395, 341], [392, 339], [393, 337], [391, 335], [388, 335], [388, 373], [386, 379], [383, 382], [377, 379], [375, 374], [376, 366], [369, 365], [365, 369], [359, 380], [355, 384], [350, 386], [331, 381], [300, 381], [295, 385], [294, 395], [297, 402], [300, 423], [294, 429], [281, 429], [261, 421], [252, 412], [244, 401], [239, 386], [239, 375], [245, 358], [250, 352], [267, 342], [288, 339], [294, 336], [295, 337], [303, 329], [308, 321], [315, 314], [320, 312], [323, 312], [324, 314], [327, 313], [333, 319], [337, 329], [338, 345], [341, 348], [344, 348], [353, 333], [353, 330], [350, 326], [351, 321], [359, 313], [361, 315], [367, 307], [365, 298], [360, 293], [360, 278], [355, 278], [339, 292], [335, 288], [331, 288], [329, 286], [328, 280], [308, 281], [307, 274], [296, 263], [287, 270], [275, 271], [274, 274], [278, 276], [275, 279], [249, 279], [247, 280], [250, 282], [250, 285], [255, 293], [257, 293], [267, 282], [271, 282], [275, 288], [275, 303], [273, 305], [273, 308], [269, 312], [265, 313], [260, 308], [255, 307], [253, 308], [252, 316], [249, 319], [242, 322], [237, 322], [231, 317], [228, 312], [227, 300], [228, 297], [236, 291], [245, 292], [243, 287], [238, 283], [237, 280], [223, 280], [206, 267], [204, 264], [202, 264], [199, 268], [200, 285], [202, 287], [202, 302], [196, 312], [191, 315], [182, 315], [177, 313], [159, 311], [138, 311], [135, 313]]]}}, {"type": "Feature", "properties": {"class": "Other crops (primarily cereals)", "class_index": 4, "area_px": 398.0}, "geometry": {"type": "Polygon", "coordinates": [[[568, 260], [567, 271], [580, 274], [592, 287], [599, 278], [594, 277], [593, 274], [596, 271], [600, 270], [600, 268], [593, 266], [585, 267], [582, 266], [579, 263], [579, 261], [568, 260]]]}}, {"type": "Feature", "properties": {"class": "Other crops (primarily cereals)", "class_index": 4, "area_px": 425.5}, "geometry": {"type": "Polygon", "coordinates": [[[407, 253], [406, 258], [409, 265], [409, 269], [405, 275], [405, 285], [412, 290], [417, 287], [417, 284], [419, 284], [417, 283], [419, 277], [416, 274], [416, 270], [421, 266], [427, 264], [415, 254], [407, 253]]]}}, {"type": "Feature", "properties": {"class": "Other crops (primarily cereals)", "class_index": 4, "area_px": 495.0}, "geometry": {"type": "Polygon", "coordinates": [[[394, 247], [392, 248], [390, 256], [383, 263], [375, 267], [376, 268], [373, 271], [372, 284], [373, 290], [375, 292], [380, 285], [383, 284], [382, 281], [384, 278], [399, 266], [399, 262], [397, 261], [398, 260], [395, 256], [397, 253], [396, 249], [394, 247]]]}}, {"type": "Feature", "properties": {"class": "Other crops (primarily cereals)", "class_index": 4, "area_px": 2326.5}, "geometry": {"type": "Polygon", "coordinates": [[[495, 228], [472, 243], [468, 243], [455, 255], [460, 274], [460, 286], [462, 288], [457, 297], [456, 308], [460, 305], [462, 301], [465, 301], [466, 298], [471, 297], [474, 293], [480, 290], [487, 294], [489, 294], [490, 290], [493, 288], [497, 291], [497, 299], [491, 304], [495, 306], [501, 299], [508, 298], [512, 294], [516, 295], [517, 292], [521, 293], [524, 288], [520, 285], [518, 277], [504, 279], [495, 286], [492, 284], [492, 281], [495, 280], [494, 275], [497, 266], [497, 261], [495, 260], [493, 262], [487, 262], [485, 260], [485, 254], [496, 236], [495, 228]]]}}, {"type": "Feature", "properties": {"class": "Other crops (primarily cereals)", "class_index": 4, "area_px": 1628.0}, "geometry": {"type": "Polygon", "coordinates": [[[397, 210], [396, 214], [400, 222], [400, 229], [403, 239], [413, 247], [425, 251], [430, 256], [431, 263], [439, 263], [443, 269], [443, 273], [440, 275], [440, 277], [443, 281], [447, 283], [450, 279], [452, 272], [451, 265], [448, 262], [449, 261], [447, 258], [444, 244], [441, 241], [442, 240], [430, 227], [431, 226], [428, 224], [423, 214], [414, 210], [397, 210]]]}}, {"type": "Feature", "properties": {"class": "Other crops (primarily cereals)", "class_index": 4, "area_px": 562.0}, "geometry": {"type": "Polygon", "coordinates": [[[377, 209], [369, 209], [369, 212], [373, 215], [370, 228], [366, 232], [346, 232], [346, 240], [353, 243], [371, 243], [374, 240], [372, 238], [380, 232], [384, 224], [384, 219], [377, 209]]]}}, {"type": "Feature", "properties": {"class": "Other crops (primarily cereals)", "class_index": 4, "area_px": 97.0}, "geometry": {"type": "Polygon", "coordinates": [[[501, 206], [498, 204], [490, 206], [487, 214], [493, 215], [500, 210], [501, 206]]]}}, {"type": "Feature", "properties": {"class": "Other crops (primarily cereals)", "class_index": 4, "area_px": 256.0}, "geometry": {"type": "Polygon", "coordinates": [[[636, 180], [619, 175], [619, 178], [614, 186], [614, 191], [611, 193], [622, 194], [633, 184], [636, 184], [636, 180]]]}}, {"type": "Feature", "properties": {"class": "Other crops (primarily cereals)", "class_index": 4, "area_px": 4487.0}, "geometry": {"type": "Polygon", "coordinates": [[[607, 171], [602, 169], [601, 167], [589, 170], [588, 167], [582, 169], [578, 164], [571, 165], [567, 162], [564, 156], [554, 144], [548, 141], [546, 146], [544, 147], [541, 144], [543, 139], [532, 139], [526, 134], [513, 135], [514, 139], [512, 140], [513, 142], [510, 145], [499, 146], [500, 151], [505, 149], [509, 155], [509, 157], [504, 160], [505, 163], [512, 169], [512, 174], [518, 177], [522, 176], [524, 179], [521, 185], [512, 185], [513, 189], [511, 193], [513, 195], [515, 210], [518, 216], [518, 231], [521, 235], [523, 234], [524, 236], [526, 233], [527, 234], [528, 232], [531, 232], [535, 227], [539, 225], [539, 219], [537, 218], [538, 209], [535, 205], [533, 206], [528, 201], [529, 198], [527, 194], [529, 187], [527, 186], [527, 179], [529, 178], [528, 169], [531, 165], [530, 162], [532, 155], [535, 151], [538, 152], [536, 150], [538, 147], [540, 147], [542, 150], [539, 154], [541, 157], [541, 168], [539, 171], [540, 175], [536, 182], [536, 193], [538, 196], [544, 198], [545, 203], [550, 211], [554, 211], [558, 208], [561, 208], [562, 211], [567, 211], [573, 206], [575, 206], [581, 201], [582, 194], [603, 173], [607, 173], [607, 171]]]}}, {"type": "Feature", "properties": {"class": "Other crops (primarily cereals)", "class_index": 4, "area_px": 4889.5}, "geometry": {"type": "Polygon", "coordinates": [[[490, 152], [482, 143], [479, 134], [475, 130], [465, 127], [462, 124], [463, 123], [458, 119], [456, 120], [457, 122], [453, 128], [448, 130], [439, 130], [439, 132], [441, 132], [445, 136], [443, 140], [434, 140], [424, 144], [425, 151], [418, 158], [416, 164], [404, 169], [401, 172], [398, 172], [399, 177], [395, 179], [391, 184], [390, 189], [387, 194], [383, 197], [383, 200], [385, 199], [386, 201], [388, 199], [399, 197], [401, 198], [404, 196], [418, 196], [420, 199], [422, 198], [425, 201], [427, 200], [442, 205], [443, 208], [447, 208], [449, 210], [447, 212], [449, 212], [462, 222], [468, 223], [469, 221], [473, 221], [474, 223], [476, 222], [477, 217], [475, 215], [474, 207], [469, 202], [459, 198], [450, 189], [446, 182], [443, 182], [434, 173], [430, 166], [435, 165], [438, 167], [442, 167], [452, 175], [460, 187], [472, 193], [478, 190], [482, 182], [474, 176], [475, 169], [468, 163], [469, 160], [465, 154], [466, 147], [468, 146], [472, 149], [477, 162], [483, 167], [487, 173], [490, 183], [492, 186], [493, 184], [495, 186], [496, 182], [488, 166], [488, 157], [490, 152]]]}}, {"type": "Feature", "properties": {"class": "Other crops (primarily cereals)", "class_index": 4, "area_px": 860.5}, "geometry": {"type": "Polygon", "coordinates": [[[212, 110], [210, 112], [210, 118], [214, 142], [216, 145], [228, 146], [231, 151], [231, 156], [236, 160], [240, 160], [241, 157], [237, 151], [237, 146], [239, 142], [239, 127], [237, 126], [236, 120], [224, 114], [215, 115], [212, 110]]]}}, {"type": "Feature", "properties": {"class": "Other crops (primarily cereals)", "class_index": 4, "area_px": 7755.0}, "geometry": {"type": "Polygon", "coordinates": [[[324, 103], [306, 102], [290, 108], [289, 107], [275, 114], [269, 115], [269, 117], [274, 120], [274, 123], [276, 125], [275, 142], [278, 151], [281, 155], [281, 157], [278, 160], [277, 174], [271, 185], [259, 195], [254, 195], [251, 192], [250, 187], [248, 187], [242, 192], [241, 191], [245, 197], [245, 212], [250, 216], [251, 220], [250, 224], [243, 231], [232, 235], [232, 237], [237, 238], [241, 241], [258, 240], [259, 243], [256, 246], [253, 245], [252, 247], [246, 245], [225, 245], [211, 249], [208, 254], [209, 256], [217, 259], [226, 266], [233, 269], [240, 269], [241, 267], [244, 268], [247, 265], [249, 266], [251, 263], [280, 263], [285, 261], [285, 259], [293, 250], [304, 250], [304, 247], [308, 242], [312, 240], [319, 240], [322, 237], [327, 236], [333, 232], [323, 231], [315, 237], [303, 242], [299, 242], [293, 238], [289, 229], [289, 212], [293, 205], [311, 204], [319, 202], [323, 197], [323, 183], [318, 178], [316, 178], [314, 175], [315, 174], [313, 173], [314, 150], [316, 147], [314, 142], [308, 136], [307, 127], [309, 125], [309, 113], [313, 107], [316, 107], [318, 110], [323, 111], [325, 108], [324, 103]]]}}, {"type": "Feature", "properties": {"class": "Other crops (primarily cereals)", "class_index": 4, "area_px": 115.5}, "geometry": {"type": "Polygon", "coordinates": [[[380, 45], [390, 42], [395, 36], [391, 36], [389, 33], [382, 33], [382, 35], [380, 36], [380, 45]]]}}, {"type": "Feature", "properties": {"class": "Olives (often with vines and wheat)", "class_index": 5, "area_px": 104.0}, "geometry": {"type": "Polygon", "coordinates": [[[418, 556], [414, 553], [407, 554], [403, 559], [406, 562], [415, 562], [418, 556]]]}}, {"type": "Feature", "properties": {"class": "Olives (often with vines and wheat)", "class_index": 5, "area_px": 20.0}, "geometry": {"type": "Polygon", "coordinates": [[[201, 426], [198, 429], [200, 429], [200, 432], [202, 433], [204, 430], [201, 426]]]}}, {"type": "Feature", "properties": {"class": "Olives (often with vines and wheat)", "class_index": 5, "area_px": 72.0}, "geometry": {"type": "Polygon", "coordinates": [[[172, 424], [173, 430], [170, 433], [170, 435], [175, 437], [175, 435], [180, 429], [176, 425], [172, 424]]]}}, {"type": "Feature", "properties": {"class": "Olives (often with vines and wheat)", "class_index": 5, "area_px": 214.0}, "geometry": {"type": "Polygon", "coordinates": [[[489, 306], [485, 306], [475, 313], [475, 315], [480, 318], [484, 325], [490, 322], [493, 316], [493, 312], [489, 306]]]}}, {"type": "Feature", "properties": {"class": "Olives (often with vines and wheat)", "class_index": 5, "area_px": 23.5}, "geometry": {"type": "Polygon", "coordinates": [[[599, 239], [599, 241], [606, 244], [605, 240], [599, 239]]]}}, {"type": "Feature", "properties": {"class": "Olives (often with vines and wheat)", "class_index": 5, "area_px": 324.5}, "geometry": {"type": "Polygon", "coordinates": [[[602, 195], [596, 200], [596, 203], [602, 209], [601, 220], [604, 223], [612, 226], [616, 216], [612, 211], [611, 204], [605, 200], [606, 195], [602, 195]]]}}, {"type": "Feature", "properties": {"class": "Market gardening (fruits, vegetables, flowers)", "class_index": 6, "area_px": 143.5}, "geometry": {"type": "Polygon", "coordinates": [[[644, 707], [643, 713], [649, 718], [655, 720], [655, 707], [652, 704], [644, 707]]]}}, {"type": "Feature", "properties": {"class": "Market gardening (fruits, vegetables, flowers)", "class_index": 6, "area_px": 242.5}, "geometry": {"type": "Polygon", "coordinates": [[[657, 632], [640, 639], [635, 649], [640, 652], [653, 646], [658, 639], [657, 632]]]}}, {"type": "Feature", "properties": {"class": "Market gardening (fruits, vegetables, flowers)", "class_index": 6, "area_px": 115.5}, "geometry": {"type": "Polygon", "coordinates": [[[677, 609], [674, 612], [673, 616], [678, 622], [684, 623], [683, 611], [681, 609], [677, 609]]]}}, {"type": "Feature", "properties": {"class": "Market gardening (fruits, vegetables, flowers)", "class_index": 6, "area_px": 436.0}, "geometry": {"type": "Polygon", "coordinates": [[[329, 602], [322, 609], [322, 622], [327, 625], [328, 624], [332, 629], [343, 632], [343, 626], [338, 614], [341, 602], [329, 602]]]}}, {"type": "Feature", "properties": {"class": "Market gardening (fruits, vegetables, flowers)", "class_index": 6, "area_px": 103.0}, "geometry": {"type": "Polygon", "coordinates": [[[536, 587], [534, 585], [523, 587], [518, 593], [518, 595], [524, 592], [533, 593], [536, 590], [536, 587]]]}}, {"type": "Feature", "properties": {"class": "Market gardening (fruits, vegetables, flowers)", "class_index": 6, "area_px": 280.0}, "geometry": {"type": "Polygon", "coordinates": [[[569, 558], [561, 553], [547, 554], [544, 558], [544, 566], [551, 571], [553, 568], [560, 568], [563, 561], [569, 558]]]}}, {"type": "Feature", "properties": {"class": "Market gardening (fruits, vegetables, flowers)", "class_index": 6, "area_px": 1201.0}, "geometry": {"type": "Polygon", "coordinates": [[[273, 542], [264, 549], [264, 552], [270, 565], [270, 578], [271, 581], [274, 583], [274, 588], [284, 592], [296, 580], [300, 572], [299, 564], [292, 552], [294, 543], [273, 542]]]}}, {"type": "Feature", "properties": {"class": "Market gardening (fruits, vegetables, flowers)", "class_index": 6, "area_px": 129.5}, "geometry": {"type": "Polygon", "coordinates": [[[500, 503], [498, 511], [500, 513], [499, 515], [503, 523], [507, 521], [507, 505], [500, 503]]]}}, {"type": "Feature", "properties": {"class": "Market gardening (fruits, vegetables, flowers)", "class_index": 6, "area_px": 64.0}, "geometry": {"type": "Polygon", "coordinates": [[[426, 499], [419, 496], [413, 500], [413, 504], [418, 505], [426, 499]]]}}, {"type": "Feature", "properties": {"class": "Market gardening (fruits, vegetables, flowers)", "class_index": 6, "area_px": 2988.0}, "geometry": {"type": "Polygon", "coordinates": [[[440, 483], [435, 489], [437, 500], [434, 509], [434, 517], [438, 524], [438, 530], [434, 535], [439, 541], [439, 544], [436, 547], [436, 551], [440, 559], [451, 567], [451, 574], [454, 576], [463, 577], [466, 581], [466, 584], [468, 585], [475, 578], [479, 571], [489, 571], [492, 561], [500, 554], [500, 552], [504, 548], [506, 540], [503, 540], [500, 544], [495, 544], [491, 541], [491, 537], [484, 539], [469, 539], [464, 537], [461, 533], [461, 528], [465, 522], [465, 516], [454, 505], [450, 504], [445, 507], [441, 505], [444, 488], [443, 485], [440, 483]]]}}, {"type": "Feature", "properties": {"class": "Market gardening (fruits, vegetables, flowers)", "class_index": 6, "area_px": 363.0}, "geometry": {"type": "Polygon", "coordinates": [[[224, 458], [224, 464], [232, 472], [244, 473], [247, 471], [245, 464], [245, 456], [237, 451], [224, 458]]]}}, {"type": "Feature", "properties": {"class": "Market gardening (fruits, vegetables, flowers)", "class_index": 6, "area_px": 74.5}, "geometry": {"type": "Polygon", "coordinates": [[[490, 433], [482, 435], [481, 441], [484, 443], [490, 441], [490, 433]]]}}, {"type": "Feature", "properties": {"class": "Market gardening (fruits, vegetables, flowers)", "class_index": 6, "area_px": 439.0}, "geometry": {"type": "Polygon", "coordinates": [[[199, 391], [196, 401], [197, 407], [213, 418], [223, 420], [227, 416], [227, 410], [224, 408], [213, 406], [210, 401], [210, 395], [206, 391], [199, 391]]]}}, {"type": "Feature", "properties": {"class": "Market gardening (fruits, vegetables, flowers)", "class_index": 6, "area_px": 1318.5}, "geometry": {"type": "Polygon", "coordinates": [[[481, 327], [478, 327], [474, 330], [470, 330], [464, 326], [461, 332], [463, 339], [461, 344], [462, 354], [459, 360], [459, 368], [456, 372], [454, 382], [462, 391], [455, 401], [456, 405], [460, 409], [465, 410], [473, 408], [480, 403], [479, 399], [472, 391], [473, 378], [476, 366], [476, 336], [481, 327]]]}}, {"type": "Feature", "properties": {"class": "Market gardening (fruits, vegetables, flowers)", "class_index": 6, "area_px": 214.5}, "geometry": {"type": "Polygon", "coordinates": [[[496, 291], [493, 289], [491, 290], [491, 293], [489, 295], [480, 291], [474, 294], [473, 298], [477, 301], [483, 301], [486, 305], [490, 305], [496, 299], [496, 291]]]}}, {"type": "Feature", "properties": {"class": "Market gardening (fruits, vegetables, flowers)", "class_index": 6, "area_px": 54.0}, "geometry": {"type": "Polygon", "coordinates": [[[50, 186], [52, 190], [62, 190], [64, 188], [57, 185], [50, 186]]]}}, {"type": "Feature", "properties": {"class": "Market gardening (fruits, vegetables, flowers)", "class_index": 6, "area_px": 698.5}, "geometry": {"type": "Polygon", "coordinates": [[[329, 156], [329, 161], [332, 163], [334, 167], [335, 175], [337, 178], [337, 184], [344, 190], [345, 196], [347, 198], [352, 198], [355, 190], [361, 185], [363, 181], [363, 173], [357, 168], [355, 176], [350, 179], [342, 174], [344, 168], [342, 163], [351, 158], [355, 154], [355, 152], [349, 151], [337, 157], [329, 156]]]}}, {"type": "Feature", "properties": {"class": "Vineyards", "class_index": 7, "area_px": 645.0}, "geometry": {"type": "Polygon", "coordinates": [[[536, 570], [518, 568], [516, 561], [513, 560], [512, 571], [503, 572], [503, 588], [500, 592], [500, 596], [503, 600], [507, 600], [512, 595], [517, 595], [523, 584], [522, 579], [527, 576], [531, 576], [536, 572], [536, 570]]]}}, {"type": "Feature", "properties": {"class": "Vineyards", "class_index": 7, "area_px": 1247.0}, "geometry": {"type": "Polygon", "coordinates": [[[385, 557], [379, 552], [379, 545], [369, 544], [367, 546], [367, 552], [361, 556], [352, 557], [344, 566], [340, 568], [331, 569], [305, 569], [299, 574], [295, 582], [298, 583], [300, 586], [305, 587], [314, 579], [318, 578], [343, 582], [347, 580], [353, 572], [361, 572], [370, 568], [372, 564], [379, 563], [385, 557]]]}}, {"type": "Feature", "properties": {"class": "Vineyards", "class_index": 7, "area_px": 159.5}, "geometry": {"type": "Polygon", "coordinates": [[[508, 521], [504, 523], [504, 530], [495, 538], [492, 538], [493, 542], [500, 543], [509, 535], [508, 521]]]}}, {"type": "Feature", "properties": {"class": "Vineyards", "class_index": 7, "area_px": 793.0}, "geometry": {"type": "Polygon", "coordinates": [[[398, 523], [396, 532], [391, 538], [392, 548], [388, 556], [395, 555], [400, 556], [402, 558], [407, 553], [414, 552], [418, 555], [422, 554], [424, 556], [428, 551], [428, 543], [420, 542], [417, 538], [414, 529], [411, 529], [405, 534], [403, 532], [404, 523], [402, 520], [398, 523]]]}}, {"type": "Feature", "properties": {"class": "Vineyards", "class_index": 7, "area_px": 214.5}, "geometry": {"type": "Polygon", "coordinates": [[[295, 516], [293, 512], [278, 515], [276, 514], [270, 517], [270, 521], [273, 523], [289, 523], [295, 519], [295, 516]]]}}, {"type": "Feature", "properties": {"class": "Vineyards", "class_index": 7, "area_px": 851.0}, "geometry": {"type": "Polygon", "coordinates": [[[178, 509], [178, 513], [181, 517], [185, 516], [192, 520], [201, 529], [208, 530], [220, 538], [230, 536], [229, 527], [222, 520], [205, 514], [199, 503], [186, 500], [178, 509]]]}}, {"type": "Feature", "properties": {"class": "Vineyards", "class_index": 7, "area_px": 72.5}, "geometry": {"type": "Polygon", "coordinates": [[[434, 490], [426, 489], [420, 494], [420, 496], [426, 498], [434, 490]]]}}, {"type": "Feature", "properties": {"class": "Vineyards", "class_index": 7, "area_px": 21.0}, "geometry": {"type": "Polygon", "coordinates": [[[449, 457], [446, 460], [446, 466], [448, 466], [449, 464], [449, 457]]]}}, {"type": "Feature", "properties": {"class": "Vineyards", "class_index": 7, "area_px": 20.0}, "geometry": {"type": "Polygon", "coordinates": [[[452, 412], [449, 414], [450, 420], [452, 418], [452, 412]]]}}, {"type": "Feature", "properties": {"class": "Vineyards", "class_index": 7, "area_px": 4686.5}, "geometry": {"type": "Polygon", "coordinates": [[[155, 392], [153, 394], [153, 398], [156, 403], [158, 413], [167, 409], [169, 411], [169, 416], [172, 420], [172, 423], [176, 424], [181, 429], [175, 438], [169, 435], [172, 429], [163, 435], [162, 440], [167, 450], [174, 451], [178, 455], [179, 463], [183, 469], [190, 472], [195, 471], [197, 473], [201, 473], [208, 483], [208, 489], [216, 493], [218, 497], [221, 496], [226, 499], [233, 507], [244, 511], [252, 519], [254, 525], [258, 527], [261, 535], [267, 537], [272, 542], [274, 541], [273, 533], [256, 520], [250, 508], [245, 503], [247, 502], [250, 504], [253, 502], [261, 502], [264, 499], [259, 494], [250, 494], [240, 490], [236, 490], [233, 494], [226, 487], [230, 482], [234, 486], [236, 483], [244, 483], [255, 479], [264, 480], [267, 478], [266, 474], [251, 474], [249, 472], [244, 474], [232, 473], [223, 464], [223, 458], [235, 451], [235, 449], [233, 446], [228, 446], [221, 443], [206, 440], [199, 432], [200, 430], [197, 429], [201, 425], [198, 419], [198, 414], [200, 410], [196, 407], [195, 402], [198, 393], [196, 389], [193, 387], [187, 387], [185, 390], [180, 391], [174, 385], [171, 385], [170, 386], [176, 396], [174, 401], [168, 405], [167, 409], [163, 390], [155, 392]], [[217, 487], [219, 486], [221, 488], [218, 489], [217, 487]], [[206, 465], [207, 464], [210, 468], [208, 469], [206, 465]], [[181, 450], [182, 449], [187, 454], [185, 455], [181, 450]], [[176, 438], [178, 440], [177, 444], [175, 442], [176, 438]]]}}, {"type": "Feature", "properties": {"class": "Vineyards", "class_index": 7, "area_px": 198.0}, "geometry": {"type": "Polygon", "coordinates": [[[187, 364], [186, 370], [196, 380], [204, 381], [207, 379], [207, 375], [203, 371], [201, 371], [193, 365], [187, 364]]]}}, {"type": "Feature", "properties": {"class": "Vineyards", "class_index": 7, "area_px": 637.0}, "geometry": {"type": "Polygon", "coordinates": [[[460, 347], [454, 349], [449, 361], [445, 376], [445, 383], [440, 391], [440, 400], [436, 410], [437, 414], [440, 414], [444, 410], [446, 403], [453, 394], [461, 392], [453, 382], [455, 372], [458, 368], [458, 360], [461, 354], [460, 347]]]}}, {"type": "Feature", "properties": {"class": "Vineyards", "class_index": 7, "area_px": 76.5}, "geometry": {"type": "Polygon", "coordinates": [[[187, 332], [175, 332], [173, 334], [170, 334], [168, 338], [176, 338], [186, 334], [187, 332]]]}}, {"type": "Feature", "properties": {"class": "Vineyards", "class_index": 7, "area_px": 391.0}, "geometry": {"type": "Polygon", "coordinates": [[[472, 297], [456, 309], [456, 313], [460, 315], [460, 318], [456, 320], [456, 324], [451, 331], [449, 330], [442, 333], [443, 340], [452, 338], [456, 334], [460, 333], [463, 325], [467, 321], [465, 315], [474, 301], [472, 297]]]}}, {"type": "Feature", "properties": {"class": "Vineyards", "class_index": 7, "area_px": 1844.5}, "geometry": {"type": "Polygon", "coordinates": [[[320, 244], [319, 241], [316, 241], [304, 251], [293, 255], [290, 259], [280, 264], [263, 264], [261, 266], [254, 266], [241, 270], [230, 269], [217, 260], [203, 254], [194, 255], [188, 251], [181, 252], [177, 250], [169, 250], [152, 256], [145, 263], [141, 265], [139, 264], [139, 267], [146, 271], [152, 271], [156, 268], [161, 267], [169, 261], [174, 260], [186, 263], [189, 262], [197, 268], [202, 263], [204, 263], [217, 275], [227, 280], [239, 278], [275, 278], [277, 277], [273, 274], [275, 270], [287, 269], [297, 262], [299, 259], [305, 257], [316, 250], [320, 244]]]}}, {"type": "Feature", "properties": {"class": "Vineyards", "class_index": 7, "area_px": 328.5}, "geometry": {"type": "Polygon", "coordinates": [[[596, 204], [594, 204], [592, 207], [590, 219], [591, 231], [588, 235], [587, 241], [578, 259], [580, 259], [586, 252], [598, 224], [601, 222], [601, 209], [596, 204]]]}}, {"type": "Feature", "properties": {"class": "Vineyards", "class_index": 7, "area_px": 12.5}, "geometry": {"type": "Polygon", "coordinates": [[[431, 166], [435, 171], [435, 166], [431, 166]]]}}, {"type": "Feature", "properties": {"class": "unlabelled: dark red", "class_index": 13, "area_px": 674.5}, "geometry": {"type": "Polygon", "coordinates": [[[612, 227], [602, 222], [599, 224], [587, 252], [579, 260], [582, 265], [593, 265], [601, 267], [606, 254], [606, 245], [599, 242], [598, 239], [603, 238], [606, 240], [607, 236], [612, 230], [612, 227]]]}}]}