{"type": "FeatureCollection", "coordinate_space": "map_area.png pixels, y down", "mm_per_px": 0.259, "features": [{"type": "Feature", "properties": {"class": "Forest", "class_index": 0, "area_px": 7661.0}, "geometry": {"type": "Polygon", "coordinates": [[[155, 377], [151, 377], [146, 385], [143, 402], [136, 426], [132, 434], [134, 442], [130, 449], [127, 466], [120, 485], [119, 492], [109, 513], [95, 525], [95, 528], [115, 529], [133, 524], [177, 528], [197, 520], [209, 522], [211, 521], [211, 499], [204, 478], [199, 474], [185, 471], [180, 466], [176, 455], [167, 450], [162, 442], [165, 421], [157, 412], [153, 400], [153, 394], [161, 389], [161, 386], [155, 377]]]}}, {"type": "Feature", "properties": {"class": "Forest", "class_index": 0, "area_px": 15249.5}, "geometry": {"type": "Polygon", "coordinates": [[[551, 358], [537, 358], [531, 362], [520, 395], [520, 406], [517, 419], [514, 422], [505, 426], [492, 440], [481, 461], [478, 471], [469, 487], [471, 523], [468, 532], [473, 534], [495, 532], [497, 538], [499, 535], [511, 536], [511, 547], [509, 552], [505, 556], [505, 558], [497, 565], [494, 575], [483, 576], [480, 582], [475, 587], [486, 592], [492, 597], [501, 597], [507, 599], [514, 595], [533, 592], [535, 590], [535, 582], [541, 576], [549, 573], [555, 568], [558, 568], [565, 560], [580, 555], [582, 551], [582, 545], [590, 533], [590, 527], [588, 525], [576, 527], [560, 519], [555, 513], [552, 503], [552, 499], [559, 487], [560, 482], [558, 476], [551, 470], [549, 466], [548, 457], [565, 448], [568, 440], [568, 433], [564, 427], [561, 417], [557, 413], [557, 407], [563, 399], [563, 390], [557, 377], [558, 368], [556, 361], [551, 358]]]}}, {"type": "Feature", "properties": {"class": "Grassland", "class_index": 1, "area_px": 4738.0}, "geometry": {"type": "Polygon", "coordinates": [[[680, 607], [677, 607], [672, 611], [670, 622], [667, 625], [659, 627], [639, 637], [629, 653], [629, 669], [633, 676], [633, 688], [636, 699], [641, 706], [641, 713], [646, 719], [654, 722], [661, 727], [667, 726], [670, 722], [672, 714], [678, 705], [679, 692], [688, 674], [688, 641], [684, 634], [684, 628], [686, 624], [686, 613], [684, 609], [680, 607]]]}}, {"type": "Feature", "properties": {"class": "Grassland", "class_index": 1, "area_px": 7635.0}, "geometry": {"type": "Polygon", "coordinates": [[[166, 80], [164, 82], [165, 99], [167, 107], [172, 116], [170, 136], [168, 139], [167, 147], [175, 161], [187, 170], [211, 174], [232, 184], [241, 191], [246, 188], [251, 188], [256, 193], [262, 192], [271, 183], [276, 173], [277, 162], [279, 158], [279, 154], [274, 141], [275, 127], [270, 117], [266, 115], [256, 114], [244, 121], [237, 121], [229, 116], [217, 114], [209, 109], [196, 107], [193, 104], [191, 98], [192, 85], [189, 82], [176, 83], [170, 80], [166, 80]]]}}, {"type": "Feature", "properties": {"class": "Grassland", "class_index": 1, "area_px": 88072.0}, "geometry": {"type": "Polygon", "coordinates": [[[619, 206], [613, 204], [601, 204], [578, 213], [551, 212], [547, 208], [543, 200], [536, 194], [535, 191], [535, 183], [540, 167], [540, 160], [538, 157], [536, 157], [533, 161], [530, 170], [529, 184], [530, 199], [538, 209], [540, 223], [539, 226], [530, 234], [526, 236], [521, 235], [517, 229], [517, 217], [511, 194], [512, 181], [507, 172], [504, 163], [504, 157], [500, 150], [500, 147], [502, 145], [507, 144], [511, 141], [512, 136], [498, 123], [492, 120], [483, 112], [480, 88], [476, 87], [466, 98], [456, 98], [451, 95], [450, 74], [448, 72], [438, 70], [430, 66], [426, 67], [424, 70], [424, 74], [427, 80], [421, 90], [421, 95], [419, 99], [406, 109], [400, 120], [384, 128], [374, 138], [362, 145], [358, 149], [358, 153], [363, 155], [376, 145], [387, 141], [414, 141], [425, 143], [430, 140], [439, 139], [442, 137], [442, 135], [437, 129], [437, 125], [440, 122], [460, 120], [467, 126], [473, 128], [480, 135], [483, 142], [489, 150], [498, 180], [495, 185], [492, 185], [489, 182], [486, 173], [475, 160], [470, 150], [467, 151], [467, 156], [482, 182], [482, 188], [479, 192], [473, 194], [462, 189], [454, 181], [452, 177], [442, 169], [439, 170], [439, 174], [453, 187], [458, 195], [469, 201], [475, 207], [477, 211], [476, 224], [472, 228], [470, 228], [445, 210], [418, 199], [386, 202], [382, 198], [368, 198], [360, 202], [357, 206], [357, 209], [362, 213], [374, 212], [378, 218], [378, 224], [376, 230], [371, 236], [366, 238], [354, 238], [344, 232], [334, 232], [321, 239], [306, 253], [297, 257], [299, 265], [306, 272], [309, 278], [327, 280], [335, 288], [342, 288], [354, 278], [359, 278], [361, 280], [363, 293], [367, 301], [367, 308], [354, 321], [353, 327], [358, 331], [374, 335], [378, 339], [379, 347], [374, 354], [374, 358], [376, 362], [375, 365], [377, 368], [377, 373], [381, 379], [383, 379], [386, 376], [386, 339], [389, 336], [392, 336], [395, 339], [405, 360], [406, 372], [400, 385], [399, 391], [392, 397], [389, 405], [380, 414], [380, 423], [382, 430], [394, 443], [394, 448], [391, 451], [384, 451], [380, 449], [367, 449], [363, 446], [361, 442], [359, 404], [356, 398], [347, 397], [337, 404], [333, 412], [329, 416], [303, 432], [290, 445], [277, 446], [265, 442], [235, 445], [237, 459], [239, 462], [266, 465], [269, 467], [271, 489], [278, 494], [295, 513], [294, 520], [287, 535], [285, 550], [282, 553], [279, 552], [271, 542], [264, 537], [247, 538], [224, 535], [220, 533], [211, 523], [197, 521], [177, 529], [148, 527], [141, 525], [133, 525], [115, 530], [94, 529], [95, 535], [105, 540], [108, 544], [104, 551], [105, 555], [115, 555], [123, 561], [136, 567], [145, 576], [163, 581], [179, 591], [212, 594], [217, 588], [221, 588], [244, 599], [251, 606], [261, 607], [265, 611], [267, 617], [278, 626], [291, 626], [300, 631], [311, 634], [323, 629], [332, 629], [338, 631], [342, 630], [342, 624], [339, 617], [340, 601], [338, 597], [340, 584], [354, 573], [364, 571], [388, 556], [398, 556], [408, 562], [413, 562], [421, 556], [424, 559], [424, 565], [428, 569], [435, 571], [445, 570], [435, 563], [431, 555], [432, 542], [429, 539], [429, 531], [432, 527], [429, 521], [429, 505], [431, 500], [430, 485], [436, 478], [446, 479], [449, 484], [448, 499], [458, 500], [470, 512], [470, 523], [468, 487], [477, 471], [480, 461], [491, 440], [505, 425], [514, 421], [517, 416], [519, 406], [519, 395], [524, 383], [524, 378], [518, 375], [518, 372], [522, 364], [523, 351], [537, 337], [544, 323], [548, 319], [554, 317], [569, 301], [573, 295], [572, 289], [574, 287], [587, 289], [590, 288], [598, 279], [601, 265], [606, 253], [606, 240], [612, 229], [613, 222], [619, 206]]]}}, {"type": "Feature", "properties": {"class": "Grassland and crops", "class_index": 2, "area_px": 7902.0}, "geometry": {"type": "Polygon", "coordinates": [[[377, 339], [374, 336], [354, 330], [349, 342], [346, 346], [342, 348], [337, 343], [336, 330], [332, 320], [325, 314], [318, 314], [314, 316], [304, 329], [295, 337], [287, 340], [265, 344], [253, 351], [247, 357], [240, 376], [240, 385], [244, 399], [253, 412], [263, 421], [282, 428], [295, 427], [298, 424], [298, 413], [293, 394], [294, 386], [299, 381], [304, 379], [331, 380], [344, 384], [354, 383], [367, 366], [375, 364], [373, 354], [378, 347], [377, 339]]]}}, {"type": "Feature", "properties": {"class": "Grassland and crops", "class_index": 2, "area_px": 22680.0}, "geometry": {"type": "Polygon", "coordinates": [[[14, 137], [9, 146], [9, 149], [15, 155], [15, 161], [20, 166], [15, 171], [15, 174], [20, 182], [21, 188], [24, 191], [42, 192], [59, 201], [63, 205], [69, 207], [73, 211], [73, 219], [75, 222], [89, 222], [104, 231], [105, 246], [117, 251], [116, 259], [121, 265], [121, 270], [117, 274], [116, 279], [125, 296], [126, 302], [131, 310], [135, 312], [141, 310], [159, 310], [189, 314], [194, 312], [198, 308], [200, 304], [201, 289], [199, 284], [197, 263], [206, 255], [208, 246], [213, 239], [227, 230], [240, 225], [243, 222], [244, 199], [242, 193], [232, 185], [211, 175], [187, 171], [180, 167], [173, 159], [161, 159], [152, 152], [150, 152], [145, 157], [128, 148], [115, 153], [111, 152], [102, 140], [100, 133], [97, 130], [90, 127], [77, 127], [70, 132], [54, 134], [49, 131], [38, 131], [30, 129], [14, 137]]]}}, {"type": "Feature", "properties": {"class": "Cropland (primarily wheat, sugar beets, corn)", "class_index": 3, "area_px": 18837.5}, "geometry": {"type": "Polygon", "coordinates": [[[382, 9], [377, 8], [366, 13], [353, 13], [339, 19], [334, 29], [335, 42], [333, 54], [329, 67], [319, 78], [311, 82], [273, 90], [261, 97], [255, 105], [255, 110], [258, 113], [267, 115], [307, 101], [320, 101], [325, 105], [323, 116], [314, 120], [308, 129], [309, 135], [316, 146], [314, 171], [317, 177], [321, 180], [324, 185], [324, 196], [318, 203], [310, 205], [297, 205], [292, 208], [290, 213], [290, 228], [294, 237], [298, 240], [308, 239], [326, 230], [331, 232], [344, 231], [354, 237], [366, 237], [371, 235], [375, 230], [377, 218], [374, 213], [360, 213], [356, 209], [357, 204], [368, 197], [383, 197], [391, 183], [396, 178], [399, 168], [404, 163], [416, 161], [423, 152], [424, 146], [421, 143], [387, 142], [376, 146], [363, 156], [357, 153], [357, 149], [362, 144], [374, 137], [381, 129], [396, 122], [401, 118], [405, 109], [418, 99], [420, 95], [420, 90], [426, 80], [423, 74], [423, 70], [428, 65], [428, 63], [412, 50], [409, 40], [405, 35], [391, 35], [386, 30], [384, 26], [384, 11], [382, 9]]]}}, {"type": "Feature", "properties": {"class": "Other crops (primarily cereals)", "class_index": 4, "area_px": 6245.0}, "geometry": {"type": "Polygon", "coordinates": [[[501, 147], [501, 150], [505, 157], [505, 163], [508, 172], [513, 181], [512, 194], [518, 217], [518, 229], [519, 232], [523, 235], [526, 235], [533, 231], [539, 223], [537, 209], [529, 199], [528, 184], [529, 170], [532, 161], [536, 156], [538, 156], [541, 160], [541, 167], [536, 183], [536, 191], [537, 194], [544, 200], [548, 208], [553, 212], [578, 212], [601, 203], [613, 203], [620, 205], [630, 195], [635, 187], [635, 181], [630, 178], [611, 173], [602, 168], [589, 169], [581, 167], [576, 164], [569, 163], [561, 152], [552, 143], [546, 140], [534, 139], [524, 134], [517, 134], [513, 136], [512, 141], [509, 144], [501, 147]]]}}, {"type": "Feature", "properties": {"class": "Other crops (primarily cereals)", "class_index": 4, "area_px": 5511.0}, "geometry": {"type": "Polygon", "coordinates": [[[442, 122], [438, 125], [438, 129], [443, 135], [443, 137], [439, 140], [430, 141], [424, 144], [424, 152], [417, 161], [414, 163], [404, 164], [400, 168], [397, 178], [392, 183], [388, 192], [383, 198], [386, 201], [418, 198], [445, 209], [466, 225], [472, 227], [476, 222], [476, 211], [474, 207], [469, 202], [464, 200], [455, 193], [452, 187], [438, 174], [438, 170], [440, 168], [446, 170], [462, 188], [467, 191], [475, 193], [479, 191], [481, 188], [481, 182], [466, 156], [466, 151], [470, 149], [473, 152], [476, 160], [487, 173], [490, 182], [492, 184], [495, 184], [497, 180], [492, 166], [490, 154], [479, 135], [473, 129], [467, 127], [460, 121], [442, 122]]]}}, {"type": "Feature", "properties": {"class": "Other crops (primarily cereals)", "class_index": 4, "area_px": 32304.5}, "geometry": {"type": "Polygon", "coordinates": [[[307, 102], [270, 115], [276, 127], [275, 141], [280, 154], [277, 173], [272, 183], [262, 193], [256, 194], [251, 189], [246, 189], [242, 192], [245, 199], [244, 222], [240, 226], [227, 231], [213, 240], [209, 246], [207, 255], [199, 261], [199, 277], [202, 289], [201, 304], [199, 308], [194, 313], [189, 315], [159, 311], [141, 311], [137, 313], [143, 319], [151, 322], [155, 326], [154, 334], [158, 345], [156, 351], [152, 357], [147, 361], [146, 365], [149, 370], [157, 376], [163, 383], [167, 385], [173, 385], [180, 389], [189, 386], [197, 389], [204, 398], [206, 407], [213, 421], [215, 429], [225, 435], [234, 444], [265, 441], [277, 445], [290, 444], [303, 431], [329, 415], [341, 399], [347, 396], [354, 396], [358, 399], [361, 408], [362, 442], [364, 446], [367, 448], [380, 448], [384, 450], [391, 450], [393, 448], [393, 443], [381, 430], [379, 423], [379, 414], [388, 405], [391, 397], [398, 391], [399, 385], [405, 372], [404, 360], [392, 337], [389, 337], [387, 339], [387, 376], [383, 380], [381, 380], [377, 376], [375, 366], [369, 366], [366, 368], [360, 378], [352, 385], [344, 385], [331, 381], [304, 380], [299, 382], [294, 389], [294, 394], [299, 413], [299, 424], [295, 428], [277, 428], [260, 420], [249, 408], [243, 399], [240, 390], [239, 376], [242, 365], [246, 357], [259, 346], [271, 341], [291, 338], [298, 334], [314, 315], [318, 313], [325, 313], [333, 320], [337, 330], [338, 343], [342, 347], [346, 345], [352, 335], [353, 321], [366, 308], [366, 301], [362, 293], [361, 282], [359, 279], [354, 279], [345, 287], [338, 290], [335, 289], [327, 281], [309, 279], [296, 261], [296, 257], [298, 255], [306, 252], [321, 238], [330, 233], [326, 231], [308, 240], [298, 241], [293, 237], [289, 228], [289, 213], [293, 206], [297, 204], [315, 203], [318, 202], [323, 196], [323, 185], [320, 180], [316, 177], [313, 171], [315, 146], [308, 135], [307, 129], [314, 119], [322, 116], [324, 105], [320, 102], [307, 102]]]}}, {"type": "Feature", "properties": {"class": "Market gardening (fruits, vegetables, flowers)", "class_index": 6, "area_px": 4454.0}, "geometry": {"type": "Polygon", "coordinates": [[[436, 479], [431, 485], [432, 500], [430, 505], [430, 521], [433, 527], [430, 531], [430, 539], [433, 542], [432, 555], [439, 566], [448, 570], [453, 575], [462, 577], [471, 586], [474, 587], [483, 575], [493, 575], [496, 565], [504, 558], [504, 556], [508, 552], [510, 547], [510, 536], [499, 536], [497, 539], [495, 537], [495, 533], [485, 533], [477, 535], [468, 533], [467, 528], [469, 526], [469, 512], [458, 501], [448, 500], [447, 481], [444, 479], [436, 479]]]}}, {"type": "Feature", "properties": {"class": "Vineyards", "class_index": 7, "area_px": 9400.0}, "geometry": {"type": "Polygon", "coordinates": [[[156, 392], [154, 394], [154, 400], [158, 412], [166, 421], [163, 442], [167, 449], [174, 452], [177, 455], [181, 466], [185, 470], [199, 473], [205, 478], [212, 499], [212, 524], [220, 532], [224, 534], [247, 537], [264, 536], [268, 538], [279, 551], [282, 552], [284, 550], [286, 535], [293, 520], [294, 513], [283, 500], [270, 489], [268, 467], [254, 464], [241, 464], [237, 461], [234, 445], [225, 436], [214, 429], [212, 421], [205, 407], [203, 398], [197, 390], [191, 387], [180, 390], [172, 386], [167, 393], [165, 393], [162, 390], [156, 392]]]}}]}