{"type": "FeatureCollection", "coordinate_space": "map_area.png pixels, y down", "mm_per_px": 0.259, "features": [{"type": "Feature", "properties": {"class": "Forest", "class_index": 0, "area_px": 6561.0}, "geometry": {"type": "Polygon", "coordinates": [[[546, 358], [536, 371], [532, 374], [533, 390], [538, 400], [536, 408], [536, 424], [544, 430], [541, 433], [541, 439], [510, 440], [505, 446], [502, 446], [500, 448], [499, 456], [496, 458], [496, 468], [507, 488], [515, 497], [522, 500], [519, 503], [519, 513], [528, 522], [531, 529], [540, 533], [548, 533], [554, 531], [563, 537], [574, 536], [584, 541], [589, 533], [588, 527], [574, 526], [565, 522], [556, 514], [553, 507], [553, 497], [559, 486], [559, 479], [549, 465], [549, 458], [566, 445], [568, 435], [558, 413], [558, 407], [562, 400], [563, 392], [558, 380], [557, 365], [554, 360], [546, 358]]]}}, {"type": "Feature", "properties": {"class": "Grassland", "class_index": 1, "area_px": 7465.5}, "geometry": {"type": "Polygon", "coordinates": [[[694, 602], [686, 600], [673, 600], [668, 602], [664, 608], [662, 615], [659, 618], [634, 629], [629, 634], [623, 645], [622, 674], [626, 686], [627, 700], [633, 712], [635, 721], [647, 733], [676, 733], [678, 724], [684, 714], [687, 697], [691, 692], [694, 691], [694, 602]]]}}, {"type": "Feature", "properties": {"class": "Grassland", "class_index": 1, "area_px": 97318.0}, "geometry": {"type": "Polygon", "coordinates": [[[634, 182], [627, 177], [614, 174], [600, 168], [585, 168], [572, 164], [563, 156], [553, 144], [548, 141], [532, 138], [522, 134], [511, 134], [507, 132], [499, 124], [487, 116], [483, 111], [481, 95], [478, 89], [475, 89], [464, 98], [455, 97], [451, 92], [451, 81], [449, 74], [444, 71], [428, 66], [425, 70], [426, 80], [419, 98], [405, 111], [403, 116], [397, 122], [383, 129], [373, 139], [360, 148], [360, 152], [365, 153], [377, 144], [388, 141], [413, 141], [423, 143], [429, 146], [435, 153], [424, 176], [419, 181], [393, 197], [369, 198], [362, 201], [359, 204], [358, 208], [360, 211], [371, 212], [377, 217], [377, 227], [370, 236], [364, 238], [356, 238], [342, 232], [329, 233], [312, 248], [298, 258], [298, 262], [301, 267], [313, 279], [326, 280], [337, 288], [343, 287], [354, 279], [357, 279], [361, 282], [367, 306], [364, 312], [355, 321], [354, 328], [356, 330], [371, 334], [378, 340], [379, 346], [375, 353], [374, 365], [380, 376], [384, 376], [386, 372], [386, 345], [387, 341], [390, 338], [395, 341], [404, 358], [406, 364], [406, 371], [400, 388], [392, 398], [388, 406], [383, 410], [380, 416], [382, 429], [394, 445], [394, 450], [391, 458], [382, 467], [362, 478], [345, 483], [333, 484], [315, 492], [268, 498], [268, 502], [264, 506], [256, 506], [255, 508], [259, 513], [260, 517], [275, 528], [278, 532], [278, 544], [275, 546], [269, 546], [264, 541], [259, 540], [254, 530], [250, 528], [248, 522], [238, 513], [234, 513], [146, 574], [153, 579], [165, 582], [173, 588], [181, 591], [209, 594], [218, 589], [223, 589], [242, 598], [249, 604], [261, 608], [267, 616], [279, 626], [289, 626], [307, 633], [313, 633], [320, 630], [338, 630], [341, 628], [341, 621], [339, 616], [339, 588], [341, 584], [353, 574], [363, 571], [389, 556], [397, 556], [407, 561], [421, 559], [429, 568], [425, 561], [425, 547], [423, 545], [424, 479], [430, 472], [450, 472], [454, 475], [455, 493], [464, 494], [476, 506], [476, 527], [501, 526], [502, 529], [517, 530], [517, 553], [515, 558], [511, 562], [511, 564], [503, 571], [499, 582], [488, 583], [483, 591], [495, 597], [508, 598], [515, 595], [531, 592], [534, 589], [535, 584], [540, 577], [557, 568], [566, 560], [577, 556], [582, 550], [584, 543], [583, 541], [574, 537], [563, 538], [554, 532], [548, 534], [540, 534], [529, 528], [527, 522], [518, 513], [518, 503], [521, 500], [515, 498], [502, 482], [495, 468], [495, 458], [498, 456], [499, 448], [502, 445], [505, 445], [510, 439], [540, 439], [540, 433], [543, 430], [535, 424], [535, 408], [537, 400], [532, 390], [531, 374], [535, 371], [545, 358], [534, 359], [529, 363], [526, 370], [522, 373], [521, 369], [523, 364], [524, 350], [536, 338], [543, 325], [550, 318], [556, 315], [569, 301], [575, 289], [588, 288], [592, 286], [597, 280], [606, 252], [607, 238], [612, 228], [615, 216], [620, 206], [632, 192], [634, 188], [634, 182]]]}}, {"type": "Feature", "properties": {"class": "Grassland and crops", "class_index": 2, "area_px": 7909.0}, "geometry": {"type": "Polygon", "coordinates": [[[377, 340], [371, 335], [354, 330], [350, 340], [342, 346], [338, 343], [335, 327], [331, 319], [326, 315], [317, 315], [312, 318], [303, 330], [296, 336], [290, 339], [263, 345], [253, 351], [248, 356], [242, 368], [240, 377], [240, 384], [243, 396], [250, 408], [263, 421], [278, 427], [293, 427], [298, 422], [298, 413], [294, 398], [294, 388], [296, 384], [306, 379], [330, 380], [344, 384], [350, 384], [355, 382], [367, 367], [374, 364], [374, 353], [378, 346], [377, 340]]]}}, {"type": "Feature", "properties": {"class": "Grassland and crops", "class_index": 2, "area_px": 27156.5}, "geometry": {"type": "Polygon", "coordinates": [[[16, 136], [10, 145], [10, 149], [14, 154], [18, 164], [16, 174], [22, 188], [26, 191], [39, 191], [57, 200], [72, 211], [74, 219], [76, 221], [90, 223], [99, 228], [104, 233], [105, 244], [116, 253], [117, 259], [120, 264], [120, 270], [117, 275], [117, 280], [124, 294], [127, 304], [132, 310], [136, 312], [144, 310], [159, 310], [184, 314], [191, 313], [196, 310], [200, 303], [200, 284], [198, 276], [199, 261], [206, 254], [210, 243], [216, 237], [238, 226], [244, 219], [244, 200], [241, 192], [241, 174], [244, 164], [244, 155], [239, 145], [231, 142], [210, 127], [200, 109], [192, 101], [190, 84], [186, 82], [179, 83], [168, 81], [166, 82], [164, 87], [167, 107], [172, 118], [168, 140], [168, 149], [170, 155], [167, 158], [160, 158], [154, 154], [142, 155], [130, 149], [124, 149], [117, 152], [113, 152], [106, 146], [100, 134], [96, 130], [87, 127], [80, 127], [69, 132], [58, 134], [48, 131], [28, 130], [16, 136]]]}}, {"type": "Feature", "properties": {"class": "Cropland (primarily wheat, sugar beets, corn)", "class_index": 3, "area_px": 20947.0}, "geometry": {"type": "Polygon", "coordinates": [[[380, 9], [375, 9], [365, 13], [350, 14], [341, 18], [335, 26], [333, 53], [330, 64], [325, 72], [313, 81], [279, 88], [267, 93], [257, 102], [254, 114], [248, 119], [238, 121], [226, 115], [219, 114], [208, 109], [201, 109], [206, 120], [212, 128], [231, 141], [240, 144], [257, 130], [266, 117], [275, 112], [308, 101], [317, 101], [324, 106], [323, 114], [315, 120], [309, 128], [309, 134], [315, 145], [314, 169], [316, 175], [323, 184], [324, 194], [323, 197], [317, 203], [309, 205], [299, 205], [294, 207], [291, 211], [291, 230], [294, 236], [300, 240], [311, 238], [323, 232], [342, 231], [356, 237], [364, 237], [370, 235], [376, 227], [376, 217], [371, 213], [360, 212], [357, 208], [358, 204], [362, 200], [369, 197], [393, 196], [410, 186], [423, 176], [428, 164], [434, 155], [433, 151], [429, 147], [420, 143], [413, 142], [388, 142], [377, 145], [365, 154], [361, 154], [359, 152], [359, 148], [363, 144], [373, 138], [383, 128], [397, 121], [402, 116], [404, 111], [418, 98], [425, 80], [424, 70], [428, 65], [424, 59], [414, 52], [411, 48], [408, 39], [405, 36], [391, 34], [386, 29], [384, 23], [384, 14], [380, 9]]]}}, {"type": "Feature", "properties": {"class": "Other crops (primarily cereals)", "class_index": 4, "area_px": 53078.5}, "geometry": {"type": "Polygon", "coordinates": [[[320, 103], [303, 103], [269, 116], [265, 119], [258, 130], [240, 145], [245, 155], [245, 164], [242, 174], [242, 192], [245, 200], [245, 219], [238, 227], [216, 238], [211, 243], [207, 254], [200, 261], [199, 276], [201, 284], [201, 303], [197, 310], [187, 315], [159, 311], [144, 311], [139, 313], [145, 320], [153, 325], [157, 341], [157, 348], [147, 364], [151, 373], [151, 377], [145, 389], [143, 402], [133, 432], [133, 443], [129, 453], [128, 462], [118, 494], [108, 514], [95, 525], [94, 532], [106, 543], [107, 554], [118, 557], [144, 573], [149, 571], [180, 550], [192, 540], [235, 512], [230, 511], [220, 501], [215, 501], [213, 497], [203, 491], [202, 482], [198, 477], [187, 476], [180, 473], [175, 466], [174, 458], [171, 455], [165, 455], [163, 453], [158, 443], [158, 434], [162, 429], [168, 425], [168, 423], [165, 419], [165, 415], [161, 417], [154, 416], [152, 406], [149, 401], [149, 391], [154, 387], [166, 386], [166, 383], [168, 381], [177, 381], [182, 386], [184, 383], [196, 383], [202, 388], [200, 404], [204, 407], [204, 430], [211, 437], [237, 443], [239, 446], [239, 454], [227, 461], [235, 469], [241, 470], [244, 468], [252, 468], [254, 470], [270, 471], [271, 481], [269, 483], [258, 483], [255, 485], [244, 487], [247, 487], [249, 489], [262, 490], [268, 497], [299, 492], [315, 491], [333, 483], [345, 482], [362, 477], [382, 466], [387, 462], [392, 454], [393, 445], [381, 429], [379, 416], [382, 410], [387, 406], [391, 398], [398, 390], [405, 371], [405, 364], [396, 344], [391, 339], [388, 341], [387, 345], [387, 372], [386, 375], [382, 378], [377, 374], [375, 367], [371, 366], [364, 371], [355, 383], [350, 385], [344, 385], [330, 381], [306, 380], [297, 384], [295, 388], [295, 398], [298, 407], [299, 422], [295, 427], [290, 429], [278, 428], [269, 425], [259, 419], [245, 402], [240, 389], [239, 377], [241, 368], [247, 356], [256, 348], [268, 342], [286, 339], [296, 335], [302, 330], [312, 317], [320, 313], [326, 314], [332, 319], [336, 327], [339, 343], [343, 345], [349, 340], [353, 332], [354, 321], [363, 312], [366, 306], [359, 281], [354, 280], [343, 288], [337, 289], [326, 281], [311, 279], [297, 262], [297, 258], [301, 254], [307, 251], [328, 233], [323, 233], [311, 239], [300, 241], [293, 236], [289, 226], [289, 215], [290, 211], [294, 206], [299, 204], [309, 204], [317, 202], [323, 194], [322, 184], [314, 173], [314, 145], [308, 134], [308, 128], [310, 124], [323, 112], [323, 106], [320, 103]]]}}, {"type": "Feature", "properties": {"class": "Market gardening (fruits, vegetables, flowers)", "class_index": 6, "area_px": 6565.5}, "geometry": {"type": "Polygon", "coordinates": [[[430, 473], [425, 479], [424, 545], [426, 547], [426, 561], [430, 569], [437, 571], [448, 571], [462, 578], [469, 585], [480, 590], [483, 590], [489, 581], [499, 581], [502, 571], [510, 564], [510, 562], [514, 558], [516, 553], [516, 530], [502, 530], [501, 527], [476, 528], [475, 506], [464, 495], [454, 493], [453, 475], [450, 473], [430, 473]]]}}, {"type": "Feature", "properties": {"class": "Vineyards", "class_index": 7, "area_px": 7252.5}, "geometry": {"type": "Polygon", "coordinates": [[[152, 389], [150, 391], [150, 401], [153, 406], [155, 416], [161, 416], [165, 414], [166, 419], [169, 423], [169, 425], [159, 434], [159, 443], [164, 453], [171, 454], [175, 458], [176, 466], [180, 472], [187, 475], [198, 476], [203, 482], [204, 491], [213, 496], [215, 500], [220, 500], [230, 510], [241, 514], [249, 522], [251, 528], [255, 530], [259, 539], [264, 540], [269, 545], [277, 544], [276, 530], [260, 518], [254, 508], [256, 505], [264, 505], [267, 502], [267, 496], [262, 491], [249, 490], [243, 487], [258, 482], [269, 482], [269, 471], [254, 471], [252, 469], [244, 469], [241, 471], [235, 470], [226, 461], [238, 454], [238, 446], [236, 443], [211, 438], [203, 430], [203, 407], [199, 404], [201, 396], [201, 388], [196, 384], [184, 384], [182, 387], [177, 382], [168, 382], [166, 387], [158, 387], [152, 389]], [[169, 393], [171, 394], [170, 399], [168, 398], [169, 393]]]}}]}