{"type": "FeatureCollection", "coordinate_space": "map_area.png pixels, y down", "mm_per_px": 0.259, "features": [{"type": "Feature", "properties": {"class": "Forest", "class_index": 0, "area_px": 3121.5}, "geometry": {"type": "Polygon", "coordinates": [[[139, 568], [147, 578], [153, 578], [155, 580], [164, 581], [178, 591], [187, 591], [192, 593], [204, 593], [213, 595], [215, 593], [214, 588], [216, 586], [220, 587], [246, 600], [251, 607], [260, 606], [266, 610], [266, 617], [269, 620], [276, 623], [280, 628], [284, 628], [287, 625], [290, 625], [300, 631], [309, 634], [314, 634], [320, 629], [334, 629], [340, 632], [343, 631], [343, 626], [336, 621], [318, 619], [310, 615], [304, 615], [300, 610], [284, 610], [276, 597], [268, 594], [265, 598], [263, 598], [257, 590], [254, 590], [247, 586], [239, 585], [234, 582], [218, 578], [203, 579], [200, 577], [198, 573], [184, 572], [177, 569], [171, 563], [167, 563], [160, 567], [141, 566], [139, 568]]]}}, {"type": "Feature", "properties": {"class": "Forest", "class_index": 0, "area_px": 2029.0}, "geometry": {"type": "Polygon", "coordinates": [[[409, 427], [402, 424], [391, 426], [389, 424], [379, 422], [376, 425], [375, 435], [378, 442], [377, 453], [374, 458], [369, 475], [367, 500], [364, 505], [365, 515], [373, 511], [373, 509], [377, 506], [379, 501], [388, 494], [393, 482], [403, 473], [403, 471], [396, 464], [393, 445], [397, 442], [403, 442], [411, 436], [411, 430], [409, 427]]]}}, {"type": "Feature", "properties": {"class": "Forest", "class_index": 0, "area_px": 5592.0}, "geometry": {"type": "Polygon", "coordinates": [[[154, 376], [151, 376], [146, 384], [144, 398], [138, 416], [137, 424], [131, 436], [132, 440], [137, 441], [130, 448], [128, 463], [119, 487], [120, 492], [116, 495], [116, 503], [113, 504], [110, 512], [113, 515], [119, 515], [123, 509], [135, 506], [167, 512], [177, 511], [177, 509], [188, 495], [196, 498], [197, 500], [200, 500], [206, 495], [208, 490], [206, 488], [207, 483], [204, 477], [201, 474], [190, 473], [183, 470], [178, 463], [177, 455], [174, 452], [168, 452], [162, 443], [161, 438], [166, 426], [166, 422], [163, 417], [157, 414], [155, 403], [152, 398], [152, 394], [155, 391], [160, 390], [162, 388], [160, 384], [156, 381], [154, 376]], [[139, 437], [141, 439], [137, 441], [136, 440], [139, 437]]]}}, {"type": "Feature", "properties": {"class": "Forest", "class_index": 0, "area_px": 5639.5}, "geometry": {"type": "Polygon", "coordinates": [[[547, 358], [546, 363], [535, 376], [536, 387], [541, 397], [539, 421], [549, 429], [549, 431], [544, 436], [544, 441], [542, 443], [511, 443], [502, 449], [501, 455], [496, 458], [491, 464], [494, 467], [500, 469], [510, 486], [518, 495], [524, 497], [527, 500], [522, 506], [522, 510], [531, 519], [534, 526], [543, 530], [557, 528], [566, 534], [576, 532], [582, 536], [587, 537], [590, 534], [591, 530], [589, 524], [586, 524], [583, 527], [572, 526], [569, 523], [561, 520], [556, 515], [552, 504], [552, 497], [556, 493], [556, 490], [560, 487], [559, 475], [552, 472], [549, 468], [549, 462], [546, 459], [546, 456], [553, 455], [558, 450], [564, 450], [566, 448], [566, 442], [569, 438], [569, 434], [563, 426], [561, 416], [556, 413], [556, 407], [561, 404], [563, 400], [563, 388], [557, 380], [557, 362], [553, 358], [547, 358]]]}}, {"type": "Feature", "properties": {"class": "Forest", "class_index": 0, "area_px": 865.0}, "geometry": {"type": "Polygon", "coordinates": [[[431, 289], [427, 289], [421, 295], [419, 295], [412, 287], [411, 299], [415, 304], [415, 307], [412, 310], [406, 311], [399, 320], [398, 324], [400, 328], [406, 326], [413, 319], [418, 319], [426, 324], [431, 324], [433, 321], [432, 318], [434, 316], [443, 314], [444, 309], [440, 306], [435, 306], [433, 304], [431, 289]]]}}, {"type": "Feature", "properties": {"class": "Forest", "class_index": 0, "area_px": 2948.0}, "geometry": {"type": "Polygon", "coordinates": [[[636, 180], [608, 172], [587, 191], [583, 197], [582, 203], [568, 213], [573, 221], [579, 220], [584, 217], [591, 219], [592, 221], [588, 222], [578, 229], [575, 235], [569, 241], [563, 242], [559, 246], [560, 249], [555, 256], [557, 266], [556, 271], [558, 273], [566, 272], [572, 265], [582, 266], [603, 262], [606, 254], [606, 239], [611, 231], [607, 231], [600, 228], [596, 224], [596, 212], [591, 207], [591, 196], [598, 190], [610, 190], [611, 197], [616, 200], [618, 208], [633, 191], [636, 186], [636, 180]]]}}, {"type": "Feature", "properties": {"class": "Grassland", "class_index": 1, "area_px": 3943.5}, "geometry": {"type": "Polygon", "coordinates": [[[681, 609], [677, 609], [674, 612], [672, 620], [672, 630], [670, 632], [667, 628], [662, 628], [657, 632], [640, 639], [638, 641], [637, 647], [631, 653], [631, 656], [635, 660], [631, 664], [631, 669], [637, 676], [637, 679], [635, 681], [635, 688], [641, 691], [640, 694], [637, 696], [640, 698], [641, 701], [647, 704], [643, 709], [643, 713], [649, 718], [657, 720], [661, 725], [666, 724], [670, 715], [670, 710], [674, 708], [676, 705], [676, 692], [686, 673], [686, 664], [684, 656], [686, 641], [680, 635], [681, 630], [679, 629], [679, 627], [682, 626], [684, 623], [684, 614], [681, 609]]]}}, {"type": "Feature", "properties": {"class": "Grassland", "class_index": 1, "area_px": 5539.5}, "geometry": {"type": "Polygon", "coordinates": [[[342, 624], [338, 614], [341, 605], [341, 601], [337, 598], [339, 593], [338, 582], [318, 579], [314, 580], [307, 587], [300, 587], [298, 584], [294, 582], [284, 593], [273, 588], [270, 584], [269, 565], [263, 552], [263, 549], [271, 542], [265, 537], [261, 537], [258, 546], [243, 559], [236, 559], [229, 556], [223, 559], [212, 561], [199, 560], [197, 558], [198, 552], [191, 541], [177, 550], [173, 550], [166, 544], [159, 543], [158, 546], [165, 554], [165, 557], [162, 560], [158, 559], [142, 544], [135, 541], [121, 541], [115, 544], [110, 544], [103, 551], [104, 556], [116, 554], [121, 560], [137, 568], [141, 565], [160, 566], [167, 562], [171, 562], [177, 568], [184, 571], [196, 571], [203, 578], [218, 577], [234, 581], [236, 583], [247, 585], [254, 589], [257, 589], [263, 597], [265, 597], [268, 593], [276, 596], [280, 600], [284, 609], [300, 609], [304, 614], [310, 614], [318, 618], [336, 620], [342, 624]]]}}, {"type": "Feature", "properties": {"class": "Grassland", "class_index": 1, "area_px": 944.0}, "geometry": {"type": "Polygon", "coordinates": [[[180, 517], [177, 512], [167, 513], [135, 507], [123, 510], [119, 516], [113, 516], [109, 513], [104, 519], [96, 523], [93, 526], [92, 530], [93, 532], [99, 529], [119, 531], [126, 528], [137, 519], [142, 517], [150, 517], [163, 521], [175, 521], [179, 520], [180, 517]]]}}, {"type": "Feature", "properties": {"class": "Grassland", "class_index": 1, "area_px": 1257.0}, "geometry": {"type": "Polygon", "coordinates": [[[366, 494], [354, 500], [347, 509], [341, 512], [314, 518], [311, 520], [301, 520], [290, 517], [285, 519], [269, 518], [267, 516], [266, 509], [269, 506], [276, 505], [269, 501], [264, 500], [261, 503], [253, 503], [250, 505], [250, 507], [256, 516], [257, 520], [274, 533], [276, 542], [290, 542], [290, 533], [288, 531], [289, 527], [294, 525], [298, 526], [301, 524], [310, 524], [325, 520], [337, 519], [354, 513], [365, 503], [366, 494]]]}}, {"type": "Feature", "properties": {"class": "Grassland", "class_index": 1, "area_px": 7041.0}, "geometry": {"type": "Polygon", "coordinates": [[[455, 494], [455, 505], [466, 516], [466, 523], [462, 528], [462, 533], [464, 536], [469, 538], [484, 538], [491, 536], [495, 540], [497, 540], [501, 536], [504, 536], [507, 539], [505, 548], [501, 552], [501, 554], [493, 561], [490, 571], [479, 572], [476, 578], [469, 585], [487, 592], [491, 598], [495, 598], [499, 595], [503, 600], [507, 600], [512, 595], [520, 595], [524, 592], [533, 593], [536, 590], [536, 587], [533, 583], [538, 579], [540, 575], [547, 575], [553, 568], [560, 568], [565, 559], [576, 557], [582, 554], [582, 544], [586, 538], [576, 533], [566, 535], [557, 529], [545, 531], [540, 530], [532, 525], [530, 519], [521, 510], [521, 506], [506, 506], [503, 508], [498, 501], [480, 487], [471, 482], [462, 485], [455, 494]]]}}, {"type": "Feature", "properties": {"class": "Grassland", "class_index": 1, "area_px": 5133.0}, "geometry": {"type": "Polygon", "coordinates": [[[376, 448], [368, 450], [365, 449], [361, 443], [361, 428], [359, 425], [361, 416], [358, 399], [353, 396], [340, 400], [330, 416], [324, 418], [315, 426], [307, 429], [299, 435], [292, 445], [275, 446], [268, 442], [248, 443], [244, 445], [233, 444], [237, 452], [238, 463], [251, 463], [258, 456], [267, 456], [276, 452], [287, 453], [292, 451], [299, 451], [301, 455], [308, 459], [317, 457], [327, 459], [335, 457], [337, 459], [337, 464], [333, 468], [324, 470], [309, 470], [302, 472], [300, 474], [285, 473], [279, 475], [270, 475], [270, 477], [276, 480], [294, 481], [303, 478], [306, 479], [308, 477], [321, 476], [328, 478], [344, 488], [352, 491], [360, 491], [367, 487], [368, 475], [373, 458], [376, 453], [376, 448]]]}}, {"type": "Feature", "properties": {"class": "Grassland", "class_index": 1, "area_px": 2111.0}, "geometry": {"type": "Polygon", "coordinates": [[[534, 377], [530, 379], [527, 392], [523, 396], [514, 400], [505, 409], [500, 411], [500, 419], [498, 421], [498, 424], [495, 430], [487, 437], [494, 446], [502, 448], [511, 442], [543, 441], [543, 436], [548, 431], [548, 429], [538, 421], [540, 397], [535, 387], [534, 377]]]}}, {"type": "Feature", "properties": {"class": "Grassland", "class_index": 1, "area_px": 807.0}, "geometry": {"type": "Polygon", "coordinates": [[[249, 216], [246, 213], [244, 213], [237, 222], [228, 225], [216, 226], [212, 229], [205, 238], [206, 254], [209, 252], [211, 248], [220, 245], [246, 244], [251, 246], [253, 244], [258, 243], [257, 241], [241, 242], [231, 237], [233, 233], [243, 230], [249, 224], [249, 216]]]}}, {"type": "Feature", "properties": {"class": "Grassland", "class_index": 1, "area_px": 6639.0}, "geometry": {"type": "Polygon", "coordinates": [[[163, 80], [165, 86], [164, 92], [166, 105], [173, 117], [173, 121], [169, 127], [171, 134], [167, 141], [167, 149], [175, 157], [176, 163], [189, 171], [207, 172], [209, 174], [212, 174], [225, 182], [230, 182], [241, 191], [248, 186], [251, 186], [253, 192], [259, 194], [270, 185], [276, 174], [277, 160], [280, 157], [274, 142], [275, 125], [272, 119], [270, 119], [267, 115], [254, 115], [243, 122], [239, 121], [240, 142], [238, 146], [238, 151], [242, 159], [240, 161], [236, 161], [230, 156], [230, 151], [228, 147], [216, 146], [213, 142], [209, 118], [209, 112], [211, 110], [203, 107], [199, 107], [196, 109], [194, 107], [190, 96], [190, 92], [193, 89], [193, 85], [189, 81], [184, 81], [178, 84], [168, 79], [163, 80]]]}}, {"type": "Feature", "properties": {"class": "Grassland", "class_index": 1, "area_px": 42444.5}, "geometry": {"type": "Polygon", "coordinates": [[[429, 65], [423, 70], [423, 73], [428, 79], [428, 81], [422, 86], [421, 97], [405, 110], [404, 116], [399, 121], [388, 127], [383, 128], [377, 136], [360, 146], [356, 153], [365, 156], [366, 153], [377, 144], [387, 141], [404, 140], [415, 142], [419, 141], [424, 143], [434, 139], [443, 139], [444, 136], [441, 133], [430, 129], [423, 129], [418, 136], [413, 136], [406, 139], [394, 137], [391, 134], [391, 132], [394, 130], [409, 129], [411, 125], [411, 118], [417, 110], [423, 110], [430, 114], [439, 114], [442, 112], [451, 113], [455, 119], [461, 120], [466, 126], [475, 129], [480, 134], [483, 143], [491, 152], [493, 166], [498, 178], [498, 184], [495, 187], [492, 187], [488, 181], [486, 173], [482, 167], [476, 162], [471, 149], [468, 147], [466, 150], [467, 157], [470, 160], [472, 166], [476, 169], [477, 176], [483, 182], [483, 187], [478, 194], [471, 194], [460, 188], [450, 174], [442, 168], [437, 169], [438, 174], [453, 187], [453, 189], [459, 196], [469, 201], [476, 207], [478, 217], [475, 227], [470, 229], [464, 223], [456, 219], [442, 208], [428, 204], [419, 199], [386, 203], [382, 200], [382, 198], [366, 198], [355, 207], [355, 209], [357, 211], [359, 210], [361, 214], [370, 211], [374, 211], [377, 214], [378, 225], [375, 232], [370, 237], [353, 238], [350, 237], [344, 231], [335, 232], [327, 237], [322, 238], [320, 240], [320, 247], [310, 255], [299, 260], [298, 264], [308, 274], [308, 279], [329, 280], [331, 282], [331, 286], [335, 287], [338, 290], [340, 290], [355, 277], [360, 277], [362, 279], [362, 290], [364, 296], [366, 297], [368, 307], [353, 324], [353, 326], [358, 331], [375, 335], [380, 342], [380, 347], [373, 354], [373, 357], [377, 362], [378, 377], [383, 381], [387, 373], [386, 336], [388, 334], [391, 334], [394, 337], [407, 366], [407, 370], [400, 384], [400, 392], [391, 397], [390, 405], [388, 408], [380, 411], [380, 421], [389, 423], [391, 425], [402, 423], [409, 426], [412, 421], [416, 418], [429, 417], [430, 412], [432, 410], [438, 411], [440, 409], [445, 395], [449, 392], [449, 376], [456, 353], [460, 347], [462, 340], [457, 328], [462, 320], [472, 315], [472, 313], [468, 311], [457, 311], [455, 309], [456, 297], [461, 288], [459, 286], [459, 274], [454, 255], [466, 245], [472, 234], [480, 236], [484, 234], [491, 222], [493, 222], [498, 228], [498, 237], [488, 253], [489, 261], [493, 261], [496, 259], [499, 262], [499, 268], [497, 271], [495, 283], [499, 283], [504, 278], [518, 276], [521, 278], [521, 282], [525, 288], [525, 291], [519, 295], [513, 296], [502, 301], [495, 309], [484, 313], [493, 322], [507, 321], [511, 324], [511, 326], [503, 342], [500, 344], [487, 361], [484, 375], [480, 381], [480, 384], [473, 391], [480, 399], [480, 404], [471, 411], [468, 420], [458, 432], [456, 437], [454, 439], [450, 439], [447, 432], [448, 424], [441, 423], [436, 426], [429, 435], [421, 440], [422, 450], [420, 452], [415, 448], [411, 450], [410, 464], [408, 469], [404, 471], [404, 473], [394, 482], [389, 494], [383, 498], [378, 506], [374, 509], [374, 511], [377, 514], [375, 524], [362, 541], [350, 548], [334, 553], [323, 553], [314, 543], [298, 543], [299, 548], [303, 552], [326, 558], [329, 561], [328, 566], [330, 568], [340, 567], [344, 565], [352, 556], [361, 555], [365, 553], [366, 546], [369, 543], [378, 544], [380, 546], [380, 552], [387, 556], [391, 548], [390, 538], [395, 532], [397, 523], [402, 519], [407, 519], [409, 521], [409, 526], [416, 530], [419, 540], [426, 541], [429, 543], [429, 551], [425, 556], [425, 561], [423, 565], [427, 569], [434, 569], [437, 572], [440, 572], [443, 569], [450, 569], [450, 567], [447, 564], [443, 563], [439, 559], [435, 551], [435, 547], [437, 546], [438, 541], [434, 536], [434, 526], [423, 508], [429, 494], [429, 488], [424, 482], [425, 474], [430, 467], [432, 451], [442, 443], [449, 443], [453, 450], [459, 452], [465, 451], [475, 439], [475, 434], [482, 427], [485, 417], [492, 408], [498, 407], [499, 396], [504, 386], [504, 382], [508, 378], [512, 378], [515, 376], [522, 365], [522, 354], [524, 348], [538, 336], [544, 322], [547, 319], [556, 316], [560, 309], [565, 306], [568, 301], [574, 296], [574, 292], [569, 291], [568, 289], [576, 285], [580, 289], [591, 288], [600, 276], [600, 268], [602, 264], [588, 265], [582, 267], [572, 266], [564, 274], [558, 274], [555, 271], [556, 266], [554, 256], [559, 249], [558, 246], [563, 241], [569, 240], [578, 228], [591, 220], [584, 218], [579, 221], [573, 222], [569, 215], [566, 213], [559, 211], [553, 214], [546, 207], [543, 199], [536, 195], [535, 182], [540, 168], [540, 157], [538, 154], [536, 154], [530, 169], [529, 197], [533, 204], [535, 204], [538, 207], [538, 217], [540, 219], [540, 225], [537, 229], [525, 237], [521, 236], [518, 233], [517, 216], [514, 210], [513, 199], [511, 194], [511, 183], [513, 180], [508, 175], [507, 169], [505, 167], [504, 154], [500, 152], [498, 146], [501, 144], [510, 144], [512, 136], [510, 136], [501, 125], [493, 121], [482, 112], [480, 86], [476, 86], [466, 99], [454, 98], [449, 94], [452, 89], [452, 86], [449, 82], [449, 80], [452, 78], [451, 74], [447, 71], [433, 69], [429, 65]], [[431, 288], [433, 290], [434, 304], [442, 306], [445, 309], [444, 314], [434, 317], [434, 321], [431, 325], [426, 325], [418, 320], [413, 320], [406, 327], [400, 329], [397, 324], [398, 320], [406, 310], [412, 309], [414, 307], [414, 304], [410, 299], [411, 287], [413, 286], [419, 294], [421, 294], [425, 289], [431, 288]], [[397, 209], [414, 209], [423, 213], [428, 220], [429, 224], [443, 240], [450, 256], [453, 272], [451, 279], [447, 284], [440, 279], [437, 270], [431, 270], [427, 267], [430, 259], [429, 256], [425, 252], [413, 248], [402, 239], [399, 229], [399, 222], [395, 214], [395, 211], [397, 209]]]}}, {"type": "Feature", "properties": {"class": "Grassland and crops", "class_index": 2, "area_px": 7945.0}, "geometry": {"type": "Polygon", "coordinates": [[[360, 315], [358, 315], [351, 323], [354, 333], [344, 349], [341, 349], [337, 345], [336, 329], [332, 319], [327, 314], [325, 315], [323, 313], [320, 313], [315, 315], [309, 321], [304, 329], [294, 338], [267, 343], [250, 353], [246, 358], [246, 361], [244, 362], [241, 371], [240, 386], [243, 397], [253, 412], [261, 420], [274, 426], [281, 428], [294, 428], [299, 423], [296, 402], [293, 395], [294, 385], [298, 381], [303, 379], [331, 380], [350, 385], [358, 380], [364, 369], [369, 364], [376, 365], [376, 362], [374, 361], [372, 354], [379, 347], [379, 342], [377, 338], [369, 334], [358, 332], [352, 326], [352, 324], [360, 315]]]}}, {"type": "Feature", "properties": {"class": "Grassland and crops", "class_index": 2, "area_px": 21448.5}, "geometry": {"type": "Polygon", "coordinates": [[[14, 136], [13, 142], [8, 145], [8, 150], [10, 152], [18, 153], [14, 158], [14, 161], [16, 163], [25, 164], [27, 166], [24, 169], [14, 170], [14, 175], [20, 180], [20, 186], [23, 192], [28, 192], [30, 190], [40, 190], [43, 192], [44, 195], [48, 195], [55, 200], [59, 200], [62, 205], [71, 207], [75, 212], [73, 215], [74, 223], [87, 221], [95, 227], [106, 231], [106, 234], [104, 235], [104, 246], [106, 248], [116, 249], [123, 246], [129, 248], [128, 250], [122, 249], [115, 254], [115, 259], [122, 265], [122, 270], [115, 275], [115, 278], [119, 283], [122, 292], [125, 295], [128, 307], [133, 312], [138, 310], [159, 310], [177, 312], [182, 314], [191, 314], [196, 311], [200, 306], [201, 287], [199, 285], [198, 269], [189, 263], [186, 264], [173, 261], [152, 272], [146, 272], [138, 265], [148, 260], [152, 255], [169, 249], [177, 249], [181, 251], [188, 250], [194, 254], [205, 254], [204, 238], [207, 233], [216, 225], [228, 224], [237, 221], [244, 212], [244, 197], [240, 191], [230, 183], [225, 183], [207, 173], [189, 172], [176, 164], [174, 159], [159, 159], [152, 150], [149, 151], [148, 159], [145, 162], [142, 154], [136, 153], [134, 150], [130, 148], [125, 148], [116, 153], [111, 153], [101, 139], [101, 133], [91, 127], [75, 127], [69, 133], [62, 132], [56, 135], [53, 135], [52, 132], [49, 130], [40, 132], [35, 129], [28, 129], [22, 135], [17, 134], [14, 136]], [[22, 153], [25, 152], [28, 156], [31, 156], [33, 160], [30, 161], [22, 153]]]}}, {"type": "Feature", "properties": {"class": "Grassland and crops", "class_index": 2, "area_px": 1300.5}, "geometry": {"type": "Polygon", "coordinates": [[[385, 11], [382, 8], [375, 8], [367, 13], [351, 13], [340, 18], [336, 22], [333, 32], [335, 45], [339, 44], [343, 36], [350, 37], [354, 34], [371, 38], [378, 45], [380, 45], [385, 38], [390, 36], [384, 28], [385, 11]]]}}, {"type": "Feature", "properties": {"class": "Cropland (primarily wheat, sugar beets, corn)", "class_index": 3, "area_px": 1977.0}, "geometry": {"type": "Polygon", "coordinates": [[[195, 524], [185, 517], [182, 517], [179, 521], [175, 522], [163, 522], [150, 518], [142, 518], [137, 520], [126, 529], [119, 532], [99, 530], [94, 534], [96, 537], [107, 540], [109, 544], [121, 540], [139, 541], [158, 558], [162, 559], [164, 557], [164, 554], [157, 546], [157, 544], [159, 542], [163, 542], [173, 549], [177, 549], [191, 540], [193, 537], [193, 529], [195, 524]]]}}, {"type": "Feature", "properties": {"class": "Cropland (primarily wheat, sugar beets, corn)", "class_index": 3, "area_px": 808.0}, "geometry": {"type": "Polygon", "coordinates": [[[392, 134], [394, 136], [406, 138], [409, 136], [418, 135], [423, 128], [430, 128], [435, 130], [448, 129], [454, 126], [455, 120], [449, 113], [430, 115], [423, 111], [417, 111], [412, 118], [412, 125], [409, 130], [394, 131], [392, 132], [392, 134]]]}}, {"type": "Feature", "properties": {"class": "Cropland (primarily wheat, sugar beets, corn)", "class_index": 3, "area_px": 16592.5}, "geometry": {"type": "Polygon", "coordinates": [[[407, 35], [399, 34], [391, 36], [385, 39], [380, 46], [378, 46], [371, 39], [362, 36], [354, 35], [350, 38], [343, 37], [340, 44], [333, 47], [333, 56], [330, 60], [330, 66], [321, 77], [308, 83], [275, 89], [262, 96], [255, 104], [255, 111], [268, 115], [270, 113], [275, 113], [290, 106], [306, 101], [322, 101], [326, 105], [326, 108], [324, 110], [324, 117], [322, 119], [316, 118], [308, 127], [309, 136], [315, 142], [316, 145], [314, 173], [316, 177], [318, 177], [324, 183], [324, 197], [322, 201], [319, 203], [311, 205], [295, 205], [292, 207], [290, 212], [290, 229], [295, 239], [303, 241], [315, 236], [323, 230], [332, 230], [334, 232], [344, 230], [350, 236], [353, 237], [370, 236], [374, 232], [377, 225], [376, 214], [374, 212], [370, 212], [361, 215], [359, 211], [357, 212], [354, 209], [354, 207], [366, 197], [384, 196], [388, 191], [390, 184], [395, 178], [397, 178], [399, 166], [405, 162], [415, 163], [417, 158], [423, 153], [423, 144], [419, 142], [415, 143], [403, 141], [379, 144], [370, 150], [365, 157], [356, 154], [351, 159], [343, 163], [343, 174], [350, 178], [354, 176], [356, 168], [360, 169], [364, 173], [364, 181], [362, 185], [356, 190], [355, 195], [352, 199], [347, 199], [344, 196], [343, 190], [336, 184], [336, 178], [334, 175], [333, 167], [331, 163], [328, 161], [328, 157], [330, 155], [337, 156], [349, 150], [355, 151], [360, 145], [377, 135], [383, 127], [388, 126], [399, 120], [403, 116], [404, 110], [420, 97], [421, 86], [427, 81], [427, 79], [422, 73], [422, 70], [429, 63], [412, 51], [407, 35]]]}}, {"type": "Feature", "properties": {"class": "Other crops (primarily cereals)", "class_index": 4, "area_px": 2485.0}, "geometry": {"type": "Polygon", "coordinates": [[[376, 514], [372, 512], [369, 515], [365, 516], [363, 514], [363, 506], [354, 514], [337, 520], [325, 521], [310, 525], [301, 525], [298, 527], [294, 526], [289, 528], [289, 531], [291, 533], [291, 542], [295, 544], [293, 552], [295, 557], [299, 561], [300, 571], [309, 567], [326, 567], [328, 561], [317, 556], [307, 555], [306, 553], [303, 553], [297, 546], [298, 542], [314, 542], [323, 552], [334, 552], [342, 550], [362, 540], [373, 526], [376, 514]]]}}, {"type": "Feature", "properties": {"class": "Other crops (primarily cereals)", "class_index": 4, "area_px": 2561.5}, "geometry": {"type": "Polygon", "coordinates": [[[209, 490], [207, 495], [200, 501], [201, 506], [205, 513], [222, 519], [230, 527], [231, 535], [227, 538], [220, 539], [208, 531], [201, 530], [195, 525], [194, 537], [192, 541], [199, 552], [198, 558], [212, 560], [223, 558], [229, 555], [236, 558], [243, 558], [257, 546], [259, 538], [261, 536], [257, 527], [253, 525], [251, 519], [244, 512], [233, 508], [226, 500], [221, 497], [219, 498], [216, 494], [209, 490]]]}}, {"type": "Feature", "properties": {"class": "Other crops (primarily cereals)", "class_index": 4, "area_px": 3283.5}, "geometry": {"type": "Polygon", "coordinates": [[[227, 486], [231, 492], [234, 492], [236, 489], [240, 489], [246, 492], [259, 493], [265, 500], [269, 500], [276, 503], [277, 505], [275, 507], [269, 507], [267, 509], [268, 516], [272, 518], [285, 518], [290, 516], [294, 518], [311, 519], [314, 517], [327, 515], [347, 508], [354, 499], [366, 493], [367, 491], [366, 489], [360, 492], [348, 491], [330, 480], [321, 477], [308, 478], [306, 480], [303, 479], [294, 482], [272, 480], [269, 477], [264, 481], [255, 480], [244, 484], [236, 484], [234, 486], [230, 484], [227, 486]]]}}, {"type": "Feature", "properties": {"class": "Other crops (primarily cereals)", "class_index": 4, "area_px": 1178.5}, "geometry": {"type": "Polygon", "coordinates": [[[252, 462], [252, 464], [255, 467], [269, 475], [285, 472], [300, 473], [302, 471], [309, 469], [333, 467], [336, 464], [336, 459], [331, 458], [323, 460], [317, 458], [308, 460], [301, 456], [299, 452], [292, 452], [287, 454], [276, 453], [267, 457], [258, 457], [252, 462]]]}}, {"type": "Feature", "properties": {"class": "Other crops (primarily cereals)", "class_index": 4, "area_px": 1650.5}, "geometry": {"type": "Polygon", "coordinates": [[[451, 392], [446, 395], [442, 407], [438, 412], [432, 411], [431, 416], [427, 419], [419, 418], [414, 420], [410, 426], [412, 430], [412, 436], [403, 443], [397, 443], [394, 445], [394, 449], [396, 452], [396, 461], [398, 466], [402, 470], [406, 470], [408, 467], [410, 450], [415, 447], [420, 451], [420, 440], [429, 434], [436, 425], [441, 422], [448, 423], [448, 432], [450, 438], [454, 438], [457, 432], [467, 420], [470, 414], [470, 410], [458, 409], [455, 405], [451, 392]]]}}, {"type": "Feature", "properties": {"class": "Other crops (primarily cereals)", "class_index": 4, "area_px": 4656.5}, "geometry": {"type": "Polygon", "coordinates": [[[546, 358], [533, 358], [530, 361], [525, 377], [514, 377], [512, 379], [508, 379], [505, 382], [505, 386], [500, 396], [499, 407], [497, 409], [492, 409], [486, 417], [483, 427], [476, 434], [476, 439], [465, 452], [455, 452], [450, 448], [449, 444], [442, 444], [433, 451], [431, 467], [426, 474], [425, 482], [430, 488], [430, 492], [433, 491], [439, 483], [442, 483], [444, 485], [445, 491], [442, 501], [443, 506], [450, 503], [454, 504], [455, 492], [462, 484], [470, 481], [480, 486], [498, 500], [503, 507], [506, 505], [522, 505], [526, 500], [518, 496], [509, 486], [500, 470], [494, 468], [490, 464], [496, 457], [500, 455], [501, 449], [494, 447], [486, 437], [494, 430], [499, 419], [499, 411], [505, 408], [514, 399], [523, 395], [526, 392], [529, 379], [537, 374], [545, 363], [546, 358]]]}}, {"type": "Feature", "properties": {"class": "Other crops (primarily cereals)", "class_index": 4, "area_px": 22036.5}, "geometry": {"type": "Polygon", "coordinates": [[[136, 312], [144, 320], [155, 323], [157, 325], [157, 327], [153, 330], [153, 333], [158, 342], [158, 347], [153, 356], [146, 361], [146, 367], [158, 375], [165, 385], [174, 384], [181, 390], [185, 389], [188, 385], [196, 388], [204, 396], [204, 403], [213, 420], [214, 429], [227, 436], [233, 443], [236, 444], [268, 441], [275, 445], [292, 444], [299, 434], [307, 428], [315, 425], [324, 417], [330, 415], [333, 408], [340, 399], [353, 395], [359, 399], [362, 416], [360, 425], [362, 428], [362, 443], [365, 448], [375, 448], [377, 446], [377, 442], [374, 435], [374, 427], [379, 421], [379, 411], [383, 408], [388, 407], [390, 397], [395, 393], [399, 392], [399, 384], [406, 370], [404, 360], [393, 337], [391, 335], [388, 335], [388, 373], [386, 379], [383, 382], [377, 377], [376, 366], [369, 365], [365, 369], [359, 380], [355, 384], [350, 386], [331, 381], [300, 381], [295, 385], [294, 395], [297, 402], [300, 423], [294, 429], [281, 429], [261, 421], [252, 412], [244, 401], [239, 386], [239, 375], [245, 358], [250, 352], [267, 342], [294, 337], [303, 329], [308, 321], [315, 314], [320, 312], [323, 312], [325, 314], [327, 313], [333, 319], [337, 329], [338, 345], [341, 348], [344, 348], [353, 333], [353, 330], [350, 326], [351, 321], [358, 314], [361, 315], [367, 307], [365, 297], [363, 296], [361, 290], [360, 278], [355, 278], [340, 291], [338, 291], [330, 286], [329, 281], [308, 280], [307, 274], [303, 269], [300, 268], [297, 263], [287, 270], [275, 271], [274, 274], [277, 276], [275, 279], [249, 279], [245, 282], [237, 280], [223, 280], [206, 267], [204, 264], [202, 264], [199, 268], [200, 285], [202, 287], [201, 306], [196, 312], [191, 315], [182, 315], [177, 313], [159, 311], [136, 312]]]}}, {"type": "Feature", "properties": {"class": "Other crops (primarily cereals)", "class_index": 4, "area_px": 4264.5}, "geometry": {"type": "Polygon", "coordinates": [[[493, 223], [490, 224], [489, 228], [484, 235], [480, 237], [472, 235], [467, 245], [455, 255], [460, 274], [460, 286], [462, 288], [457, 297], [456, 309], [468, 310], [473, 313], [477, 311], [479, 313], [482, 323], [482, 327], [477, 336], [476, 344], [477, 366], [474, 378], [474, 388], [479, 384], [479, 381], [483, 375], [486, 361], [499, 344], [502, 342], [510, 326], [510, 324], [507, 322], [493, 323], [483, 313], [495, 308], [502, 300], [524, 291], [524, 288], [520, 282], [520, 278], [518, 277], [504, 279], [497, 285], [494, 283], [496, 271], [498, 268], [498, 262], [496, 260], [493, 262], [489, 262], [487, 260], [487, 253], [497, 237], [497, 228], [493, 223]]]}}, {"type": "Feature", "properties": {"class": "Other crops (primarily cereals)", "class_index": 4, "area_px": 1755.0}, "geometry": {"type": "Polygon", "coordinates": [[[397, 210], [396, 214], [400, 222], [400, 229], [403, 239], [413, 247], [425, 251], [431, 258], [428, 267], [431, 269], [437, 269], [439, 271], [441, 279], [447, 283], [450, 279], [452, 272], [449, 256], [442, 240], [428, 224], [423, 214], [414, 210], [397, 210]]]}}, {"type": "Feature", "properties": {"class": "Other crops (primarily cereals)", "class_index": 4, "area_px": 4923.0}, "geometry": {"type": "Polygon", "coordinates": [[[607, 171], [602, 169], [601, 167], [597, 167], [590, 170], [587, 167], [582, 168], [578, 164], [571, 165], [567, 162], [564, 156], [554, 144], [543, 139], [532, 139], [526, 134], [513, 135], [512, 143], [510, 145], [499, 146], [500, 151], [505, 154], [505, 163], [509, 175], [514, 180], [512, 183], [512, 194], [519, 222], [518, 231], [521, 235], [524, 236], [532, 232], [539, 225], [539, 219], [537, 217], [537, 207], [532, 204], [528, 197], [529, 169], [536, 153], [538, 153], [541, 157], [541, 168], [536, 182], [536, 193], [538, 196], [544, 199], [547, 207], [553, 213], [559, 210], [567, 213], [572, 208], [580, 204], [582, 201], [582, 197], [586, 191], [604, 174], [607, 173], [607, 171]]]}}, {"type": "Feature", "properties": {"class": "Other crops (primarily cereals)", "class_index": 4, "area_px": 5375.0}, "geometry": {"type": "Polygon", "coordinates": [[[456, 120], [456, 124], [453, 128], [448, 130], [439, 130], [445, 136], [443, 140], [434, 140], [424, 144], [425, 151], [418, 158], [415, 164], [405, 163], [400, 166], [398, 178], [395, 179], [391, 184], [390, 189], [387, 194], [383, 197], [383, 200], [388, 202], [395, 200], [419, 198], [428, 203], [442, 207], [456, 218], [464, 222], [468, 227], [472, 228], [476, 223], [477, 217], [475, 207], [469, 202], [459, 197], [454, 192], [452, 187], [437, 174], [436, 169], [442, 167], [452, 175], [460, 187], [471, 193], [478, 193], [482, 187], [482, 182], [476, 176], [475, 169], [471, 166], [469, 160], [466, 157], [465, 150], [468, 146], [472, 149], [477, 162], [483, 167], [487, 173], [489, 181], [492, 186], [495, 186], [497, 184], [497, 178], [492, 166], [490, 152], [482, 143], [479, 134], [475, 130], [466, 127], [461, 121], [456, 120]]]}}, {"type": "Feature", "properties": {"class": "Other crops (primarily cereals)", "class_index": 4, "area_px": 883.0}, "geometry": {"type": "Polygon", "coordinates": [[[211, 111], [210, 118], [214, 142], [216, 145], [228, 146], [231, 151], [231, 156], [236, 160], [240, 160], [241, 157], [237, 151], [237, 146], [239, 142], [238, 122], [227, 115], [215, 114], [213, 111], [211, 111]]]}}, {"type": "Feature", "properties": {"class": "Other crops (primarily cereals)", "class_index": 4, "area_px": 7985.0}, "geometry": {"type": "Polygon", "coordinates": [[[324, 103], [306, 102], [290, 107], [275, 114], [269, 115], [269, 117], [274, 120], [274, 123], [276, 125], [275, 142], [278, 151], [281, 155], [281, 157], [278, 160], [277, 174], [271, 185], [261, 194], [254, 194], [252, 192], [251, 187], [248, 187], [241, 192], [245, 197], [245, 212], [250, 216], [250, 224], [243, 231], [232, 235], [232, 237], [237, 238], [241, 241], [257, 240], [259, 243], [251, 247], [246, 245], [225, 245], [211, 249], [208, 254], [209, 256], [217, 259], [226, 266], [233, 269], [241, 269], [251, 265], [263, 263], [280, 263], [285, 261], [293, 252], [304, 250], [308, 244], [316, 240], [319, 240], [322, 237], [327, 236], [333, 232], [323, 231], [315, 237], [300, 242], [293, 238], [289, 229], [289, 212], [293, 205], [311, 204], [319, 202], [323, 197], [323, 183], [318, 178], [316, 178], [313, 173], [315, 145], [314, 142], [308, 136], [307, 127], [316, 117], [323, 117], [323, 110], [325, 108], [324, 103]]]}}, {"type": "Feature", "properties": {"class": "Olives (often with vines and wheat)", "class_index": 5, "area_px": 711.5}, "geometry": {"type": "Polygon", "coordinates": [[[598, 191], [592, 196], [592, 207], [597, 212], [597, 224], [600, 227], [607, 230], [612, 230], [613, 222], [618, 209], [616, 207], [615, 200], [610, 197], [610, 191], [598, 191]]]}}, {"type": "Feature", "properties": {"class": "Market gardening (fruits, vegetables, flowers)", "class_index": 6, "area_px": 1212.0}, "geometry": {"type": "Polygon", "coordinates": [[[273, 542], [264, 549], [265, 555], [270, 565], [271, 584], [274, 588], [284, 592], [296, 580], [300, 572], [299, 564], [292, 552], [294, 544], [293, 543], [273, 542]]]}}, {"type": "Feature", "properties": {"class": "Market gardening (fruits, vegetables, flowers)", "class_index": 6, "area_px": 3299.5}, "geometry": {"type": "Polygon", "coordinates": [[[439, 484], [435, 490], [430, 493], [424, 506], [430, 519], [435, 526], [435, 536], [439, 541], [439, 544], [436, 547], [436, 551], [440, 559], [451, 567], [451, 574], [454, 576], [463, 577], [466, 581], [466, 584], [468, 585], [475, 578], [479, 571], [489, 571], [492, 561], [500, 554], [500, 552], [504, 548], [506, 539], [504, 537], [501, 537], [497, 541], [495, 541], [491, 537], [484, 539], [469, 539], [464, 537], [461, 533], [461, 528], [465, 523], [465, 516], [454, 505], [450, 504], [445, 507], [441, 505], [444, 488], [442, 484], [439, 484]]]}}, {"type": "Feature", "properties": {"class": "Market gardening (fruits, vegetables, flowers)", "class_index": 6, "area_px": 1847.5}, "geometry": {"type": "Polygon", "coordinates": [[[477, 312], [462, 321], [458, 328], [463, 340], [461, 347], [457, 353], [454, 366], [451, 372], [450, 391], [454, 396], [456, 405], [460, 409], [471, 410], [479, 404], [479, 399], [472, 392], [473, 378], [476, 366], [476, 336], [481, 327], [481, 323], [477, 312]]]}}, {"type": "Feature", "properties": {"class": "Market gardening (fruits, vegetables, flowers)", "class_index": 6, "area_px": 697.0}, "geometry": {"type": "Polygon", "coordinates": [[[330, 156], [329, 161], [332, 163], [334, 167], [335, 175], [337, 178], [337, 184], [344, 190], [345, 196], [347, 198], [352, 198], [355, 190], [361, 185], [363, 181], [363, 173], [360, 170], [356, 169], [355, 176], [350, 179], [342, 174], [342, 163], [351, 158], [355, 154], [355, 152], [349, 151], [337, 157], [330, 156]]]}}, {"type": "Feature", "properties": {"class": "Vineyards", "class_index": 7, "area_px": 1252.0}, "geometry": {"type": "Polygon", "coordinates": [[[385, 557], [379, 552], [378, 545], [369, 544], [367, 546], [367, 552], [361, 556], [352, 557], [344, 566], [340, 568], [331, 569], [328, 567], [322, 569], [305, 569], [299, 574], [296, 582], [300, 586], [307, 586], [314, 579], [318, 578], [343, 582], [347, 580], [353, 572], [361, 572], [370, 568], [372, 564], [379, 563], [385, 557]]]}}, {"type": "Feature", "properties": {"class": "Vineyards", "class_index": 7, "area_px": 984.5}, "geometry": {"type": "Polygon", "coordinates": [[[402, 520], [398, 523], [396, 532], [391, 538], [392, 548], [388, 556], [400, 556], [406, 562], [415, 562], [420, 554], [424, 556], [428, 551], [428, 543], [420, 542], [417, 538], [415, 530], [408, 526], [408, 521], [402, 520]]]}}, {"type": "Feature", "properties": {"class": "Vineyards", "class_index": 7, "area_px": 893.0}, "geometry": {"type": "Polygon", "coordinates": [[[178, 509], [178, 513], [181, 517], [185, 516], [192, 520], [201, 529], [208, 530], [220, 538], [224, 538], [230, 535], [229, 527], [222, 520], [205, 514], [200, 506], [199, 501], [197, 501], [196, 499], [188, 496], [187, 499], [178, 509]]]}}, {"type": "Feature", "properties": {"class": "Vineyards", "class_index": 7, "area_px": 6121.0}, "geometry": {"type": "Polygon", "coordinates": [[[155, 392], [153, 394], [153, 398], [156, 403], [158, 414], [163, 416], [167, 422], [167, 426], [162, 438], [167, 450], [174, 451], [178, 455], [179, 463], [183, 469], [190, 472], [201, 473], [208, 483], [208, 489], [216, 493], [219, 497], [221, 496], [226, 499], [233, 507], [244, 511], [252, 519], [254, 525], [258, 527], [261, 535], [267, 537], [272, 542], [274, 541], [273, 533], [256, 520], [255, 516], [249, 507], [251, 503], [261, 502], [264, 499], [259, 494], [246, 493], [240, 490], [236, 490], [234, 493], [231, 493], [226, 487], [230, 483], [234, 485], [236, 483], [244, 483], [255, 479], [264, 480], [269, 476], [255, 468], [251, 464], [238, 464], [236, 462], [236, 452], [232, 443], [227, 437], [213, 429], [212, 420], [203, 403], [203, 396], [196, 389], [188, 386], [185, 390], [181, 391], [174, 385], [171, 385], [170, 386], [172, 391], [168, 392], [167, 402], [165, 401], [163, 390], [155, 392]]]}}, {"type": "Feature", "properties": {"class": "Vineyards", "class_index": 7, "area_px": 1910.0}, "geometry": {"type": "Polygon", "coordinates": [[[319, 241], [316, 241], [308, 245], [304, 251], [293, 253], [283, 263], [263, 264], [251, 266], [241, 270], [230, 269], [207, 255], [194, 255], [188, 251], [181, 252], [177, 250], [169, 250], [166, 252], [159, 253], [152, 256], [148, 261], [139, 266], [146, 271], [152, 271], [156, 268], [161, 267], [169, 261], [174, 260], [186, 263], [189, 262], [197, 268], [202, 263], [204, 263], [217, 275], [227, 280], [237, 279], [245, 281], [249, 278], [275, 278], [276, 276], [273, 274], [275, 270], [287, 269], [297, 262], [299, 259], [310, 254], [319, 247], [319, 241]]]}}]}