{"type": "FeatureCollection", "coordinate_space": "map_area.png pixels, y down", "mm_per_px": 0.259, "features": [{"type": "Feature", "properties": {"class": "Forest", "class_index": 0, "area_px": 3124.5}, "geometry": {"type": "Polygon", "coordinates": [[[139, 568], [146, 577], [164, 581], [178, 591], [214, 594], [215, 588], [219, 587], [246, 600], [252, 607], [259, 606], [266, 611], [267, 618], [273, 621], [281, 628], [289, 625], [309, 634], [313, 634], [321, 629], [334, 629], [338, 631], [343, 630], [342, 625], [335, 621], [318, 619], [310, 615], [305, 615], [299, 610], [285, 610], [276, 597], [271, 595], [262, 597], [258, 591], [247, 586], [239, 585], [234, 582], [218, 578], [204, 579], [195, 572], [184, 572], [170, 563], [160, 567], [142, 566], [139, 568]]]}}, {"type": "Feature", "properties": {"class": "Forest", "class_index": 0, "area_px": 7657.5}, "geometry": {"type": "Polygon", "coordinates": [[[154, 376], [150, 377], [146, 384], [144, 398], [138, 416], [137, 424], [131, 436], [131, 438], [135, 442], [130, 448], [128, 463], [120, 484], [120, 491], [116, 496], [116, 501], [107, 516], [96, 523], [93, 528], [115, 529], [126, 527], [132, 524], [178, 528], [196, 520], [203, 520], [208, 522], [211, 521], [211, 498], [204, 477], [200, 474], [190, 473], [183, 470], [178, 463], [176, 454], [173, 452], [169, 452], [162, 442], [162, 435], [166, 423], [164, 419], [157, 413], [155, 403], [152, 398], [153, 393], [161, 389], [160, 384], [154, 376]]]}}, {"type": "Feature", "properties": {"class": "Forest", "class_index": 0, "area_px": 6894.5}, "geometry": {"type": "Polygon", "coordinates": [[[548, 358], [544, 366], [533, 378], [533, 396], [530, 404], [525, 410], [521, 420], [514, 427], [509, 429], [505, 433], [502, 442], [501, 454], [492, 462], [492, 465], [499, 469], [504, 474], [510, 486], [520, 496], [526, 499], [525, 503], [522, 506], [522, 509], [536, 527], [544, 530], [556, 528], [567, 534], [577, 533], [584, 537], [587, 537], [591, 530], [588, 524], [582, 527], [575, 527], [561, 520], [556, 515], [552, 504], [552, 498], [560, 486], [559, 476], [550, 469], [549, 463], [546, 458], [559, 450], [565, 449], [569, 435], [563, 425], [562, 418], [556, 412], [557, 406], [563, 400], [563, 389], [557, 380], [557, 363], [554, 359], [548, 358]]]}}, {"type": "Feature", "properties": {"class": "Grassland", "class_index": 1, "area_px": 3941.0}, "geometry": {"type": "Polygon", "coordinates": [[[680, 609], [676, 610], [673, 615], [672, 628], [670, 630], [663, 628], [655, 633], [652, 633], [640, 639], [636, 648], [631, 654], [634, 659], [631, 668], [637, 677], [635, 683], [636, 688], [640, 691], [640, 699], [646, 704], [643, 712], [645, 715], [658, 721], [662, 725], [664, 725], [667, 722], [670, 715], [670, 711], [676, 704], [676, 692], [686, 673], [686, 664], [684, 656], [686, 642], [681, 635], [680, 627], [684, 623], [684, 614], [680, 609]]]}}, {"type": "Feature", "properties": {"class": "Grassland", "class_index": 1, "area_px": 5237.5}, "geometry": {"type": "Polygon", "coordinates": [[[585, 538], [577, 534], [567, 535], [556, 529], [545, 531], [540, 530], [532, 524], [530, 519], [522, 511], [521, 506], [507, 506], [490, 517], [490, 519], [497, 525], [506, 538], [507, 543], [500, 555], [492, 563], [491, 569], [487, 572], [480, 572], [469, 585], [488, 593], [493, 598], [500, 596], [505, 600], [513, 595], [519, 595], [525, 592], [532, 593], [536, 589], [534, 583], [541, 575], [548, 574], [554, 568], [559, 568], [566, 559], [579, 556], [582, 553], [582, 544], [585, 538]]]}}, {"type": "Feature", "properties": {"class": "Grassland", "class_index": 1, "area_px": 7637.0}, "geometry": {"type": "Polygon", "coordinates": [[[164, 80], [163, 82], [166, 105], [173, 118], [173, 121], [169, 128], [170, 136], [167, 141], [167, 148], [174, 156], [175, 161], [180, 166], [189, 171], [209, 173], [225, 182], [231, 183], [241, 191], [247, 187], [251, 187], [255, 193], [261, 193], [272, 182], [277, 170], [277, 161], [279, 158], [279, 153], [274, 142], [275, 126], [273, 121], [267, 115], [254, 115], [247, 120], [241, 122], [236, 121], [224, 114], [216, 114], [207, 108], [196, 108], [190, 96], [190, 93], [193, 88], [191, 83], [185, 81], [179, 84], [167, 79], [164, 80]]]}}, {"type": "Feature", "properties": {"class": "Grassland", "class_index": 1, "area_px": 73530.0}, "geometry": {"type": "Polygon", "coordinates": [[[619, 205], [600, 204], [578, 213], [568, 214], [560, 211], [552, 213], [545, 205], [543, 199], [540, 198], [535, 192], [535, 182], [540, 168], [540, 158], [538, 155], [536, 155], [530, 169], [529, 185], [530, 199], [538, 208], [540, 224], [533, 232], [527, 236], [520, 235], [517, 230], [517, 216], [514, 210], [513, 199], [511, 194], [512, 179], [507, 172], [504, 163], [504, 155], [499, 150], [500, 145], [509, 144], [511, 142], [512, 136], [497, 122], [492, 120], [483, 113], [480, 98], [481, 88], [479, 86], [475, 87], [465, 99], [455, 98], [450, 94], [452, 88], [450, 83], [451, 75], [446, 71], [434, 69], [429, 65], [423, 71], [424, 75], [427, 78], [427, 82], [421, 89], [420, 98], [405, 110], [403, 117], [399, 121], [382, 129], [374, 138], [360, 146], [357, 150], [357, 153], [365, 155], [370, 149], [377, 144], [387, 141], [414, 141], [424, 143], [434, 139], [441, 139], [443, 138], [443, 135], [438, 131], [436, 127], [438, 122], [450, 122], [456, 119], [461, 120], [465, 125], [473, 128], [479, 133], [483, 142], [490, 151], [493, 166], [498, 178], [498, 183], [496, 186], [492, 186], [489, 183], [486, 173], [475, 160], [469, 148], [467, 149], [466, 154], [471, 164], [476, 170], [478, 177], [483, 183], [481, 190], [477, 194], [471, 194], [461, 188], [454, 181], [451, 175], [443, 169], [440, 168], [437, 171], [452, 186], [459, 196], [469, 201], [475, 206], [478, 215], [476, 225], [473, 228], [468, 228], [442, 208], [428, 204], [419, 199], [387, 203], [382, 198], [367, 198], [360, 202], [356, 206], [356, 209], [363, 214], [370, 211], [376, 213], [378, 217], [378, 225], [375, 232], [370, 237], [353, 238], [345, 232], [334, 232], [329, 236], [322, 238], [307, 253], [296, 257], [297, 262], [307, 273], [309, 279], [328, 280], [333, 287], [339, 290], [356, 277], [359, 277], [362, 280], [362, 290], [368, 306], [367, 309], [354, 321], [353, 327], [358, 331], [374, 335], [378, 338], [380, 346], [373, 356], [377, 363], [377, 374], [381, 380], [383, 380], [386, 377], [387, 372], [386, 337], [390, 334], [394, 337], [405, 360], [407, 370], [400, 384], [399, 392], [391, 398], [389, 406], [380, 412], [381, 428], [386, 435], [394, 442], [394, 449], [391, 452], [387, 452], [377, 448], [369, 450], [362, 445], [360, 427], [360, 408], [357, 398], [353, 396], [342, 399], [336, 405], [333, 412], [328, 417], [324, 418], [315, 426], [299, 435], [291, 445], [275, 446], [268, 442], [234, 445], [237, 452], [237, 461], [239, 463], [254, 463], [260, 465], [268, 465], [270, 467], [269, 476], [272, 479], [294, 481], [298, 479], [321, 476], [330, 479], [348, 490], [360, 491], [367, 488], [372, 490], [375, 493], [371, 500], [370, 507], [377, 515], [374, 526], [360, 542], [350, 548], [334, 553], [324, 553], [313, 543], [300, 543], [298, 545], [302, 551], [308, 554], [323, 557], [327, 559], [329, 562], [325, 573], [312, 574], [306, 578], [299, 578], [288, 572], [283, 567], [279, 552], [267, 538], [232, 537], [229, 535], [223, 535], [210, 523], [203, 521], [196, 521], [178, 529], [148, 527], [141, 525], [132, 525], [126, 528], [115, 530], [93, 529], [93, 532], [97, 537], [106, 540], [109, 544], [104, 550], [103, 554], [105, 556], [114, 554], [121, 560], [137, 568], [142, 565], [160, 566], [170, 562], [184, 571], [195, 571], [204, 578], [223, 578], [252, 587], [258, 590], [262, 596], [268, 594], [274, 595], [280, 600], [285, 609], [299, 609], [305, 614], [310, 614], [318, 618], [335, 620], [341, 623], [339, 618], [339, 608], [341, 602], [338, 598], [339, 584], [341, 582], [348, 579], [354, 572], [364, 571], [373, 564], [379, 563], [387, 556], [395, 555], [401, 557], [407, 562], [413, 561], [414, 534], [418, 527], [418, 516], [430, 492], [425, 483], [425, 475], [430, 467], [430, 460], [433, 450], [443, 443], [448, 443], [453, 450], [459, 452], [465, 451], [470, 446], [475, 438], [477, 431], [482, 427], [485, 417], [493, 408], [496, 408], [498, 406], [499, 396], [505, 381], [515, 376], [522, 365], [522, 354], [525, 347], [538, 336], [545, 321], [549, 318], [556, 316], [559, 311], [567, 304], [568, 301], [574, 295], [574, 293], [570, 289], [572, 287], [577, 286], [581, 289], [588, 289], [594, 285], [600, 275], [600, 268], [606, 254], [606, 239], [612, 229], [619, 205]]]}}, {"type": "Feature", "properties": {"class": "Grassland and crops", "class_index": 2, "area_px": 7919.0}, "geometry": {"type": "Polygon", "coordinates": [[[377, 338], [365, 333], [358, 332], [353, 328], [354, 333], [348, 344], [344, 348], [340, 348], [337, 344], [336, 329], [333, 321], [325, 314], [317, 314], [309, 321], [304, 329], [297, 336], [288, 340], [267, 343], [248, 355], [240, 375], [240, 386], [243, 397], [253, 412], [261, 420], [281, 428], [296, 427], [298, 425], [299, 419], [296, 402], [293, 395], [293, 388], [295, 384], [303, 379], [331, 380], [347, 385], [355, 383], [368, 365], [376, 364], [372, 355], [379, 346], [377, 338]]]}}, {"type": "Feature", "properties": {"class": "Grassland and crops", "class_index": 2, "area_px": 22667.5}, "geometry": {"type": "Polygon", "coordinates": [[[14, 137], [13, 141], [8, 146], [9, 151], [14, 152], [16, 154], [14, 159], [15, 162], [18, 164], [23, 164], [25, 166], [23, 169], [16, 169], [14, 171], [15, 175], [20, 181], [21, 189], [24, 192], [39, 190], [45, 195], [48, 195], [53, 199], [58, 200], [64, 206], [70, 207], [74, 211], [73, 221], [75, 223], [87, 221], [94, 226], [104, 230], [105, 247], [120, 250], [115, 255], [115, 258], [121, 264], [122, 269], [120, 272], [116, 274], [115, 277], [126, 298], [126, 303], [132, 311], [136, 312], [139, 310], [159, 310], [177, 312], [182, 314], [190, 314], [193, 313], [199, 307], [201, 288], [198, 278], [197, 261], [205, 257], [208, 246], [214, 238], [221, 235], [225, 231], [239, 226], [243, 223], [245, 218], [244, 198], [240, 191], [231, 184], [225, 183], [209, 174], [189, 172], [180, 167], [173, 159], [160, 159], [155, 155], [153, 151], [149, 152], [148, 157], [146, 159], [140, 153], [137, 153], [130, 148], [125, 148], [116, 153], [112, 153], [108, 150], [102, 140], [100, 132], [91, 127], [76, 127], [68, 133], [63, 132], [54, 135], [48, 130], [38, 131], [35, 129], [29, 129], [22, 134], [18, 134], [14, 137]]]}}, {"type": "Feature", "properties": {"class": "Cropland (primarily wheat, sugar beets, corn)", "class_index": 3, "area_px": 18823.5}, "geometry": {"type": "Polygon", "coordinates": [[[381, 8], [376, 8], [367, 13], [352, 13], [343, 16], [337, 21], [333, 32], [335, 44], [333, 47], [333, 55], [330, 61], [330, 66], [321, 77], [308, 83], [275, 89], [262, 96], [255, 104], [254, 109], [257, 112], [268, 115], [306, 101], [321, 101], [326, 106], [324, 116], [322, 118], [315, 119], [308, 128], [309, 136], [316, 145], [314, 172], [316, 176], [324, 184], [324, 197], [318, 203], [311, 205], [296, 205], [292, 208], [290, 212], [290, 229], [297, 240], [306, 240], [324, 230], [331, 230], [333, 232], [345, 231], [353, 237], [370, 236], [376, 228], [377, 217], [373, 212], [363, 215], [355, 209], [355, 206], [367, 197], [383, 197], [388, 191], [391, 183], [397, 177], [399, 167], [406, 162], [415, 162], [424, 150], [424, 146], [421, 143], [387, 142], [377, 145], [370, 150], [365, 156], [361, 156], [356, 153], [356, 150], [360, 145], [374, 137], [382, 128], [396, 122], [402, 117], [404, 110], [419, 98], [420, 89], [426, 82], [426, 78], [423, 75], [422, 71], [428, 65], [428, 62], [417, 55], [411, 49], [409, 39], [406, 35], [399, 34], [392, 36], [384, 27], [385, 12], [381, 8]]]}}, {"type": "Feature", "properties": {"class": "Other crops (primarily cereals)", "class_index": 4, "area_px": 7608.5}, "geometry": {"type": "Polygon", "coordinates": [[[228, 486], [229, 490], [232, 492], [237, 489], [240, 489], [247, 492], [258, 493], [264, 498], [265, 504], [261, 509], [261, 514], [263, 518], [270, 523], [277, 523], [281, 527], [283, 536], [283, 548], [280, 552], [280, 555], [284, 567], [288, 571], [299, 577], [306, 577], [312, 573], [323, 573], [325, 572], [328, 563], [327, 560], [323, 558], [308, 555], [302, 552], [297, 545], [300, 542], [313, 542], [324, 552], [334, 552], [342, 550], [360, 541], [369, 532], [376, 518], [375, 513], [369, 507], [370, 500], [374, 493], [372, 491], [367, 489], [360, 492], [348, 491], [330, 480], [321, 477], [298, 480], [294, 482], [272, 480], [269, 477], [266, 480], [255, 480], [244, 484], [228, 486]]]}}, {"type": "Feature", "properties": {"class": "Other crops (primarily cereals)", "class_index": 4, "area_px": 6458.5}, "geometry": {"type": "Polygon", "coordinates": [[[545, 358], [532, 359], [529, 364], [527, 373], [524, 377], [514, 377], [506, 381], [500, 396], [499, 406], [496, 409], [493, 409], [486, 417], [483, 427], [478, 431], [474, 442], [465, 452], [455, 452], [451, 449], [448, 444], [443, 444], [434, 450], [431, 460], [431, 467], [426, 475], [426, 483], [431, 492], [440, 483], [444, 486], [445, 491], [442, 501], [443, 505], [456, 504], [464, 499], [469, 498], [482, 510], [487, 517], [489, 517], [499, 509], [507, 505], [522, 505], [524, 503], [525, 499], [520, 497], [509, 486], [503, 474], [491, 465], [491, 462], [500, 454], [501, 442], [504, 433], [520, 420], [524, 410], [529, 404], [532, 396], [532, 378], [545, 363], [545, 358]]]}}, {"type": "Feature", "properties": {"class": "Other crops (primarily cereals)", "class_index": 4, "area_px": 6244.5}, "geometry": {"type": "Polygon", "coordinates": [[[500, 146], [500, 150], [505, 155], [505, 163], [508, 172], [513, 179], [512, 194], [514, 199], [515, 210], [518, 216], [518, 230], [519, 233], [522, 235], [527, 235], [533, 231], [539, 224], [537, 208], [529, 199], [528, 185], [529, 169], [533, 158], [536, 154], [538, 154], [541, 158], [541, 168], [536, 182], [536, 192], [540, 197], [544, 199], [546, 205], [552, 212], [560, 210], [568, 213], [578, 212], [600, 203], [613, 203], [620, 205], [630, 195], [636, 185], [635, 180], [611, 173], [600, 167], [591, 170], [586, 167], [583, 168], [577, 164], [570, 164], [554, 144], [543, 139], [533, 139], [525, 134], [516, 134], [513, 136], [512, 142], [509, 145], [500, 146]]]}}, {"type": "Feature", "properties": {"class": "Other crops (primarily cereals)", "class_index": 4, "area_px": 5518.5}, "geometry": {"type": "Polygon", "coordinates": [[[440, 122], [438, 123], [437, 127], [439, 131], [444, 135], [444, 138], [441, 140], [434, 140], [425, 143], [425, 150], [415, 163], [406, 163], [402, 165], [398, 172], [398, 177], [392, 183], [389, 191], [383, 199], [387, 202], [419, 198], [428, 203], [442, 207], [468, 227], [473, 227], [476, 223], [477, 217], [474, 206], [459, 197], [454, 192], [451, 186], [436, 171], [440, 167], [443, 168], [452, 175], [455, 181], [461, 187], [471, 193], [477, 193], [480, 190], [482, 183], [477, 177], [475, 170], [470, 164], [465, 154], [465, 151], [468, 147], [472, 150], [476, 160], [487, 173], [490, 183], [492, 185], [496, 185], [497, 178], [492, 166], [490, 153], [482, 142], [478, 133], [473, 129], [465, 126], [461, 121], [456, 120], [450, 123], [440, 122]]]}}, {"type": "Feature", "properties": {"class": "Other crops (primarily cereals)", "class_index": 4, "area_px": 32261.5}, "geometry": {"type": "Polygon", "coordinates": [[[306, 102], [290, 107], [275, 114], [269, 115], [276, 126], [275, 142], [280, 153], [277, 173], [273, 182], [261, 194], [255, 194], [251, 188], [247, 188], [242, 192], [245, 198], [246, 218], [244, 223], [241, 226], [231, 229], [214, 239], [209, 246], [206, 257], [198, 261], [199, 278], [202, 288], [200, 307], [193, 314], [190, 315], [182, 315], [177, 313], [159, 311], [139, 311], [136, 313], [144, 320], [154, 323], [156, 325], [156, 328], [153, 332], [157, 340], [158, 347], [153, 356], [146, 362], [146, 367], [157, 375], [166, 385], [173, 384], [179, 389], [184, 389], [187, 386], [192, 386], [196, 388], [204, 397], [204, 402], [213, 420], [214, 428], [218, 432], [227, 436], [234, 444], [268, 441], [275, 445], [291, 444], [299, 434], [315, 425], [324, 417], [328, 416], [332, 412], [335, 405], [342, 398], [353, 395], [358, 398], [360, 403], [363, 445], [369, 449], [377, 447], [387, 451], [391, 451], [393, 449], [394, 444], [380, 428], [379, 412], [383, 408], [388, 406], [390, 398], [398, 392], [399, 384], [406, 370], [406, 366], [393, 337], [390, 335], [387, 337], [388, 372], [387, 377], [383, 381], [381, 381], [376, 374], [376, 367], [370, 365], [365, 369], [359, 380], [355, 384], [350, 386], [331, 381], [303, 380], [298, 382], [294, 388], [294, 395], [297, 402], [300, 419], [299, 425], [296, 428], [281, 429], [261, 421], [252, 412], [244, 401], [239, 386], [239, 375], [242, 365], [247, 355], [259, 346], [267, 342], [288, 339], [297, 335], [315, 314], [322, 312], [327, 314], [334, 321], [337, 329], [338, 344], [340, 347], [344, 347], [353, 333], [353, 321], [366, 309], [367, 306], [361, 290], [361, 280], [359, 278], [352, 280], [339, 291], [333, 288], [328, 281], [309, 280], [306, 273], [295, 260], [295, 257], [297, 255], [307, 252], [322, 237], [332, 233], [331, 231], [324, 231], [306, 241], [300, 242], [293, 237], [289, 229], [289, 212], [294, 205], [315, 203], [320, 201], [323, 197], [323, 184], [315, 176], [313, 172], [315, 145], [308, 136], [307, 128], [315, 118], [323, 116], [325, 106], [321, 102], [306, 102]]]}}, {"type": "Feature", "properties": {"class": "Market gardening (fruits, vegetables, flowers)", "class_index": 6, "area_px": 5475.5}, "geometry": {"type": "Polygon", "coordinates": [[[440, 484], [430, 493], [419, 516], [419, 527], [415, 534], [414, 561], [420, 555], [422, 555], [425, 558], [424, 566], [426, 568], [438, 572], [443, 569], [447, 569], [453, 575], [462, 577], [466, 581], [466, 583], [469, 584], [480, 571], [487, 571], [490, 569], [491, 563], [503, 549], [506, 540], [496, 525], [489, 518], [487, 518], [471, 500], [467, 499], [456, 505], [443, 506], [441, 504], [444, 488], [440, 484]]]}}, {"type": "Feature", "properties": {"class": "Vineyards", "class_index": 7, "area_px": 7990.0}, "geometry": {"type": "Polygon", "coordinates": [[[155, 392], [153, 398], [156, 403], [158, 413], [165, 419], [167, 423], [163, 435], [163, 442], [169, 451], [173, 451], [177, 454], [179, 463], [183, 469], [190, 472], [200, 473], [206, 479], [208, 489], [212, 498], [211, 513], [213, 518], [211, 523], [223, 534], [229, 534], [232, 536], [267, 537], [280, 551], [282, 548], [282, 536], [279, 525], [270, 524], [266, 522], [260, 514], [260, 509], [264, 504], [263, 498], [258, 494], [247, 493], [240, 490], [237, 490], [232, 493], [227, 488], [229, 484], [244, 483], [255, 479], [266, 479], [268, 477], [269, 467], [254, 464], [239, 464], [236, 461], [236, 452], [233, 444], [227, 437], [218, 433], [213, 428], [212, 420], [203, 402], [203, 397], [196, 389], [192, 387], [187, 387], [184, 390], [179, 390], [172, 385], [170, 386], [171, 390], [166, 396], [162, 390], [155, 392]]]}}]}