{"type": "FeatureCollection", "coordinate_space": "map_area.png pixels, y down", "mm_per_px": 0.259, "features": [{"type": "Feature", "properties": {"class": "Forest", "class_index": 0, "area_px": 3128.0}, "geometry": {"type": "Polygon", "coordinates": [[[139, 568], [147, 578], [153, 578], [155, 580], [164, 581], [178, 591], [187, 591], [192, 593], [204, 593], [213, 595], [215, 593], [215, 588], [217, 586], [246, 600], [251, 607], [260, 606], [264, 608], [266, 611], [266, 617], [269, 620], [273, 621], [280, 628], [284, 628], [287, 625], [290, 625], [300, 631], [309, 634], [314, 634], [320, 629], [334, 629], [340, 632], [343, 631], [342, 625], [336, 621], [318, 619], [310, 615], [304, 615], [300, 610], [285, 610], [276, 597], [267, 595], [263, 598], [257, 590], [254, 590], [247, 586], [239, 585], [234, 582], [218, 578], [203, 579], [198, 573], [184, 572], [177, 569], [171, 563], [167, 563], [160, 567], [141, 566], [139, 568]]]}}, {"type": "Feature", "properties": {"class": "Forest", "class_index": 0, "area_px": 2412.5}, "geometry": {"type": "Polygon", "coordinates": [[[419, 428], [407, 427], [402, 424], [391, 426], [389, 424], [379, 422], [376, 425], [375, 435], [378, 442], [377, 453], [371, 467], [367, 493], [362, 500], [362, 503], [365, 506], [366, 515], [373, 511], [373, 509], [379, 503], [379, 501], [388, 494], [393, 482], [403, 473], [402, 450], [416, 439], [420, 431], [419, 428]]]}}, {"type": "Feature", "properties": {"class": "Forest", "class_index": 0, "area_px": 6212.5}, "geometry": {"type": "Polygon", "coordinates": [[[154, 376], [151, 376], [146, 384], [144, 398], [138, 416], [137, 424], [131, 436], [132, 440], [135, 440], [136, 442], [130, 448], [128, 463], [119, 487], [120, 492], [116, 495], [116, 502], [104, 519], [112, 523], [121, 522], [128, 516], [139, 512], [153, 513], [167, 517], [176, 516], [182, 511], [191, 508], [192, 503], [203, 498], [208, 490], [207, 483], [204, 477], [201, 474], [190, 473], [183, 470], [178, 463], [177, 455], [174, 452], [167, 451], [162, 443], [161, 438], [166, 426], [166, 422], [157, 413], [155, 403], [152, 398], [152, 394], [155, 391], [160, 390], [162, 388], [160, 384], [156, 381], [154, 376]]]}}, {"type": "Feature", "properties": {"class": "Forest", "class_index": 0, "area_px": 5643.0}, "geometry": {"type": "Polygon", "coordinates": [[[547, 358], [546, 363], [535, 376], [536, 387], [541, 397], [539, 421], [549, 429], [549, 431], [544, 436], [544, 441], [542, 443], [511, 443], [502, 449], [501, 455], [492, 462], [492, 465], [499, 469], [504, 474], [510, 486], [520, 496], [526, 499], [526, 502], [522, 506], [522, 510], [531, 519], [534, 526], [543, 530], [557, 528], [566, 534], [576, 532], [586, 538], [590, 534], [590, 525], [586, 524], [583, 527], [574, 527], [569, 523], [561, 520], [556, 515], [552, 504], [552, 497], [556, 493], [556, 490], [559, 488], [560, 481], [559, 476], [549, 468], [549, 462], [546, 459], [546, 457], [548, 455], [555, 454], [558, 450], [564, 450], [566, 448], [566, 442], [569, 438], [569, 434], [563, 426], [562, 418], [556, 413], [556, 407], [561, 404], [563, 400], [563, 388], [557, 380], [557, 362], [553, 358], [547, 358]]]}}, {"type": "Feature", "properties": {"class": "Grassland", "class_index": 1, "area_px": 3948.5}, "geometry": {"type": "Polygon", "coordinates": [[[681, 609], [677, 609], [674, 612], [671, 631], [669, 631], [667, 628], [662, 628], [657, 632], [640, 639], [638, 641], [637, 647], [631, 653], [631, 656], [635, 661], [632, 663], [631, 669], [637, 676], [637, 679], [635, 681], [635, 688], [641, 691], [638, 697], [647, 705], [643, 709], [643, 713], [649, 718], [657, 720], [661, 725], [666, 724], [671, 709], [674, 708], [676, 705], [676, 692], [686, 673], [686, 664], [684, 656], [686, 641], [681, 636], [681, 631], [679, 628], [684, 623], [684, 614], [681, 609]]]}}, {"type": "Feature", "properties": {"class": "Grassland", "class_index": 1, "area_px": 7044.5}, "geometry": {"type": "Polygon", "coordinates": [[[455, 494], [455, 505], [466, 516], [466, 523], [462, 528], [462, 533], [466, 537], [484, 538], [490, 536], [493, 539], [497, 540], [501, 536], [504, 536], [507, 539], [505, 548], [501, 552], [501, 554], [493, 561], [491, 569], [488, 572], [479, 572], [476, 578], [469, 585], [487, 592], [492, 598], [495, 598], [499, 595], [504, 600], [507, 600], [512, 595], [520, 595], [524, 592], [533, 593], [536, 590], [534, 582], [541, 575], [547, 575], [553, 568], [560, 568], [565, 559], [576, 557], [582, 554], [582, 544], [585, 539], [584, 537], [576, 533], [566, 535], [557, 529], [545, 531], [540, 530], [532, 525], [530, 519], [521, 510], [521, 506], [502, 507], [498, 501], [480, 487], [472, 483], [466, 483], [462, 485], [455, 494]]]}}, {"type": "Feature", "properties": {"class": "Grassland", "class_index": 1, "area_px": 6374.0}, "geometry": {"type": "Polygon", "coordinates": [[[376, 449], [365, 449], [361, 443], [361, 428], [359, 425], [361, 416], [358, 399], [353, 396], [342, 399], [336, 405], [330, 416], [324, 418], [315, 426], [307, 429], [299, 435], [292, 445], [275, 446], [268, 442], [248, 443], [244, 445], [234, 444], [234, 447], [237, 452], [238, 463], [254, 463], [260, 465], [269, 465], [271, 467], [269, 476], [272, 479], [294, 481], [303, 478], [305, 479], [309, 477], [321, 476], [328, 478], [344, 488], [352, 491], [360, 491], [367, 487], [368, 475], [373, 458], [376, 453], [376, 449]]]}}, {"type": "Feature", "properties": {"class": "Grassland", "class_index": 1, "area_px": 2109.0}, "geometry": {"type": "Polygon", "coordinates": [[[534, 377], [530, 379], [527, 392], [523, 396], [514, 400], [505, 409], [500, 411], [500, 419], [498, 421], [498, 424], [495, 430], [488, 436], [488, 439], [494, 446], [502, 448], [511, 442], [543, 441], [543, 436], [548, 431], [548, 429], [538, 421], [540, 397], [535, 387], [534, 377]]]}}, {"type": "Feature", "properties": {"class": "Grassland", "class_index": 1, "area_px": 7638.0}, "geometry": {"type": "Polygon", "coordinates": [[[165, 79], [163, 83], [165, 86], [164, 92], [166, 105], [173, 117], [173, 121], [169, 127], [171, 134], [167, 141], [167, 149], [174, 156], [175, 161], [181, 167], [189, 171], [206, 172], [212, 174], [225, 182], [230, 182], [241, 191], [250, 186], [253, 189], [254, 193], [261, 193], [272, 182], [277, 170], [277, 160], [280, 157], [274, 142], [275, 125], [272, 119], [270, 119], [267, 115], [254, 115], [247, 120], [241, 122], [236, 121], [224, 114], [215, 114], [212, 110], [207, 108], [196, 108], [190, 96], [190, 92], [193, 89], [193, 85], [190, 82], [184, 81], [178, 84], [168, 79], [165, 79]]]}}, {"type": "Feature", "properties": {"class": "Grassland", "class_index": 1, "area_px": 61506.0}, "geometry": {"type": "Polygon", "coordinates": [[[620, 206], [613, 204], [600, 204], [576, 214], [567, 214], [561, 211], [555, 214], [551, 213], [545, 205], [543, 199], [538, 197], [535, 193], [535, 182], [540, 168], [540, 157], [537, 154], [534, 158], [530, 169], [529, 197], [530, 200], [538, 207], [538, 217], [540, 220], [540, 225], [537, 229], [527, 236], [521, 236], [517, 231], [518, 222], [511, 194], [512, 179], [508, 175], [507, 169], [505, 167], [504, 154], [498, 148], [501, 144], [510, 144], [512, 136], [497, 122], [493, 121], [482, 112], [482, 103], [480, 99], [481, 88], [479, 86], [476, 86], [466, 99], [454, 98], [450, 95], [450, 91], [452, 89], [452, 86], [449, 81], [452, 77], [451, 74], [447, 71], [441, 71], [433, 69], [429, 65], [423, 70], [423, 73], [428, 79], [428, 81], [421, 89], [421, 97], [405, 110], [404, 116], [399, 121], [388, 127], [383, 128], [374, 138], [360, 146], [356, 153], [365, 156], [366, 153], [377, 144], [387, 141], [404, 140], [415, 142], [418, 141], [424, 143], [434, 139], [442, 139], [443, 135], [436, 128], [436, 124], [440, 121], [451, 122], [456, 119], [461, 120], [466, 126], [475, 129], [480, 134], [486, 147], [491, 152], [491, 158], [498, 178], [498, 184], [495, 187], [493, 187], [489, 183], [486, 173], [475, 160], [470, 148], [467, 148], [466, 150], [467, 157], [476, 170], [477, 176], [483, 183], [483, 187], [477, 194], [471, 194], [465, 191], [454, 181], [451, 175], [442, 168], [439, 168], [437, 172], [453, 187], [453, 189], [459, 196], [469, 201], [476, 207], [478, 215], [476, 225], [472, 229], [470, 229], [442, 208], [428, 204], [419, 199], [386, 203], [382, 200], [382, 198], [366, 198], [355, 207], [355, 209], [360, 211], [362, 214], [370, 211], [374, 211], [377, 214], [378, 225], [375, 232], [370, 237], [353, 238], [350, 237], [344, 231], [334, 232], [331, 235], [324, 237], [320, 240], [320, 247], [316, 251], [298, 261], [298, 264], [308, 274], [309, 279], [329, 280], [331, 282], [331, 285], [338, 290], [340, 290], [355, 277], [359, 277], [362, 280], [362, 290], [366, 298], [368, 307], [353, 324], [353, 326], [358, 331], [375, 335], [380, 342], [380, 347], [373, 354], [373, 357], [377, 362], [378, 377], [381, 380], [384, 380], [386, 377], [386, 337], [389, 334], [391, 334], [394, 337], [407, 366], [407, 370], [400, 384], [400, 391], [391, 398], [390, 405], [386, 409], [380, 411], [380, 421], [389, 423], [391, 425], [402, 423], [407, 426], [419, 427], [421, 431], [417, 439], [403, 450], [404, 473], [394, 482], [389, 494], [383, 498], [374, 509], [374, 511], [377, 514], [374, 526], [360, 542], [350, 548], [334, 553], [323, 553], [314, 543], [299, 543], [298, 546], [303, 552], [326, 558], [329, 561], [327, 571], [324, 574], [312, 574], [303, 579], [298, 578], [284, 569], [277, 549], [265, 537], [261, 537], [258, 546], [243, 559], [236, 559], [229, 556], [223, 559], [212, 561], [200, 560], [197, 557], [198, 552], [191, 541], [177, 550], [173, 550], [166, 544], [159, 543], [158, 546], [165, 554], [165, 557], [163, 559], [158, 559], [146, 547], [139, 542], [135, 541], [121, 541], [115, 544], [109, 544], [103, 551], [103, 554], [105, 556], [115, 554], [121, 560], [137, 568], [141, 565], [160, 566], [167, 562], [171, 562], [177, 568], [184, 571], [196, 571], [203, 578], [223, 578], [257, 589], [263, 597], [267, 594], [274, 595], [280, 600], [285, 609], [300, 609], [304, 614], [310, 614], [318, 618], [336, 620], [341, 624], [338, 614], [341, 601], [337, 597], [339, 593], [339, 584], [341, 582], [348, 579], [354, 572], [361, 572], [367, 570], [373, 564], [379, 563], [387, 556], [400, 556], [406, 562], [412, 562], [414, 534], [418, 527], [418, 516], [429, 494], [429, 488], [424, 482], [425, 474], [430, 467], [432, 451], [442, 443], [449, 443], [453, 450], [459, 452], [465, 451], [475, 439], [475, 434], [482, 427], [485, 417], [493, 408], [498, 407], [499, 396], [504, 386], [504, 382], [508, 378], [512, 378], [515, 376], [522, 365], [522, 354], [524, 348], [538, 336], [544, 322], [547, 319], [556, 316], [560, 309], [565, 306], [568, 301], [574, 296], [573, 291], [570, 291], [569, 289], [573, 286], [577, 286], [580, 289], [588, 289], [594, 285], [600, 276], [600, 268], [606, 254], [606, 239], [612, 230], [613, 222], [617, 210], [620, 206]], [[493, 222], [498, 228], [498, 237], [488, 253], [488, 259], [490, 261], [497, 260], [499, 262], [499, 268], [497, 271], [495, 283], [499, 283], [504, 278], [518, 276], [521, 279], [525, 291], [519, 295], [513, 296], [502, 301], [495, 309], [485, 313], [473, 314], [468, 311], [457, 311], [455, 309], [455, 302], [460, 287], [459, 274], [454, 256], [461, 248], [466, 245], [473, 234], [477, 236], [482, 235], [488, 228], [489, 224], [493, 222]], [[398, 209], [414, 209], [423, 213], [428, 222], [440, 236], [440, 238], [447, 247], [452, 265], [453, 273], [448, 283], [445, 283], [440, 279], [438, 272], [436, 270], [431, 270], [428, 268], [430, 259], [425, 252], [413, 248], [407, 244], [402, 238], [399, 229], [399, 222], [395, 214], [395, 212], [398, 209]]]}}, {"type": "Feature", "properties": {"class": "Grassland and crops", "class_index": 2, "area_px": 7946.0}, "geometry": {"type": "Polygon", "coordinates": [[[360, 315], [352, 321], [351, 325], [354, 330], [354, 333], [348, 344], [343, 349], [341, 349], [337, 345], [336, 329], [332, 319], [328, 315], [320, 313], [315, 315], [309, 321], [304, 329], [294, 338], [267, 343], [250, 353], [246, 358], [241, 371], [240, 386], [243, 397], [253, 412], [261, 420], [274, 426], [281, 428], [294, 428], [299, 423], [296, 402], [293, 395], [294, 385], [298, 381], [303, 379], [331, 380], [350, 385], [358, 380], [364, 369], [369, 364], [376, 365], [376, 362], [373, 359], [372, 354], [379, 347], [379, 342], [377, 338], [369, 334], [358, 332], [352, 326], [352, 324], [360, 315]]]}}, {"type": "Feature", "properties": {"class": "Grassland and crops", "class_index": 2, "area_px": 21866.5}, "geometry": {"type": "Polygon", "coordinates": [[[14, 136], [13, 142], [8, 146], [8, 150], [10, 152], [17, 153], [14, 158], [14, 161], [16, 163], [24, 164], [26, 166], [24, 169], [14, 170], [14, 174], [20, 180], [22, 191], [28, 192], [30, 190], [40, 190], [43, 192], [44, 195], [48, 195], [55, 200], [59, 200], [62, 205], [70, 207], [74, 211], [73, 221], [75, 223], [87, 221], [94, 226], [103, 229], [106, 232], [104, 236], [104, 246], [106, 248], [121, 249], [115, 255], [115, 259], [122, 265], [122, 270], [115, 275], [115, 278], [119, 283], [122, 292], [125, 295], [128, 307], [133, 312], [138, 310], [159, 310], [177, 312], [182, 314], [191, 314], [199, 307], [201, 287], [199, 285], [198, 269], [188, 263], [186, 264], [173, 261], [152, 272], [146, 272], [138, 266], [141, 263], [148, 260], [153, 255], [169, 249], [177, 249], [181, 251], [187, 250], [194, 254], [206, 254], [209, 243], [214, 238], [231, 228], [241, 225], [244, 222], [245, 204], [244, 197], [240, 191], [230, 183], [225, 183], [212, 175], [199, 172], [189, 172], [181, 168], [174, 161], [174, 159], [159, 159], [152, 150], [149, 151], [148, 159], [146, 161], [144, 160], [142, 154], [137, 153], [130, 148], [125, 148], [116, 153], [111, 153], [101, 139], [101, 133], [91, 127], [75, 127], [69, 133], [62, 132], [54, 135], [49, 130], [41, 132], [35, 129], [28, 129], [22, 134], [17, 134], [14, 136]], [[123, 248], [125, 246], [128, 248], [123, 248]], [[27, 157], [31, 156], [32, 160], [29, 160], [27, 157]], [[23, 153], [24, 152], [26, 155], [25, 156], [23, 153]]]}}, {"type": "Feature", "properties": {"class": "Cropland (primarily wheat, sugar beets, corn)", "class_index": 3, "area_px": 2698.5}, "geometry": {"type": "Polygon", "coordinates": [[[199, 518], [191, 509], [184, 511], [178, 516], [172, 518], [162, 517], [153, 514], [139, 513], [128, 517], [123, 522], [118, 524], [112, 524], [104, 520], [101, 520], [93, 526], [92, 530], [97, 537], [107, 540], [109, 543], [115, 543], [121, 540], [139, 541], [158, 558], [163, 558], [164, 554], [157, 546], [157, 544], [159, 542], [163, 542], [173, 549], [177, 549], [180, 546], [187, 543], [193, 537], [193, 529], [199, 518]]]}}, {"type": "Feature", "properties": {"class": "Cropland (primarily wheat, sugar beets, corn)", "class_index": 3, "area_px": 18814.0}, "geometry": {"type": "Polygon", "coordinates": [[[382, 8], [375, 8], [363, 14], [351, 13], [349, 15], [343, 16], [336, 22], [333, 32], [333, 36], [335, 39], [335, 44], [333, 47], [333, 56], [330, 60], [330, 66], [321, 77], [308, 83], [275, 89], [262, 96], [254, 106], [255, 111], [268, 115], [270, 113], [275, 113], [290, 106], [306, 101], [322, 101], [326, 105], [326, 108], [324, 110], [324, 117], [316, 118], [308, 127], [309, 136], [315, 142], [316, 145], [314, 172], [316, 176], [324, 183], [324, 197], [319, 203], [311, 205], [295, 205], [292, 207], [290, 212], [290, 229], [294, 238], [297, 240], [306, 240], [315, 236], [323, 230], [344, 230], [350, 236], [353, 237], [370, 236], [374, 232], [377, 225], [376, 214], [374, 212], [370, 212], [362, 215], [360, 212], [356, 211], [354, 207], [366, 197], [384, 196], [388, 191], [390, 184], [397, 177], [399, 167], [405, 162], [415, 163], [417, 158], [424, 151], [424, 146], [421, 143], [403, 141], [379, 144], [370, 150], [365, 157], [355, 153], [355, 151], [360, 145], [374, 137], [383, 127], [388, 126], [399, 120], [403, 116], [404, 110], [420, 97], [420, 89], [427, 81], [427, 79], [422, 73], [422, 70], [429, 64], [428, 62], [412, 51], [409, 39], [405, 34], [399, 34], [395, 36], [391, 36], [384, 27], [385, 11], [382, 8]]]}}, {"type": "Feature", "properties": {"class": "Other crops (primarily cereals)", "class_index": 4, "area_px": 3228.5}, "geometry": {"type": "Polygon", "coordinates": [[[208, 491], [207, 495], [203, 499], [194, 502], [192, 505], [193, 511], [200, 518], [200, 520], [195, 526], [194, 537], [192, 539], [196, 549], [199, 552], [198, 557], [200, 559], [206, 560], [223, 558], [229, 555], [236, 558], [243, 558], [257, 546], [259, 538], [261, 536], [258, 529], [253, 525], [251, 519], [244, 512], [233, 508], [226, 500], [208, 491]]]}}, {"type": "Feature", "properties": {"class": "Other crops (primarily cereals)", "class_index": 4, "area_px": 7423.0}, "geometry": {"type": "Polygon", "coordinates": [[[228, 485], [228, 489], [231, 492], [240, 489], [246, 492], [259, 493], [265, 499], [265, 505], [261, 509], [261, 514], [267, 522], [278, 523], [280, 525], [283, 536], [283, 548], [280, 555], [284, 567], [286, 570], [298, 577], [303, 578], [312, 573], [324, 573], [326, 571], [326, 567], [328, 564], [328, 561], [326, 559], [303, 553], [297, 546], [299, 542], [314, 542], [323, 552], [334, 552], [342, 550], [360, 541], [369, 532], [376, 518], [376, 514], [374, 512], [367, 516], [364, 514], [364, 506], [361, 503], [361, 500], [366, 493], [366, 489], [360, 492], [348, 491], [330, 480], [321, 477], [309, 478], [305, 480], [303, 479], [294, 482], [272, 480], [269, 477], [263, 481], [255, 480], [244, 484], [236, 484], [234, 486], [231, 484], [228, 485]]]}}, {"type": "Feature", "properties": {"class": "Other crops (primarily cereals)", "class_index": 4, "area_px": 4661.0}, "geometry": {"type": "Polygon", "coordinates": [[[546, 358], [533, 358], [530, 361], [527, 373], [523, 378], [514, 377], [512, 379], [508, 379], [505, 382], [505, 386], [500, 396], [499, 407], [497, 409], [493, 409], [486, 417], [483, 427], [476, 434], [476, 439], [465, 452], [455, 452], [450, 448], [449, 444], [442, 444], [433, 451], [431, 467], [426, 474], [425, 482], [430, 488], [430, 492], [433, 491], [439, 483], [442, 483], [444, 485], [445, 491], [442, 504], [444, 506], [451, 503], [454, 504], [455, 492], [462, 484], [466, 482], [472, 482], [480, 486], [498, 500], [502, 506], [522, 505], [525, 502], [525, 499], [520, 497], [509, 486], [503, 474], [491, 465], [491, 462], [500, 455], [501, 449], [494, 447], [487, 439], [487, 436], [494, 430], [497, 424], [497, 421], [499, 419], [499, 411], [505, 408], [514, 399], [523, 395], [526, 392], [529, 379], [537, 374], [545, 363], [546, 358]]]}}, {"type": "Feature", "properties": {"class": "Other crops (primarily cereals)", "class_index": 4, "area_px": 22048.5}, "geometry": {"type": "Polygon", "coordinates": [[[136, 312], [144, 320], [154, 323], [157, 326], [153, 333], [158, 342], [158, 347], [153, 356], [145, 363], [146, 367], [156, 374], [166, 385], [174, 384], [181, 390], [183, 390], [187, 386], [193, 386], [204, 396], [204, 403], [213, 420], [213, 427], [218, 432], [227, 436], [233, 443], [236, 444], [268, 441], [275, 445], [292, 444], [299, 434], [307, 428], [315, 425], [324, 417], [330, 415], [335, 405], [342, 398], [353, 395], [359, 399], [362, 416], [360, 425], [362, 428], [362, 443], [365, 448], [376, 448], [377, 442], [374, 435], [374, 427], [379, 421], [379, 411], [383, 408], [386, 408], [389, 405], [390, 398], [399, 391], [399, 384], [406, 370], [406, 366], [402, 355], [393, 337], [389, 335], [387, 337], [388, 373], [384, 381], [381, 381], [377, 377], [376, 366], [369, 365], [365, 369], [359, 380], [355, 384], [350, 386], [331, 381], [300, 381], [295, 385], [294, 395], [297, 402], [300, 423], [294, 429], [281, 429], [261, 421], [252, 412], [244, 401], [239, 386], [239, 375], [245, 358], [250, 352], [267, 342], [294, 337], [303, 329], [308, 321], [315, 314], [320, 312], [328, 314], [333, 319], [337, 329], [338, 345], [341, 348], [343, 348], [347, 344], [353, 333], [353, 330], [350, 325], [351, 321], [359, 314], [362, 314], [367, 307], [365, 298], [361, 290], [361, 280], [359, 278], [355, 278], [340, 291], [338, 291], [330, 285], [329, 281], [309, 280], [307, 278], [307, 274], [297, 263], [287, 270], [276, 271], [274, 273], [277, 276], [275, 279], [249, 279], [245, 282], [237, 280], [223, 280], [203, 264], [199, 268], [200, 285], [202, 287], [201, 305], [193, 314], [182, 315], [177, 313], [159, 311], [136, 312]]]}}, {"type": "Feature", "properties": {"class": "Other crops (primarily cereals)", "class_index": 4, "area_px": 3168.5}, "geometry": {"type": "Polygon", "coordinates": [[[493, 223], [490, 224], [489, 228], [482, 236], [477, 237], [473, 235], [467, 245], [461, 249], [455, 256], [460, 274], [461, 287], [456, 302], [457, 310], [468, 310], [473, 313], [485, 312], [495, 308], [502, 300], [524, 291], [524, 288], [521, 285], [520, 279], [518, 277], [504, 279], [497, 285], [494, 283], [496, 271], [498, 268], [498, 262], [490, 262], [487, 259], [487, 253], [497, 237], [497, 228], [493, 223]]]}}, {"type": "Feature", "properties": {"class": "Other crops (primarily cereals)", "class_index": 4, "area_px": 1754.5}, "geometry": {"type": "Polygon", "coordinates": [[[398, 210], [396, 214], [400, 222], [400, 229], [403, 238], [407, 243], [413, 247], [425, 251], [431, 259], [429, 268], [436, 269], [439, 272], [441, 279], [445, 282], [448, 282], [452, 273], [451, 265], [446, 247], [439, 238], [439, 236], [427, 222], [423, 214], [414, 210], [398, 210]]]}}, {"type": "Feature", "properties": {"class": "Other crops (primarily cereals)", "class_index": 4, "area_px": 6250.5}, "geometry": {"type": "Polygon", "coordinates": [[[499, 147], [500, 150], [505, 154], [506, 167], [508, 169], [509, 175], [513, 179], [512, 194], [519, 222], [518, 231], [521, 235], [524, 236], [532, 232], [539, 225], [539, 220], [537, 217], [537, 207], [529, 200], [528, 197], [529, 169], [533, 158], [537, 153], [541, 157], [541, 168], [536, 182], [536, 193], [538, 196], [544, 199], [546, 205], [553, 213], [559, 210], [567, 213], [576, 213], [600, 203], [613, 203], [620, 205], [625, 201], [636, 186], [636, 181], [634, 179], [608, 172], [600, 167], [590, 170], [587, 167], [582, 168], [578, 164], [569, 164], [554, 144], [543, 139], [532, 139], [526, 134], [516, 134], [513, 136], [512, 143], [510, 145], [501, 145], [499, 147]]]}}, {"type": "Feature", "properties": {"class": "Other crops (primarily cereals)", "class_index": 4, "area_px": 5519.0}, "geometry": {"type": "Polygon", "coordinates": [[[440, 122], [437, 124], [437, 128], [444, 135], [444, 138], [442, 140], [434, 140], [425, 143], [425, 151], [418, 158], [415, 164], [405, 163], [400, 167], [398, 177], [391, 184], [390, 189], [387, 194], [383, 197], [383, 200], [388, 202], [395, 200], [419, 198], [428, 203], [442, 207], [468, 227], [472, 228], [476, 223], [477, 217], [475, 207], [469, 202], [459, 197], [454, 192], [452, 187], [436, 172], [436, 170], [439, 167], [442, 167], [450, 173], [455, 181], [465, 190], [471, 193], [477, 193], [482, 187], [482, 183], [476, 176], [475, 170], [469, 163], [469, 160], [465, 154], [465, 150], [467, 147], [470, 147], [472, 149], [476, 160], [487, 173], [490, 183], [493, 186], [495, 186], [497, 184], [497, 178], [492, 166], [490, 152], [485, 147], [479, 134], [475, 130], [466, 127], [461, 121], [456, 120], [451, 123], [440, 122]]]}}, {"type": "Feature", "properties": {"class": "Other crops (primarily cereals)", "class_index": 4, "area_px": 8532.0}, "geometry": {"type": "Polygon", "coordinates": [[[322, 102], [306, 102], [290, 107], [275, 114], [269, 115], [269, 117], [273, 119], [276, 125], [275, 142], [278, 151], [281, 155], [281, 157], [278, 160], [277, 174], [273, 182], [259, 195], [254, 194], [250, 187], [242, 191], [245, 197], [246, 204], [245, 222], [241, 226], [231, 229], [214, 239], [210, 243], [207, 254], [209, 256], [217, 259], [226, 266], [233, 269], [241, 269], [251, 265], [263, 263], [280, 263], [285, 261], [293, 252], [304, 250], [308, 244], [316, 240], [319, 240], [322, 237], [327, 236], [333, 232], [323, 231], [315, 237], [300, 242], [293, 238], [289, 229], [289, 212], [293, 205], [311, 204], [319, 202], [323, 197], [323, 183], [315, 176], [313, 172], [315, 145], [314, 142], [309, 138], [307, 133], [307, 127], [316, 117], [323, 117], [323, 110], [325, 108], [325, 105], [322, 102]]]}}, {"type": "Feature", "properties": {"class": "Market gardening (fruits, vegetables, flowers)", "class_index": 6, "area_px": 4428.5}, "geometry": {"type": "Polygon", "coordinates": [[[439, 484], [435, 490], [430, 493], [419, 516], [419, 527], [415, 534], [413, 562], [416, 561], [418, 556], [422, 554], [425, 557], [423, 565], [427, 569], [435, 570], [437, 572], [440, 572], [443, 569], [447, 569], [451, 572], [452, 575], [463, 577], [468, 585], [475, 578], [479, 571], [488, 571], [490, 569], [492, 561], [500, 554], [500, 552], [504, 548], [506, 539], [504, 537], [501, 537], [497, 541], [495, 541], [490, 537], [484, 539], [466, 538], [461, 533], [461, 528], [465, 523], [465, 516], [454, 505], [451, 504], [444, 507], [441, 504], [444, 488], [442, 484], [439, 484]]]}}, {"type": "Feature", "properties": {"class": "Vineyards", "class_index": 7, "area_px": 6678.5}, "geometry": {"type": "Polygon", "coordinates": [[[155, 392], [153, 394], [153, 398], [156, 403], [158, 413], [167, 422], [167, 426], [162, 438], [167, 450], [174, 451], [178, 455], [179, 463], [183, 469], [190, 472], [201, 473], [208, 483], [209, 490], [216, 493], [218, 496], [221, 496], [226, 499], [233, 507], [244, 511], [252, 519], [254, 525], [259, 529], [261, 535], [267, 537], [280, 552], [282, 548], [282, 536], [279, 525], [267, 523], [260, 514], [260, 509], [264, 505], [264, 499], [259, 494], [246, 493], [240, 490], [231, 493], [227, 489], [227, 485], [230, 483], [234, 485], [236, 483], [244, 483], [255, 479], [266, 479], [268, 477], [270, 467], [254, 464], [237, 463], [236, 452], [233, 447], [233, 444], [227, 437], [218, 433], [212, 427], [212, 420], [203, 403], [203, 396], [193, 387], [187, 387], [183, 391], [181, 391], [174, 385], [171, 385], [170, 386], [172, 390], [168, 392], [167, 400], [165, 399], [163, 390], [155, 392]]]}}, {"type": "Feature", "properties": {"class": "Vineyards", "class_index": 7, "area_px": 1917.0}, "geometry": {"type": "Polygon", "coordinates": [[[319, 241], [316, 241], [308, 245], [304, 251], [293, 253], [283, 263], [263, 264], [251, 266], [241, 270], [230, 269], [207, 255], [194, 255], [187, 251], [181, 252], [177, 250], [169, 250], [166, 252], [159, 253], [139, 266], [146, 271], [152, 271], [156, 268], [161, 267], [169, 261], [174, 260], [186, 263], [188, 262], [197, 268], [203, 263], [217, 275], [227, 280], [237, 279], [245, 281], [249, 278], [275, 278], [276, 276], [273, 273], [276, 270], [287, 269], [297, 262], [299, 259], [305, 257], [319, 247], [319, 241]]]}}]}